{"type":"FeatureCollection","features":[{"type":"Feature","properties":{"landuse":"green_public_spaces"},"geometry":{"type":"Polygon","coordinates":[[[9.4574,42.6262],[9.466,42.6082],[9.4598,42.602],[9.4664,42.5974],[9.4799,42.5723],[9.5183,42.5584],[9.5082,42.5838],[9.4599,42.6379],[9.4491,42.6556],[9.4519,42.657],[9.4504,42.6601],[9.447,42.6556],[9.4509,42.6456],[9.4412,42.6397],[9.4472,42.6308],[9.4574,42.6262]]]}},{"type":"Feature","properties":{"landuse":"green_public_spaces"},"geometry":{"type":"Polygon","coordinates":[[[8.7082,41.9084],[8.7048,41.9079],[8.7073,41.9077],[8.7082,41.9084]]]}},{"type":"Feature","properties":{"landuse":"vineyard"},"geometry":{"type":"Polygon","coordinates":[[[8.8076,42.5259],[8.8054,42.5247],[8.8043,42.5291],[8.8002,42.5268],[8.8003,42.5214],[8.8076,42.5259]]]}},{"type":"Feature","properties":{"landuse":"vineyard"},"geometry":{"type":"Polygon","coordinates":[[[9.3583,42.6654],[9.3553,42.668],[9.3582,42.672],[9.3526,42.6712],[9.3498,42.667],[9.3583,42.6654]]]}},{"type":"Feature","properties":{"landuse":"vineyard"},"geometry":{"type":"Polygon","coordinates":[[[9.3408,42.6938],[9.3437,42.6875],[9.3417,42.6853],[9.3471,42.685],[9.3487,42.6877],[9.3453,42.6903],[9.3509,42.6936],[9.3408,42.6938]]]}},{"type":"Feature","properties":{"landuse":"vineyard"},"geometry":{"type":"Polygon","coordinates":[[[9.5232,42.4668],[9.5122,42.4653],[9.5095,42.4602],[9.5275,42.4639],[9.5232,42.4668]]]}},{"type":"Feature","properties":{"landuse":"vineyard"},"geometry":{"type":"Polygon","coordinates":[[[9.3207,42.6754],[9.3123,42.6767],[9.3119,42.6742],[9.3232,42.6726],[9.3207,42.6754]]]}},{"type":"Feature","properties":{"landuse":"farmland"},"geometry":{"type":"Polygon","coordinates":[[[9.4982,42.5492],[9.4938,42.547],[9.4934,42.5447],[9.4968,42.5459],[9.4938,42.5448],[9.4954,42.5427],[9.5018,42.5482],[9.4982,42.5492]]]}},{"type":"Feature","properties":{"landuse":"vineyard"},"geometry":{"type":"Polygon","coordinates":[[[8.7833,42.5491],[8.7806,42.5481],[8.7837,42.5411],[8.7876,42.5436],[8.7833,42.5491]]]}},{"type":"Feature","properties":{"landuse":"vineyard"},"geometry":{"type":"Polygon","coordinates":[[[8.7836,42.5355],[8.7779,42.5388],[8.7782,42.5353],[8.7719,42.5301],[8.771,42.5199],[8.7664,42.5198],[8.7723,42.5167],[8.7693,42.5117],[8.7653,42.5119],[8.766,42.5092],[8.775,42.5138],[8.7729,42.5216],[8.7769,42.5292],[8.7833,42.5317],[8.7799,42.5344],[8.7836,42.5355]]]}},{"type":"Feature","properties":{"landuse":"vineyard"},"geometry":{"type":"Polygon","coordinates":[[[9.537,42.426],[9.5378,42.4286],[9.5304,42.427],[9.5343,42.4199],[9.537,42.426]]]}},{"type":"Feature","properties":{"landuse":"orchard"},"geometry":{"type":"Polygon","coordinates":[[[9.5366,42.3013],[9.5435,42.3052],[9.535,42.309],[9.5361,42.3033],[9.5294,42.3126],[9.5274,42.3108],[9.5303,42.3092],[9.5248,42.309],[9.5366,42.3013]]]}},{"type":"Feature","properties":{"landuse":"orchard"},"geometry":{"type":"Polygon","coordinates":[[[9.5541,42.287],[9.5515,42.2873],[9.5518,42.2827],[9.559,42.2819],[9.5541,42.287]]]}},{"type":"Feature","properties":{"landuse":"vineyard"},"geometry":{"type":"Polygon","coordinates":[[[9.5256,42.1927],[9.5218,42.1919],[9.524,42.189],[9.5276,42.1912],[9.5239,42.1863],[9.5263,42.1765],[9.5141,42.1698],[9.5264,42.169],[9.5288,42.1734],[9.5303,42.1874],[9.5279,42.1875],[9.5308,42.1945],[9.5262,42.1954],[9.5256,42.1927]]]}},{"type":"Feature","properties":{"landuse":"vineyard"},"geometry":{"type":"Polygon","coordinates":[[[9.5494,42.1191],[9.5414,42.1213],[9.5421,42.118],[9.5261,42.1188],[9.5282,42.113],[9.5488,42.1124],[9.5494,42.1191]]]}},{"type":"Feature","properties":{"landuse":"farmland"},"geometry":{"type":"Polygon","coordinates":[[[9.4987,42.113],[9.4941,42.1082],[9.4983,42.1055],[9.5014,42.1091],[9.5064,42.1059],[9.51,42.1083],[9.5068,42.1093],[9.5078,42.1119],[9.4987,42.113]]]}},{"type":"Feature","properties":{"landuse":"vineyard"},"geometry":{"type":"Polygon","coordinates":[[[9.5171,42.0934],[9.51,42.0963],[9.5085,42.0943],[9.5168,42.0885],[9.5236,42.0901],[9.5225,42.0938],[9.5171,42.0934]]]}},{"type":"Feature","properties":{"landuse":"orchard"},"geometry":{"type":"Polygon","coordinates":[[[9.4777,42.5382],[9.4781,42.541],[9.4739,42.5423],[9.4732,42.5371],[9.4777,42.5382]]]}},{"type":"Feature","properties":{"landuse":"vineyard"},"geometry":{"type":"Polygon","coordinates":[[[8.7852,42.5014],[8.7743,42.5041],[8.7736,42.501],[8.7762,42.4969],[8.7835,42.498],[8.7852,42.5014]]]}},{"type":"Feature","properties":{"landuse":"farmland"},"geometry":{"type":"Polygon","coordinates":[[[8.8559,41.7427],[8.8427,41.7434],[8.8443,41.74],[8.8411,41.7376],[8.8379,41.7401],[8.8354,41.7368],[8.8435,41.7338],[8.8482,41.7401],[8.8559,41.7427]]]}},{"type":"Feature","properties":{"landuse":"vineyard"},"geometry":{"type":"Polygon","coordinates":[[[9.1312,41.5016],[9.1373,41.5073],[9.1293,41.5069],[9.1256,41.5109],[9.1232,41.5064],[9.1291,41.5059],[9.1312,41.5016]]]}},{"type":"Feature","properties":{"landuse":"orchard"},"geometry":{"type":"Polygon","coordinates":[[[9.4574,42.543],[9.4595,42.546],[9.4556,42.5475],[9.4574,42.543]]]}},{"type":"Feature","properties":{"landuse":"vineyard"},"geometry":{"type":"Polygon","coordinates":[[[9.3189,42.6846],[9.3239,42.6846],[9.315,42.6863],[9.3189,42.6846]]]}},{"type":"Feature","properties":{"landuse":"vineyard"},"geometry":{"type":"Polygon","coordinates":[[[9.3454,42.6683],[9.3445,42.676],[9.3487,42.6838],[9.3429,42.6833],[9.3418,42.68],[9.3453,42.6824],[9.3471,42.6801],[9.3417,42.6799],[9.3438,42.6765],[9.3402,42.6776],[9.3412,42.6709],[9.333,42.6716],[9.3447,42.6664],[9.3454,42.6683]]]}},{"type":"Feature","properties":{"landuse":"vineyard"},"geometry":{"type":"Polygon","coordinates":[[[9.3302,42.6601],[9.3218,42.6606],[9.3285,42.6596],[9.3301,42.6551],[9.3341,42.6565],[9.3335,42.6592],[9.3425,42.6545],[9.3456,42.6566],[9.341,42.6618],[9.3488,42.6622],[9.3372,42.6705],[9.3316,42.6711],[9.3295,42.67],[9.336,42.667],[9.3321,42.6655],[9.332,42.6612],[9.3372,42.6612],[9.3302,42.6601]]]}},{"type":"Feature","properties":{"landuse":"green_public_spaces"},"geometry":{"type":"Polygon","coordinates":[[[8.8973,42.6213],[8.8964,42.625],[8.8908,42.6256],[8.8885,42.63],[8.8801,42.6275],[8.8838,42.6264],[8.8791,42.6223],[8.8829,42.6199],[8.8878,42.6245],[8.893,42.62],[8.8973,42.6213]]]}},{"type":"Feature","properties":{"landuse":"vineyard"},"geometry":{"type":"Polygon","coordinates":[[[8.8276,42.5266],[8.8222,42.5295],[8.8194,42.5265],[8.8136,42.5269],[8.8276,42.5266]]]}},{"type":"Feature","properties":{"landuse":"vineyard"},"geometry":{"type":"Polygon","coordinates":[[[9.202,42.4726],[9.1982,42.479],[9.2027,42.4698],[9.199,42.4659],[9.2042,42.4701],[9.202,42.4726]]]}},{"type":"Feature","properties":{"landuse":"orchard"},"geometry":{"type":"Polygon","coordinates":[[[9.4041,41.988],[9.4054,41.9844],[9.4153,41.9864],[9.4041,41.988]]]}},{"type":"Feature","properties":{"landuse":"vineyard"},"geometry":{"type":"Polygon","coordinates":[[[9.3761,41.9085],[9.3747,41.9058],[9.3799,41.9052],[9.3818,41.9105],[9.3761,41.9085]]]}},{"type":"Feature","properties":{"landuse":"farmland"},"geometry":{"type":"Polygon","coordinates":[[[8.8538,41.7283],[8.8505,41.7289],[8.8491,41.726],[8.8473,41.729],[8.8362,41.7302],[8.8303,41.7272],[8.8265,41.7234],[8.8295,41.7171],[8.8281,41.7103],[8.8392,41.7143],[8.8394,41.7222],[8.8469,41.7224],[8.8538,41.7283]]]}},{"type":"Feature","properties":{"landuse":"vineyard"},"geometry":{"type":"Polygon","coordinates":[[[8.8749,41.5682],[8.8799,41.5618],[8.8774,41.5611],[8.8786,41.5564],[8.8825,41.557],[8.8819,41.5691],[8.8749,41.5682]]]}},{"type":"Feature","properties":{"landuse":"orchard"},"geometry":{"type":"Polygon","coordinates":[[[9.5237,42.3486],[9.5201,42.3528],[9.5125,42.3484],[9.5167,42.3439],[9.5237,42.3486]]]}},{"type":"Feature","properties":{"landuse":"vineyard"},"geometry":{"type":"Polygon","coordinates":[[[9.0905,41.5148],[9.0869,41.5152],[9.0865,41.5076],[9.0907,41.5014],[9.0935,41.5031],[9.0894,41.51],[9.096,41.5046],[9.0995,41.5096],[9.0905,41.5148]]]}},{"type":"Feature","properties":{"landuse":"orchard"},"geometry":{"type":"Polygon","coordinates":[[[9.4549,42.5924],[9.4548,42.5953],[9.4462,42.593],[9.4463,42.5903],[9.4409,42.5902],[9.4413,42.5873],[9.4581,42.5879],[9.458,42.5924],[9.4549,42.5924]]]}},{"type":"Feature","properties":{"landuse":"vineyard"},"geometry":{"type":"Polygon","coordinates":[[[9.3591,42.7125],[9.3486,42.7081],[9.3574,42.7079],[9.3591,42.7125]]]}},{"type":"Feature","properties":{"landuse":"farmland"},"geometry":{"type":"Polygon","coordinates":[[[8.7774,42.5163],[8.7608,42.5007],[8.7651,42.4988],[8.7736,42.501],[8.7743,42.5041],[8.7852,42.5014],[8.7843,42.5057],[8.7904,42.5055],[8.7864,42.5081],[8.7865,42.5129],[8.7774,42.5163]]]}},{"type":"Feature","properties":{"landuse":"orchard"},"geometry":{"type":"Polygon","coordinates":[[[9.494,42.466],[9.5003,42.4662],[9.4973,42.4651],[9.5016,42.4632],[9.5019,42.466],[9.5087,42.4664],[9.5091,42.4633],[9.5124,42.4633],[9.513,42.4703],[9.4982,42.4678],[9.4898,42.4697],[9.494,42.466]]]}},{"type":"Feature","properties":{"landuse":"orchard"},"geometry":{"type":"Polygon","coordinates":[[[9.5262,42.3442],[9.5251,42.3466],[9.5297,42.3467],[9.5297,42.349],[9.5246,42.3484],[9.5262,42.3442]]]}},{"type":"Feature","properties":{"landuse":"farmland"},"geometry":{"type":"Polygon","coordinates":[[[9.4309,42.0039],[9.4257,42.0004],[9.4351,41.9978],[9.4355,42.0034],[9.4309,42.0039]]]}},{"type":"Feature","properties":{"landuse":"farmland"},"geometry":{"type":"Polygon","coordinates":[[[9.5247,42.2025],[9.518,42.1993],[9.5249,42.2008],[9.5247,42.2025]]]}},{"type":"Feature","properties":{"landuse":"vineyard"},"geometry":{"type":"Polygon","coordinates":[[[9.4306,42.0184],[9.4281,42.0199],[9.4224,42.0159],[9.4252,42.0135],[9.4306,42.0184]]]}},{"type":"Feature","properties":{"landuse":"vineyard"},"geometry":{"type":"Polygon","coordinates":[[[8.7445,41.9533],[8.7375,41.9538],[8.7386,41.9496],[8.7438,41.9501],[8.7445,41.9533]]]}},{"type":"Feature","properties":{"landuse":"vineyard"},"geometry":{"type":"Polygon","coordinates":[[[9.3557,41.7071],[9.3557,41.7093],[9.348,41.7083],[9.3532,41.7074],[9.3493,41.7041],[9.3557,41.7071]]]}},{"type":"Feature","properties":{"landuse":"farmland"},"geometry":{"type":"Polygon","coordinates":[[[9.528,42.4621],[9.5145,42.4626],[9.5151,42.4588],[9.5261,42.4604],[9.5277,42.4569],[9.53,42.4579],[9.528,42.4621]]]}},{"type":"Feature","properties":{"landuse":"vineyard"},"geometry":{"type":"Polygon","coordinates":[[[9.3333,42.7213],[9.3303,42.7189],[9.339,42.71],[9.3454,42.7156],[9.3399,42.7145],[9.3333,42.7213]]]}},{"type":"Feature","properties":{"landuse":"orchard"},"geometry":{"type":"Polygon","coordinates":[[[9.3016,42.6426],[9.2947,42.6409],[9.3014,42.632],[9.3041,42.6363],[9.2995,42.6402],[9.3016,42.6426]]]}},{"type":"Feature","properties":{"landuse":"farmland"},"geometry":{"type":"Polygon","coordinates":[[[9.4791,42.5528],[9.4704,42.5545],[9.4691,42.5505],[9.4791,42.5528]]]}},{"type":"Feature","properties":{"landuse":"orchard"},"geometry":{"type":"Polygon","coordinates":[[[9.5057,42.5296],[9.5067,42.536],[9.5025,42.5283],[9.5084,42.5289],[9.5057,42.5296]]]}},{"type":"Feature","properties":{"landuse":"farmland"},"geometry":{"type":"Polygon","coordinates":[[[8.7861,42.5357],[8.7799,42.5344],[8.7833,42.5317],[8.7769,42.5292],[8.7729,42.5216],[8.7813,42.5225],[8.7861,42.5357]]]}},{"type":"Feature","properties":{"landuse":"vineyard"},"geometry":{"type":"Polygon","coordinates":[[[9.5041,42.4732],[9.5055,42.4762],[9.5018,42.4751],[9.5016,42.479],[9.4989,42.4798],[9.4972,42.4766],[9.4931,42.4805],[9.4839,42.4746],[9.4932,42.4774],[9.5041,42.4732]]]}},{"type":"Feature","properties":{"landuse":"orchard"},"geometry":{"type":"Polygon","coordinates":[[[9.5149,42.4607],[9.5014,42.4575],[9.5026,42.455],[9.5062,42.4562],[9.5048,42.4545],[9.5107,42.4563],[9.5185,42.4505],[9.5189,42.4551],[9.5241,42.456],[9.5229,42.4483],[9.5263,42.4463],[9.5258,42.4494],[9.5304,42.4511],[9.5271,42.453],[9.5261,42.4604],[9.5183,42.458],[9.5149,42.4607]]]}},{"type":"Feature","properties":{"landuse":"vineyard"},"geometry":{"type":"Polygon","coordinates":[[[9.5315,42.4436],[9.5292,42.4484],[9.5313,42.4511],[9.5258,42.4494],[9.5266,42.4438],[9.5315,42.4436]]]}},{"type":"Feature","properties":{"landuse":"orchard"},"geometry":{"type":"Polygon","coordinates":[[[9.5156,42.3586],[9.5176,42.3578],[9.5147,42.3646],[9.5051,42.3631],[9.5096,42.3614],[9.5058,42.3599],[9.5072,42.358],[9.5156,42.3586]]]}},{"type":"Feature","properties":{"landuse":"orchard"},"geometry":{"type":"Polygon","coordinates":[[[9.5136,42.3371],[9.5263,42.3405],[9.5204,42.3422],[9.5136,42.3371]]]}},{"type":"Feature","properties":{"landuse":"vineyard"},"geometry":{"type":"Polygon","coordinates":[[[8.7784,41.9415],[8.7813,41.942],[8.7831,41.944],[8.7784,41.9415]]]}},{"type":"Feature","properties":{"landuse":"orchard"},"geometry":{"type":"Polygon","coordinates":[[[9.2151,41.6082],[9.2178,41.6109],[9.2324,41.612],[9.2205,41.6144],[9.2041,41.6084],[9.2151,41.6082]]]}},{"type":"Feature","properties":{"landuse":"orchard"},"geometry":{"type":"Polygon","coordinates":[[[8.7872,42.5016],[8.7871,42.5055],[8.7843,42.5057],[8.7835,42.498],[8.7858,42.4966],[8.7888,42.498],[8.7872,42.5016]]]}},{"type":"Feature","properties":{"landuse":"orchard"},"geometry":{"type":"Polygon","coordinates":[[[9.5469,42.221],[9.5501,42.2149],[9.5488,42.2215],[9.5469,42.221]]]}},{"type":"Feature","properties":{"landuse":"orchard"},"geometry":{"type":"Polygon","coordinates":[[[9.5457,42.2206],[9.5393,42.2224],[9.5438,42.218],[9.5457,42.2206]]]}},{"type":"Feature","properties":{"landuse":"orchard"},"geometry":{"type":"Polygon","coordinates":[[[9.5488,42.2215],[9.5482,42.2239],[9.5427,42.2215],[9.5488,42.2215]]]}},{"type":"Feature","properties":{"landuse":"farmland"},"geometry":{"type":"Polygon","coordinates":[[[9.5393,42.2226],[9.5482,42.2239],[9.5435,42.2276],[9.5393,42.2226]]]}},{"type":"Feature","properties":{"landuse":"farmland"},"geometry":{"type":"Polygon","coordinates":[[[8.9559,42.6316],[8.9571,42.6319],[8.9557,42.633],[8.9559,42.6316]]]}},{"type":"Feature","properties":{"landuse":"vineyard"},"geometry":{"type":"Polygon","coordinates":[[[8.7834,41.9345],[8.7837,41.9375],[8.7825,41.9364],[8.7834,41.9345]]]}},{"type":"Feature","properties":{"landuse":"green_public_spaces"},"geometry":{"type":"Polygon","coordinates":[[[8.9795,42.6359],[8.976,42.634],[8.978,42.6326],[8.9795,42.6359]]]}},{"type":"Feature","properties":{"landuse":"farmland"},"geometry":{"type":"Polygon","coordinates":[[[9.5473,42.2932],[9.5492,42.2886],[9.5543,42.2897],[9.5521,42.2946],[9.5473,42.2932]]]}},{"type":"Feature","properties":{"landuse":"farmland"},"geometry":{"type":"Polygon","coordinates":[[[9.5447,42.3048],[9.5449,42.3013],[9.5519,42.2994],[9.5513,42.3031],[9.5447,42.3048]]]}},{"type":"Feature","properties":{"landuse":"farmland"},"geometry":{"type":"Polygon","coordinates":[[[9.5523,42.294],[9.5535,42.2954],[9.5519,42.2963],[9.5523,42.294]]]}},{"type":"Feature","properties":{"landuse":"vineyard"},"geometry":{"type":"Polygon","coordinates":[[[9.5456,42.2976],[9.5466,42.2949],[9.5472,42.2951],[9.5456,42.2976]]]}},{"type":"Feature","properties":{"landuse":"farmland"},"geometry":{"type":"Polygon","coordinates":[[[9.5468,42.2969],[9.5492,42.2953],[9.5498,42.2967],[9.5468,42.2969]]]}},{"type":"Feature","properties":{"landuse":"farmland"},"geometry":{"type":"Polygon","coordinates":[[[9.524,42.3628],[9.5271,42.3608],[9.5269,42.3626],[9.524,42.3628]]]}},{"type":"Feature","properties":{"landuse":"farmland"},"geometry":{"type":"Polygon","coordinates":[[[9.5244,42.3642],[9.5241,42.3632],[9.5267,42.3629],[9.5244,42.3642]]]}},{"type":"Feature","properties":{"landuse":"farmland"},"geometry":{"type":"Polygon","coordinates":[[[9.5273,42.3611],[9.5279,42.3589],[9.5301,42.3594],[9.5273,42.3611]]]}},{"type":"Feature","properties":{"landuse":"farmland"},"geometry":{"type":"Polygon","coordinates":[[[9.5155,42.3651],[9.5147,42.3628],[9.5201,42.3638],[9.5155,42.3651]]]}},{"type":"Feature","properties":{"landuse":"farmland"},"geometry":{"type":"Polygon","coordinates":[[[9.5305,42.3611],[9.5306,42.3593],[9.534,42.36],[9.5305,42.3611]]]}},{"type":"Feature","properties":{"landuse":"vineyard"},"geometry":{"type":"Polygon","coordinates":[[[9.5172,42.3659],[9.5155,42.3652],[9.5179,42.3645],[9.5172,42.3659]]]}},{"type":"Feature","properties":{"landuse":"farmland"},"geometry":{"type":"Polygon","coordinates":[[[9.5205,42.3643],[9.5236,42.3616],[9.5241,42.3641],[9.5205,42.3643]]]}},{"type":"Feature","properties":{"landuse":"farmland"},"geometry":{"type":"Polygon","coordinates":[[[9.5201,42.3646],[9.5266,42.3641],[9.5243,42.3658],[9.5201,42.3646]]]}},{"type":"Feature","properties":{"landuse":"farmland"},"geometry":{"type":"Polygon","coordinates":[[[9.5121,42.3661],[9.5153,42.3653],[9.5142,42.3671],[9.5121,42.3661]]]}},{"type":"Feature","properties":{"landuse":"vineyard"},"geometry":{"type":"Polygon","coordinates":[[[9.5135,42.1982],[9.5171,42.1968],[9.5173,42.1977],[9.5135,42.1982]]]}},{"type":"Feature","properties":{"landuse":"orchard"},"geometry":{"type":"Polygon","coordinates":[[[9.5416,42.3113],[9.541,42.3101],[9.5424,42.3097],[9.5416,42.3113]]]}},{"type":"Feature","properties":{"landuse":"vineyard"},"geometry":{"type":"Polygon","coordinates":[[[9.4416,42.5715],[9.4446,42.5717],[9.4439,42.5782],[9.4416,42.5715]]]}},{"type":"Feature","properties":{"landuse":"vineyard"},"geometry":{"type":"Polygon","coordinates":[[[9.4367,42.5731],[9.4385,42.5723],[9.4401,42.5745],[9.4367,42.5731]]]}},{"type":"Feature","properties":{"landuse":"vineyard"},"geometry":{"type":"Polygon","coordinates":[[[9.4366,42.573],[9.4353,42.5719],[9.4378,42.5723],[9.4366,42.573]]]}},{"type":"Feature","properties":{"landuse":"vineyard"},"geometry":{"type":"Polygon","coordinates":[[[9.434,42.5732],[9.435,42.572],[9.4374,42.574],[9.434,42.5732]]]}},{"type":"Feature","properties":{"landuse":"orchard"},"geometry":{"type":"Polygon","coordinates":[[[9.4323,42.5728],[9.4344,42.572],[9.434,42.5732],[9.4323,42.5728]]]}},{"type":"Feature","properties":{"landuse":"greenhouse_horticulture"},"geometry":{"type":"Polygon","coordinates":[[[9.4612,42.5556],[9.4616,42.5532],[9.4632,42.5532],[9.4612,42.5556]]]}},{"type":"Feature","properties":{"landuse":"farmland"},"geometry":{"type":"Polygon","coordinates":[[[9.4594,42.5421],[9.4592,42.5383],[9.4614,42.5379],[9.4594,42.5421]]]}},{"type":"Feature","properties":{"landuse":"farmland"},"geometry":{"type":"Polygon","coordinates":[[[9.4617,42.5418],[9.4615,42.5384],[9.4628,42.5384],[9.4617,42.5418]]]}},{"type":"Feature","properties":{"landuse":"orchard"},"geometry":{"type":"Polygon","coordinates":[[[9.4547,42.5436],[9.4567,42.54],[9.4576,42.5428],[9.4547,42.5436]]]}},{"type":"Feature","properties":{"landuse":"orchard"},"geometry":{"type":"Polygon","coordinates":[[[9.4627,42.5455],[9.4626,42.5447],[9.4642,42.5448],[9.4627,42.5455]]]}},{"type":"Feature","properties":{"landuse":"orchard"},"geometry":{"type":"Polygon","coordinates":[[[9.4613,42.5455],[9.4602,42.5432],[9.4624,42.5428],[9.4613,42.5455]]]}},{"type":"Feature","properties":{"landuse":"orchard"},"geometry":{"type":"Polygon","coordinates":[[[9.4639,42.5447],[9.4655,42.544],[9.4657,42.5449],[9.4639,42.5447]]]}},{"type":"Feature","properties":{"landuse":"farmland"},"geometry":{"type":"Polygon","coordinates":[[[9.4644,42.5499],[9.4637,42.5484],[9.465,42.5484],[9.4644,42.5499]]]}},{"type":"Feature","properties":{"landuse":"farmland"},"geometry":{"type":"Polygon","coordinates":[[[9.4579,42.5395],[9.4585,42.5378],[9.4591,42.5395],[9.4579,42.5395]]]}},{"type":"Feature","properties":{"landuse":"farmland"},"geometry":{"type":"Polygon","coordinates":[[[8.7815,41.9392],[8.7809,41.9403],[8.7797,41.9399],[8.7815,41.9392]]]}},{"type":"Feature","properties":{"landuse":"farmland"},"geometry":{"type":"Polygon","coordinates":[[[9.4955,42.5386],[9.4953,42.5371],[9.4981,42.5375],[9.4955,42.5386]]]}},{"type":"Feature","properties":{"landuse":"green_public_spaces"},"geometry":{"type":"Polygon","coordinates":[[[9.5261,42.4338],[9.5284,42.4332],[9.5239,42.4363],[9.5261,42.4338]]]}},{"type":"Feature","properties":{"landuse":"vineyard"},"geometry":{"type":"Polygon","coordinates":[[[9.5247,42.1138],[9.5271,42.1131],[9.5267,42.1143],[9.5247,42.1138]]]}},{"type":"Feature","properties":{"landuse":"vineyard"},"geometry":{"type":"Polygon","coordinates":[[[9.5259,42.1163],[9.5234,42.1158],[9.5266,42.1144],[9.5259,42.1163]]]}},{"type":"Feature","properties":{"landuse":"vineyard"},"geometry":{"type":"Polygon","coordinates":[[[9.5247,42.1162],[9.5238,42.1183],[9.5234,42.1159],[9.5247,42.1162]]]}},{"type":"Feature","properties":{"landuse":"farmland"},"geometry":{"type":"Polygon","coordinates":[[[9.5186,42.4359],[9.5185,42.4347],[9.5202,42.4344],[9.5186,42.4359]]]}},{"type":"Feature","properties":{"landuse":"orchard"},"geometry":{"type":"Polygon","coordinates":[[[9.5159,42.4367],[9.5144,42.4349],[9.5172,42.4359],[9.5159,42.4367]]]}},{"type":"Feature","properties":{"landuse":"orchard"},"geometry":{"type":"Polygon","coordinates":[[[9.5148,42.4397],[9.5167,42.4391],[9.5156,42.4408],[9.5148,42.4397]]]}},{"type":"Feature","properties":{"landuse":"orchard"},"geometry":{"type":"Polygon","coordinates":[[[9.517,42.4401],[9.5189,42.4416],[9.5162,42.4421],[9.517,42.4401]]]}},{"type":"Feature","properties":{"landuse":"orchard"},"geometry":{"type":"Polygon","coordinates":[[[9.517,42.4401],[9.5193,42.4396],[9.5189,42.4416],[9.517,42.4401]]]}},{"type":"Feature","properties":{"landuse":"farmland"},"geometry":{"type":"Polygon","coordinates":[[[9.5144,42.1102],[9.5174,42.1074],[9.5175,42.1114],[9.5144,42.1102]]]}},{"type":"Feature","properties":{"landuse":"farmland"},"geometry":{"type":"Polygon","coordinates":[[[9.5127,42.1118],[9.5104,42.1068],[9.5131,42.1063],[9.5127,42.1118]]]}},{"type":"Feature","properties":{"landuse":"farmland"},"geometry":{"type":"Polygon","coordinates":[[[9.5076,42.111],[9.5102,42.1102],[9.5079,42.1118],[9.5076,42.111]]]}},{"type":"Feature","properties":{"landuse":"farmland"},"geometry":{"type":"Polygon","coordinates":[[[9.5072,42.1102],[9.5103,42.1091],[9.5075,42.111],[9.5072,42.1102]]]}},{"type":"Feature","properties":{"landuse":"farmland"},"geometry":{"type":"Polygon","coordinates":[[[9.507,42.1093],[9.5101,42.1085],[9.5072,42.1101],[9.507,42.1093]]]}},{"type":"Feature","properties":{"landuse":"orchard"},"geometry":{"type":"Polygon","coordinates":[[[9.4731,42.3271],[9.4745,42.3263],[9.4746,42.3276],[9.4731,42.3271]]]}},{"type":"Feature","properties":{"landuse":"vineyard"},"geometry":{"type":"Polygon","coordinates":[[[8.8044,42.5186],[8.8055,42.52],[8.8035,42.5207],[8.8044,42.5186]]]}},{"type":"Feature","properties":{"landuse":"vineyard"},"geometry":{"type":"Polygon","coordinates":[[[9.4694,42.5535],[9.4677,42.5534],[9.4679,42.5524],[9.4694,42.5535]]]}},{"type":"Feature","properties":{"landuse":"vineyard"},"geometry":{"type":"Polygon","coordinates":[[[9.4675,42.5578],[9.4695,42.5576],[9.4691,42.5587],[9.4675,42.5578]]]}},{"type":"Feature","properties":{"landuse":"orchard"},"geometry":{"type":"Polygon","coordinates":[[[9.4691,42.5587],[9.4721,42.5561],[9.4706,42.5594],[9.4691,42.5587]]]}},{"type":"Feature","properties":{"landuse":"farmland"},"geometry":{"type":"Polygon","coordinates":[[[9.48,42.5667],[9.4812,42.5637],[9.4839,42.5665],[9.48,42.5667]]]}},{"type":"Feature","properties":{"landuse":"orchard"},"geometry":{"type":"Polygon","coordinates":[[[9.1135,41.5057],[9.1057,41.5059],[9.1125,41.5018],[9.1135,41.5057]]]}},{"type":"Feature","properties":{"landuse":"farmland"},"geometry":{"type":"Polygon","coordinates":[[[9.3324,42.7196],[9.3316,42.7177],[9.3342,42.7166],[9.3324,42.7196]]]}},{"type":"Feature","properties":{"landuse":"farmland"},"geometry":{"type":"Polygon","coordinates":[[[9.3351,42.72],[9.334,42.7184],[9.3347,42.7174],[9.3351,42.72]]]}},{"type":"Feature","properties":{"landuse":"farmland"},"geometry":{"type":"Polygon","coordinates":[[[9.335,42.7172],[9.3352,42.7149],[9.3361,42.7152],[9.335,42.7172]]]}},{"type":"Feature","properties":{"landuse":"farmland"},"geometry":{"type":"Polygon","coordinates":[[[9.3354,42.7171],[9.3365,42.7151],[9.3367,42.7168],[9.3354,42.7171]]]}},{"type":"Feature","properties":{"landuse":"farmland"},"geometry":{"type":"Polygon","coordinates":[[[9.3372,42.7169],[9.3384,42.7154],[9.3397,42.7177],[9.3372,42.7169]]]}},{"type":"Feature","properties":{"landuse":"farmland"},"geometry":{"type":"Polygon","coordinates":[[[9.3368,42.7148],[9.3392,42.7141],[9.339,42.7154],[9.3368,42.7148]]]}},{"type":"Feature","properties":{"landuse":"farmland"},"geometry":{"type":"Polygon","coordinates":[[[9.338,42.7129],[9.3397,42.7106],[9.3404,42.7128],[9.338,42.7129]]]}},{"type":"Feature","properties":{"landuse":"farmland"},"geometry":{"type":"Polygon","coordinates":[[[9.5159,42.5456],[9.5169,42.5447],[9.5178,42.5451],[9.5169,42.546],[9.5159,42.5456]]]}},{"type":"Feature","properties":{"landuse":"farmland"},"geometry":{"type":"Polygon","coordinates":[[[9.5146,42.5445],[9.5182,42.5435],[9.5176,42.5444],[9.5146,42.5445]]]}},{"type":"Feature","properties":{"landuse":"farmland"},"geometry":{"type":"Polygon","coordinates":[[[9.5146,42.5445],[9.515,42.5429],[9.5183,42.5434],[9.5146,42.5445]]]}},{"type":"Feature","properties":{"landuse":"farmland"},"geometry":{"type":"Polygon","coordinates":[[[9.5206,42.5443],[9.5193,42.5464],[9.5174,42.5457],[9.5206,42.5443]]]}},{"type":"Feature","properties":{"landuse":"farmland"},"geometry":{"type":"Polygon","coordinates":[[[9.516,42.5474],[9.5145,42.547],[9.5154,42.5455],[9.516,42.5474]]]}},{"type":"Feature","properties":{"landuse":"farmland"},"geometry":{"type":"Polygon","coordinates":[[[8.8124,41.9399],[8.8112,41.9347],[8.8138,41.9324],[8.8164,41.9418],[8.8129,41.9432],[8.8124,41.9399]]]}},{"type":"Feature","properties":{"landuse":"farmland"},"geometry":{"type":"Polygon","coordinates":[[[8.8209,41.9393],[8.824,41.9389],[8.8228,41.9408],[8.8209,41.9393]]]}},{"type":"Feature","properties":{"landuse":"farmland"},"geometry":{"type":"Polygon","coordinates":[[[8.8172,41.9389],[8.8186,41.938],[8.8188,41.9387],[8.8172,41.9389]]]}},{"type":"Feature","properties":{"landuse":"farmland"},"geometry":{"type":"Polygon","coordinates":[[[8.8174,41.9396],[8.8209,41.9393],[8.8189,41.9419],[8.8174,41.9396]]]}},{"type":"Feature","properties":{"landuse":"green_public_spaces"},"geometry":{"type":"Polygon","coordinates":[[[9.3544,41.7245],[9.3523,41.7201],[9.3562,41.72],[9.3544,41.7245]]]}},{"type":"Feature","properties":{"landuse":"farmland"},"geometry":{"type":"Polygon","coordinates":[[[8.812,41.9217],[8.8101,41.9213],[8.8077,41.9181],[8.812,41.9217]]]}},{"type":"Feature","properties":{"landuse":"vineyard"},"geometry":{"type":"Polygon","coordinates":[[[9.2058,42.4715],[9.2082,42.4734],[9.2044,42.4751],[9.2058,42.4715]]]}},{"type":"Feature","properties":{"landuse":"vineyard"},"geometry":{"type":"Polygon","coordinates":[[[9.2079,42.4717],[9.2053,42.4699],[9.206,42.4693],[9.2079,42.4717]]]}},{"type":"Feature","properties":{"landuse":"green_public_spaces"},"geometry":{"type":"Polygon","coordinates":[[[9.5296,42.3692],[9.5272,42.3701],[9.5267,42.3681],[9.5296,42.3692]]]}},{"type":"Feature","properties":{"landuse":"orchard"},"geometry":{"type":"Polygon","coordinates":[[[9.4062,41.9984],[9.406,41.9975],[9.4088,41.9976],[9.4062,41.9984]]]}},{"type":"Feature","properties":{"landuse":"orchard"},"geometry":{"type":"Polygon","coordinates":[[[9.4089,41.9975],[9.4084,41.9965],[9.41,41.9972],[9.4089,41.9975]]]}},{"type":"Feature","properties":{"landuse":"green_public_spaces"},"geometry":{"type":"Polygon","coordinates":[[[8.7333,41.9251],[8.7316,41.9262],[8.7313,41.9239],[8.7333,41.9251]]]}},{"type":"Feature","properties":{"landuse":"orchard"},"geometry":{"type":"Polygon","coordinates":[[[9.3433,41.7062],[9.3397,41.7051],[9.342,41.7031],[9.3433,41.7062]]]}},{"type":"Feature","properties":{"landuse":"farmland"},"geometry":{"type":"Polygon","coordinates":[[[9.3559,41.7094],[9.3579,41.71],[9.3565,41.7124],[9.3559,41.7094]]]}},{"type":"Feature","properties":{"landuse":"farmland"},"geometry":{"type":"Polygon","coordinates":[[[9.3633,41.6904],[9.37,41.6898],[9.3688,41.6921],[9.3633,41.6904]]]}},{"type":"Feature","properties":{"landuse":"orchard"},"geometry":{"type":"Polygon","coordinates":[[[9.3707,41.6961],[9.3639,41.7001],[9.3623,41.6984],[9.3645,41.6949],[9.3703,41.6939],[9.3707,41.6961]]]}},{"type":"Feature","properties":{"landuse":"orchard"},"geometry":{"type":"Polygon","coordinates":[[[9.3706,41.6955],[9.3815,41.6956],[9.3806,41.699],[9.3706,41.6955]]]}},{"type":"Feature","properties":{"landuse":"orchard"},"geometry":{"type":"Polygon","coordinates":[[[8.9138,42.6041],[8.9126,42.6044],[8.9127,42.6032],[8.9138,42.6041]]]}},{"type":"Feature","properties":{"landuse":"greenhouse_horticulture"},"geometry":{"type":"Polygon","coordinates":[[[9.4525,42.623],[9.45,42.6212],[9.4569,42.6206],[9.4525,42.623]]]}},{"type":"Feature","properties":{"landuse":"farmland"},"geometry":{"type":"Polygon","coordinates":[[[9.4613,42.6051],[9.452,42.6057],[9.458,42.6007],[9.4613,42.6051]]]}},{"type":"Feature","properties":{"landuse":"orchard"},"geometry":{"type":"Polygon","coordinates":[[[9.5215,42.1937],[9.5183,42.1938],[9.5209,42.1924],[9.5215,42.1937]]]}},{"type":"Feature","properties":{"landuse":"orchard"},"geometry":{"type":"Polygon","coordinates":[[[9.4444,42.5479],[9.4475,42.5469],[9.4477,42.5492],[9.4444,42.5479]]]}},{"type":"Feature","properties":{"landuse":"orchard"},"geometry":{"type":"Polygon","coordinates":[[[9.4503,42.5823],[9.4536,42.582],[9.4517,42.583],[9.4503,42.5823]]]}},{"type":"Feature","properties":{"landuse":"orchard"},"geometry":{"type":"Polygon","coordinates":[[[9.4507,42.5812],[9.4483,42.5807],[9.4489,42.5791],[9.4507,42.5812]]]}},{"type":"Feature","properties":{"landuse":"farmland"},"geometry":{"type":"Polygon","coordinates":[[[9.458,42.5924],[9.4581,42.5886],[9.462,42.5885],[9.4619,42.5924],[9.458,42.5924]]]}},{"type":"Feature","properties":{"landuse":"farmland"},"geometry":{"type":"Polygon","coordinates":[[[9.458,42.5924],[9.4579,42.5963],[9.455,42.5954],[9.458,42.5924]]]}},{"type":"Feature","properties":{"landuse":"orchard"},"geometry":{"type":"Polygon","coordinates":[[[9.4608,42.5631],[9.4609,42.5659],[9.455,42.5643],[9.4598,42.5595],[9.4608,42.5631]]]}},{"type":"Feature","properties":{"landuse":"orchard"},"geometry":{"type":"Polygon","coordinates":[[[9.4288,42.5716],[9.4277,42.5763],[9.4263,42.5759],[9.4288,42.5716]]]}},{"type":"Feature","properties":{"landuse":"orchard"},"geometry":{"type":"Polygon","coordinates":[[[9.4498,42.5641],[9.4472,42.5633],[9.4502,42.5601],[9.4566,42.5589],[9.4534,42.5645],[9.4498,42.5641]]]}},{"type":"Feature","properties":{"landuse":"orchard"},"geometry":{"type":"Polygon","coordinates":[[[9.471,42.5842],[9.467,42.583],[9.4673,42.5802],[9.4741,42.5808],[9.471,42.5842]]]}},{"type":"Feature","properties":{"landuse":"orchard"},"geometry":{"type":"Polygon","coordinates":[[[9.522,42.2804],[9.5283,42.2766],[9.5352,42.2781],[9.5185,42.285],[9.522,42.2804]]]}},{"type":"Feature","properties":{"landuse":"orchard"},"geometry":{"type":"Polygon","coordinates":[[[9.5173,42.2883],[9.5312,42.2823],[9.5358,42.2853],[9.5258,42.2896],[9.5173,42.2883]]]}},{"type":"Feature","properties":{"landuse":"orchard"},"geometry":{"type":"Polygon","coordinates":[[[9.5239,42.2906],[9.5124,42.295],[9.5148,42.2921],[9.5239,42.2906]]]}},{"type":"Feature","properties":{"landuse":"orchard"},"geometry":{"type":"Polygon","coordinates":[[[9.5359,42.2899],[9.5308,42.2912],[9.527,42.288],[9.5421,42.2858],[9.544,42.2815],[9.5445,42.2862],[9.5359,42.2899]]]}},{"type":"Feature","properties":{"landuse":"orchard"},"geometry":{"type":"Polygon","coordinates":[[[9.5388,42.2846],[9.5358,42.2853],[9.5341,42.2815],[9.5436,42.2793],[9.5388,42.2846]]]}},{"type":"Feature","properties":{"landuse":"vineyard"},"geometry":{"type":"Polygon","coordinates":[[[9.5505,42.2836],[9.5446,42.2841],[9.5439,42.2792],[9.5492,42.278],[9.5505,42.2836]]]}},{"type":"Feature","properties":{"landuse":"orchard"},"geometry":{"type":"Polygon","coordinates":[[[9.545,42.2874],[9.5445,42.2842],[9.5501,42.2859],[9.5474,42.2896],[9.545,42.2874]]]}},{"type":"Feature","properties":{"landuse":"green_public_spaces"},"geometry":{"type":"Polygon","coordinates":[[[9.4935,42.4655],[9.4922,42.4655],[9.4934,42.4645],[9.4935,42.4655]]]}},{"type":"Feature","properties":{"landuse":"orchard"},"geometry":{"type":"Polygon","coordinates":[[[9.5186,42.4794],[9.5233,42.4791],[9.5227,42.4805],[9.5186,42.4794]]]}},{"type":"Feature","properties":{"landuse":"farmland"},"geometry":{"type":"Polygon","coordinates":[[[9.4941,42.5516],[9.4897,42.5513],[9.4932,42.5468],[9.499,42.5493],[9.4941,42.5516]]]}},{"type":"Feature","properties":{"landuse":"farmland"},"geometry":{"type":"Polygon","coordinates":[[[9.489,42.5453],[9.49,42.5429],[9.4928,42.543],[9.489,42.5453]]]}},{"type":"Feature","properties":{"landuse":"farmland"},"geometry":{"type":"Polygon","coordinates":[[[9.4923,42.5427],[9.4901,42.5427],[9.4928,42.5415],[9.4923,42.5427]]]}},{"type":"Feature","properties":{"landuse":"farmland"},"geometry":{"type":"Polygon","coordinates":[[[9.4753,42.5364],[9.4736,42.537],[9.4742,42.5358],[9.4753,42.5364]]]}},{"type":"Feature","properties":{"landuse":"orchard"},"geometry":{"type":"Polygon","coordinates":[[[9.5137,42.5289],[9.5111,42.5343],[9.51,42.5329],[9.5128,42.5331],[9.5137,42.5289]]]}},{"type":"Feature","properties":{"landuse":"farmland"},"geometry":{"type":"Polygon","coordinates":[[[9.5294,42.3636],[9.5282,42.3637],[9.5293,42.3627],[9.5294,42.3636]]]}},{"type":"Feature","properties":{"landuse":"green_public_spaces"},"geometry":{"type":"Polygon","coordinates":[[[9.4342,42.6391],[9.4349,42.6406],[9.433,42.6405],[9.4342,42.6391]]]}},{"type":"Feature","properties":{"landuse":"farmland"},"geometry":{"type":"Polygon","coordinates":[[[9.4467,42.6661],[9.4438,42.6658],[9.4467,42.6654],[9.4467,42.6661]]]}},{"type":"Feature","properties":{"landuse":"farmland"},"geometry":{"type":"Polygon","coordinates":[[[9.4342,42.6349],[9.4367,42.6357],[9.4347,42.6359],[9.4342,42.6349]]]}},{"type":"Feature","properties":{"landuse":"farmland"},"geometry":{"type":"Polygon","coordinates":[[[9.436,42.6376],[9.4377,42.64],[9.4342,42.6377],[9.436,42.6376]]]}},{"type":"Feature","properties":{"landuse":"green_public_spaces"},"geometry":{"type":"Polygon","coordinates":[[[9.4427,42.6441],[9.4416,42.6416],[9.448,42.6422],[9.4427,42.6441]]]}},{"type":"Feature","properties":{"landuse":"farmland"},"geometry":{"type":"Polygon","coordinates":[[[9.4482,42.6534],[9.4457,42.6539],[9.4455,42.6531],[9.4482,42.6534]]]}},{"type":"Feature","properties":{"landuse":"farmland"},"geometry":{"type":"Polygon","coordinates":[[[9.4462,42.6475],[9.4417,42.6492],[9.4419,42.646],[9.4462,42.6475]]]}},{"type":"Feature","properties":{"landuse":"farmland"},"geometry":{"type":"Polygon","coordinates":[[[9.4498,42.6439],[9.4481,42.6481],[9.4436,42.6456],[9.4498,42.6439]]]}},{"type":"Feature","properties":{"landuse":"farmland"},"geometry":{"type":"Polygon","coordinates":[[[9.4327,42.6597],[9.4337,42.6608],[9.431,42.6597],[9.4327,42.6597]]]}},{"type":"Feature","properties":{"landuse":"orchard"},"geometry":{"type":"Polygon","coordinates":[[[9.4718,42.8323],[9.4683,42.8322],[9.4696,42.8302],[9.4718,42.8323]]]}},{"type":"Feature","properties":{"landuse":"orchard"},"geometry":{"type":"Polygon","coordinates":[[[9.3568,42.6742],[9.3569,42.6759],[9.3529,42.6765],[9.3568,42.6742]]]}},{"type":"Feature","properties":{"landuse":"vineyard"},"geometry":{"type":"Polygon","coordinates":[[[9.3481,42.6949],[9.3478,42.6938],[9.3493,42.695],[9.3481,42.6949]]]}},{"type":"Feature","properties":{"landuse":"vineyard"},"geometry":{"type":"Polygon","coordinates":[[[9.3505,42.6966],[9.354,42.6961],[9.3529,42.6979],[9.3505,42.6966]]]}},{"type":"Feature","properties":{"landuse":"vineyard"},"geometry":{"type":"Polygon","coordinates":[[[9.3421,42.6974],[9.3415,42.6947],[9.3441,42.6948],[9.3488,42.6985],[9.3446,42.7017],[9.3421,42.6974]]]}},{"type":"Feature","properties":{"landuse":"orchard"},"geometry":{"type":"Polygon","coordinates":[[[9.3604,42.7027],[9.3585,42.703],[9.3609,42.7015],[9.3604,42.7027]]]}},{"type":"Feature","properties":{"landuse":"vineyard"},"geometry":{"type":"Polygon","coordinates":[[[9.3569,42.6937],[9.355,42.6926],[9.3589,42.6925],[9.3569,42.6937]]]}},{"type":"Feature","properties":{"landuse":"vineyard"},"geometry":{"type":"Polygon","coordinates":[[[9.3511,42.6889],[9.3555,42.6922],[9.3538,42.6952],[9.3509,42.6945],[9.3511,42.6889]]]}},{"type":"Feature","properties":{"landuse":"vineyard"},"geometry":{"type":"Polygon","coordinates":[[[9.3587,42.6776],[9.3579,42.6764],[9.3607,42.6757],[9.3587,42.6776]]]}},{"type":"Feature","properties":{"landuse":"vineyard"},"geometry":{"type":"Polygon","coordinates":[[[9.3545,42.6774],[9.3562,42.6779],[9.3557,42.6802],[9.3545,42.6774]]]}},{"type":"Feature","properties":{"landuse":"vineyard"},"geometry":{"type":"Polygon","coordinates":[[[9.3562,42.6828],[9.3463,42.6775],[9.3495,42.6795],[9.3528,42.6767],[9.3562,42.6828]]]}},{"type":"Feature","properties":{"landuse":"vineyard"},"geometry":{"type":"Polygon","coordinates":[[[9.3566,42.6834],[9.358,42.679],[9.3594,42.6822],[9.3566,42.6834]]]}},{"type":"Feature","properties":{"landuse":"vineyard"},"geometry":{"type":"Polygon","coordinates":[[[9.3639,42.6875],[9.364,42.6863],[9.366,42.6867],[9.3639,42.6875]]]}},{"type":"Feature","properties":{"landuse":"vineyard"},"geometry":{"type":"Polygon","coordinates":[[[9.3602,42.6896],[9.3589,42.6868],[9.3622,42.6887],[9.3602,42.6896]]]}},{"type":"Feature","properties":{"landuse":"vineyard"},"geometry":{"type":"Polygon","coordinates":[[[9.3591,42.6901],[9.3472,42.6859],[9.3572,42.6836],[9.3591,42.6901]]]}},{"type":"Feature","properties":{"landuse":"orchard"},"geometry":{"type":"Polygon","coordinates":[[[9.3594,42.7071],[9.3579,42.7069],[9.3587,42.7063],[9.3594,42.7071]]]}},{"type":"Feature","properties":{"landuse":"vineyard"},"geometry":{"type":"Polygon","coordinates":[[[9.3443,42.7063],[9.3526,42.7041],[9.3525,42.7055],[9.3443,42.7063]]]}},{"type":"Feature","properties":{"landuse":"orchard"},"geometry":{"type":"Polygon","coordinates":[[[9.3404,42.6663],[9.3396,42.6684],[9.3388,42.667],[9.3404,42.6663]]]}},{"type":"Feature","properties":{"landuse":"vineyard"},"geometry":{"type":"Polygon","coordinates":[[[9.3502,42.6697],[9.3536,42.6749],[9.3488,42.6755],[9.3502,42.6697]]]}},{"type":"Feature","properties":{"landuse":"vineyard"},"geometry":{"type":"Polygon","coordinates":[[[9.3454,42.6677],[9.3458,42.6666],[9.3468,42.667],[9.3454,42.6677]]]}},{"type":"Feature","properties":{"landuse":"vineyard"},"geometry":{"type":"Polygon","coordinates":[[[9.3482,42.6689],[9.3468,42.6673],[9.3476,42.6672],[9.3482,42.6689]]]}},{"type":"Feature","properties":{"landuse":"vineyard"},"geometry":{"type":"Polygon","coordinates":[[[9.3485,42.6604],[9.3469,42.659],[9.3507,42.6565],[9.3485,42.6604]]]}},{"type":"Feature","properties":{"landuse":"orchard"},"geometry":{"type":"Polygon","coordinates":[[[9.3361,42.6497],[9.3364,42.6514],[9.3338,42.6507],[9.3361,42.6497]]]}},{"type":"Feature","properties":{"landuse":"vineyard"},"geometry":{"type":"Polygon","coordinates":[[[9.3492,42.651],[9.3479,42.6499],[9.3508,42.6496],[9.3492,42.651]]]}},{"type":"Feature","properties":{"landuse":"vineyard"},"geometry":{"type":"Polygon","coordinates":[[[9.3483,42.654],[9.3472,42.6535],[9.3481,42.6526],[9.3483,42.654]]]}},{"type":"Feature","properties":{"landuse":"vineyard"},"geometry":{"type":"Polygon","coordinates":[[[9.3445,42.6524],[9.3433,42.6502],[9.3471,42.6514],[9.3445,42.6524]]]}},{"type":"Feature","properties":{"landuse":"vineyard"},"geometry":{"type":"Polygon","coordinates":[[[9.3408,42.6452],[9.3429,42.6445],[9.3389,42.6468],[9.3408,42.6452]]]}},{"type":"Feature","properties":{"landuse":"vineyard"},"geometry":{"type":"Polygon","coordinates":[[[9.3267,42.6551],[9.3248,42.6561],[9.3239,42.655],[9.3267,42.6551]]]}},{"type":"Feature","properties":{"landuse":"orchard"},"geometry":{"type":"Polygon","coordinates":[[[9.3219,42.654],[9.3204,42.6544],[9.3204,42.6536],[9.3219,42.654]]]}},{"type":"Feature","properties":{"landuse":"vineyard"},"geometry":{"type":"Polygon","coordinates":[[[9.3191,42.656],[9.3211,42.657],[9.3193,42.6579],[9.3191,42.656]]]}},{"type":"Feature","properties":{"landuse":"orchard"},"geometry":{"type":"Polygon","coordinates":[[[9.016,42.6343],[9.0161,42.6356],[9.013,42.636],[9.016,42.6343]]]}},{"type":"Feature","properties":{"landuse":"orchard"},"geometry":{"type":"Polygon","coordinates":[[[8.8136,42.5269],[8.8112,42.5264],[8.8141,42.5244],[8.8136,42.5269]]]}},{"type":"Feature","properties":{"landuse":"orchard"},"geometry":{"type":"Polygon","coordinates":[[[8.8214,42.5293],[8.8213,42.5302],[8.8189,42.5298],[8.8214,42.5293]]]}},{"type":"Feature","properties":{"landuse":"orchard"},"geometry":{"type":"Polygon","coordinates":[[[8.8189,42.5285],[8.8165,42.5278],[8.8194,42.5265],[8.8189,42.5285]]]}},{"type":"Feature","properties":{"landuse":"vineyard"},"geometry":{"type":"Polygon","coordinates":[[[8.7809,42.5484],[8.7779,42.55],[8.7768,42.5492],[8.7809,42.5484]]]}},{"type":"Feature","properties":{"landuse":"orchard"},"geometry":{"type":"Polygon","coordinates":[[[9.0013,42.3197],[9.0082,42.3217],[8.9987,42.3229],[9.0013,42.3197]]]}},{"type":"Feature","properties":{"landuse":"orchard"},"geometry":{"type":"Polygon","coordinates":[[[8.9938,42.3378],[8.9933,42.3359],[8.9968,42.3363],[8.9938,42.3378]]]}},{"type":"Feature","properties":{"landuse":"greenhouse_horticulture"},"geometry":{"type":"Polygon","coordinates":[[[9.5433,42.3208],[9.5424,42.3246],[9.5403,42.323],[9.5433,42.3208]]]}},{"type":"Feature","properties":{"landuse":"orchard"},"geometry":{"type":"Polygon","coordinates":[[[9.5033,42.4709],[9.5021,42.4698],[9.5036,42.4698],[9.5033,42.4709]]]}},{"type":"Feature","properties":{"landuse":"orchard"},"geometry":{"type":"Polygon","coordinates":[[[9.5074,42.4708],[9.5072,42.4736],[9.5041,42.4729],[9.5074,42.4708]]]}},{"type":"Feature","properties":{"landuse":"orchard"},"geometry":{"type":"Polygon","coordinates":[[[9.4945,42.4718],[9.4929,42.4713],[9.4951,42.4707],[9.4945,42.4718]]]}},{"type":"Feature","properties":{"landuse":"farmland"},"geometry":{"type":"Polygon","coordinates":[[[9.4522,42.5965],[9.4494,42.5953],[9.453,42.5951],[9.4522,42.5965]]]}},{"type":"Feature","properties":{"landuse":"farmland"},"geometry":{"type":"Polygon","coordinates":[[[9.4536,42.5953],[9.4567,42.5962],[9.4524,42.597],[9.4536,42.5953]]]}},{"type":"Feature","properties":{"landuse":"farmland"},"geometry":{"type":"Polygon","coordinates":[[[9.4494,42.5981],[9.4418,42.5967],[9.4452,42.5946],[9.4494,42.5981]]]}},{"type":"Feature","properties":{"landuse":"farmland"},"geometry":{"type":"Polygon","coordinates":[[[9.4571,42.598],[9.4548,42.5999],[9.456,42.5979],[9.4571,42.598]]]}},{"type":"Feature","properties":{"landuse":"farmland"},"geometry":{"type":"Polygon","coordinates":[[[9.4589,42.6003],[9.4564,42.5999],[9.4612,42.5981],[9.4589,42.6003]]]}},{"type":"Feature","properties":{"landuse":"farmland"},"geometry":{"type":"Polygon","coordinates":[[[9.4466,42.6078],[9.4492,42.6038],[9.4525,42.6047],[9.4479,42.6102],[9.4466,42.6078]]]}},{"type":"Feature","properties":{"landuse":"farmland"},"geometry":{"type":"Polygon","coordinates":[[[9.4433,42.6096],[9.4386,42.6066],[9.4438,42.6069],[9.4433,42.6096]]]}},{"type":"Feature","properties":{"landuse":"farmland"},"geometry":{"type":"Polygon","coordinates":[[[9.4518,42.6107],[9.4517,42.6115],[9.4481,42.6104],[9.4518,42.6107]]]}},{"type":"Feature","properties":{"landuse":"greenhouse_horticulture"},"geometry":{"type":"Polygon","coordinates":[[[9.4544,42.6115],[9.4542,42.6096],[9.4553,42.6098],[9.4544,42.6115]]]}},{"type":"Feature","properties":{"landuse":"farmland"},"geometry":{"type":"Polygon","coordinates":[[[9.463,42.6133],[9.4586,42.6135],[9.4611,42.6113],[9.459,42.6095],[9.4584,42.6132],[9.4545,42.6121],[9.4553,42.6098],[9.4488,42.6095],[9.4657,42.6088],[9.463,42.6133]]]}},{"type":"Feature","properties":{"landuse":"farmland"},"geometry":{"type":"Polygon","coordinates":[[[9.4574,42.6138],[9.462,42.6146],[9.4589,42.6193],[9.4574,42.6138]]]}},{"type":"Feature","properties":{"landuse":"greenhouse_horticulture"},"geometry":{"type":"Polygon","coordinates":[[[9.4465,42.6134],[9.4486,42.6126],[9.4486,42.6139],[9.4465,42.6134]]]}},{"type":"Feature","properties":{"landuse":"farmland"},"geometry":{"type":"Polygon","coordinates":[[[9.4487,42.6173],[9.4464,42.617],[9.4508,42.617],[9.4487,42.6173]]]}},{"type":"Feature","properties":{"landuse":"farmland"},"geometry":{"type":"Polygon","coordinates":[[[9.4519,42.6169],[9.4465,42.6162],[9.4465,42.6151],[9.4519,42.6169]]]}},{"type":"Feature","properties":{"landuse":"farmland"},"geometry":{"type":"Polygon","coordinates":[[[9.4553,42.6141],[9.4519,42.6165],[9.4489,42.6134],[9.4553,42.6141]]]}},{"type":"Feature","properties":{"landuse":"farmland"},"geometry":{"type":"Polygon","coordinates":[[[9.4541,42.6197],[9.4519,42.6165],[9.4553,42.6182],[9.4548,42.6132],[9.4572,42.6137],[9.4573,42.6193],[9.4541,42.6197]]]}},{"type":"Feature","properties":{"landuse":"farmland"},"geometry":{"type":"Polygon","coordinates":[[[9.4502,42.6268],[9.4504,42.6255],[9.4516,42.6268],[9.4502,42.6268]]]}},{"type":"Feature","properties":{"landuse":"farmland"},"geometry":{"type":"Polygon","coordinates":[[[9.4435,42.6303],[9.4409,42.6313],[9.4415,42.6298],[9.4435,42.6303]]]}},{"type":"Feature","properties":{"landuse":"farmland"},"geometry":{"type":"Polygon","coordinates":[[[9.449,42.6293],[9.4465,42.627],[9.4489,42.627],[9.449,42.6293]]]}},{"type":"Feature","properties":{"landuse":"farmland"},"geometry":{"type":"Polygon","coordinates":[[[9.4514,42.6291],[9.449,42.6296],[9.4489,42.627],[9.4514,42.6291]]]}},{"type":"Feature","properties":{"landuse":"farmland"},"geometry":{"type":"Polygon","coordinates":[[[9.4507,42.6228],[9.4495,42.6219],[9.4518,42.6216],[9.4507,42.6228]]]}},{"type":"Feature","properties":{"landuse":"farmland"},"geometry":{"type":"Polygon","coordinates":[[[9.4578,42.6242],[9.4576,42.6254],[9.4519,42.6247],[9.4578,42.6242]]]}},{"type":"Feature","properties":{"landuse":"farmland"},"geometry":{"type":"Polygon","coordinates":[[[9.4522,42.6238],[9.4576,42.6198],[9.4578,42.6242],[9.4522,42.6238]]]}},{"type":"Feature","properties":{"landuse":"farmland"},"geometry":{"type":"Polygon","coordinates":[[[9.4573,42.6263],[9.4547,42.6283],[9.4536,42.6265],[9.4573,42.6263]]]}},{"type":"Feature","properties":{"landuse":"farmland"},"geometry":{"type":"Polygon","coordinates":[[[9.452,42.6281],[9.452,42.6254],[9.4576,42.6254],[9.452,42.6281]]]}},{"type":"Feature","properties":{"landuse":"orchard"},"geometry":{"type":"Polygon","coordinates":[[[9.5134,42.3523],[9.5115,42.352],[9.5129,42.3504],[9.5134,42.3523]]]}},{"type":"Feature","properties":{"landuse":"orchard"},"geometry":{"type":"Polygon","coordinates":[[[9.5396,42.3151],[9.5355,42.3167],[9.5356,42.3138],[9.5396,42.3151]]]}},{"type":"Feature","properties":{"landuse":"orchard"},"geometry":{"type":"Polygon","coordinates":[[[9.5175,42.3194],[9.5156,42.3182],[9.5186,42.3177],[9.5175,42.3194]]]}},{"type":"Feature","properties":{"landuse":"orchard"},"geometry":{"type":"Polygon","coordinates":[[[9.4964,42.3224],[9.4951,42.3189],[9.498,42.319],[9.4964,42.3224]]]}},{"type":"Feature","properties":{"landuse":"orchard"},"geometry":{"type":"Polygon","coordinates":[[[9.5365,42.3304],[9.5288,42.3312],[9.5367,42.3271],[9.5365,42.3304]]]}},{"type":"Feature","properties":{"landuse":"farmland"},"geometry":{"type":"Polygon","coordinates":[[[9.5459,42.3147],[9.5427,42.3147],[9.5443,42.3115],[9.5497,42.3126],[9.5494,42.3158],[9.5459,42.3147]]]}},{"type":"Feature","properties":{"landuse":"orchard"},"geometry":{"type":"Polygon","coordinates":[[[9.5379,42.3013],[9.5444,42.301],[9.5439,42.3039],[9.5379,42.3013]]]}},{"type":"Feature","properties":{"landuse":"orchard"},"geometry":{"type":"Polygon","coordinates":[[[9.5319,42.2984],[9.5273,42.3],[9.5262,42.2967],[9.5319,42.2984]]]}},{"type":"Feature","properties":{"landuse":"farmland"},"geometry":{"type":"Polygon","coordinates":[[[9.5316,42.2811],[9.5284,42.283],[9.5279,42.2822],[9.5316,42.2811]]]}},{"type":"Feature","properties":{"landuse":"orchard"},"geometry":{"type":"Polygon","coordinates":[[[9.5363,42.2935],[9.5365,42.2924],[9.5387,42.292],[9.5363,42.2935]]]}},{"type":"Feature","properties":{"landuse":"orchard"},"geometry":{"type":"Polygon","coordinates":[[[9.5346,42.2947],[9.5345,42.2942],[9.5389,42.294],[9.5346,42.2947]]]}},{"type":"Feature","properties":{"landuse":"orchard"},"geometry":{"type":"Polygon","coordinates":[[[9.5361,42.2808],[9.5321,42.2818],[9.5319,42.2812],[9.5361,42.2808]]]}},{"type":"Feature","properties":{"landuse":"orchard"},"geometry":{"type":"Polygon","coordinates":[[[9.5265,42.2022],[9.5251,42.2002],[9.5297,42.2004],[9.5265,42.2022]]]}},{"type":"Feature","properties":{"landuse":"orchard"},"geometry":{"type":"Polygon","coordinates":[[[9.5254,42.1957],[9.5252,42.1986],[9.5195,42.1985],[9.5254,42.1957]]]}},{"type":"Feature","properties":{"landuse":"vineyard"},"geometry":{"type":"Polygon","coordinates":[[[9.4361,42.0086],[9.4322,42.0051],[9.436,42.0046],[9.4361,42.0086]]]}},{"type":"Feature","properties":{"landuse":"vineyard"},"geometry":{"type":"Polygon","coordinates":[[[9.434,42.0112],[9.4316,42.0095],[9.4344,42.008],[9.434,42.0112]]]}},{"type":"Feature","properties":{"landuse":"farmland"},"geometry":{"type":"Polygon","coordinates":[[[9.51,42.5329],[9.5081,42.5345],[9.508,42.533],[9.51,42.5329]]]}},{"type":"Feature","properties":{"landuse":"farmland"},"geometry":{"type":"Polygon","coordinates":[[[9.4592,42.5355],[9.459,42.5338],[9.4619,42.535],[9.4592,42.5355]]]}},{"type":"Feature","properties":{"landuse":"farmland"},"geometry":{"type":"Polygon","coordinates":[[[9.4635,42.5333],[9.4628,42.5317],[9.4651,42.5319],[9.4635,42.5333]]]}},{"type":"Feature","properties":{"landuse":"orchard"},"geometry":{"type":"Polygon","coordinates":[[[9.4592,42.5315],[9.4595,42.5307],[9.4605,42.5308],[9.4592,42.5315]]]}},{"type":"Feature","properties":{"landuse":"farmland"},"geometry":{"type":"Polygon","coordinates":[[[9.4532,42.5431],[9.4524,42.5392],[9.455,42.5409],[9.4532,42.5431]]]}},{"type":"Feature","properties":{"landuse":"farmland"},"geometry":{"type":"Polygon","coordinates":[[[9.4506,42.5483],[9.4499,42.5455],[9.4555,42.5436],[9.4556,42.5473],[9.4506,42.5483]]]}},{"type":"Feature","properties":{"landuse":"farmland"},"geometry":{"type":"Polygon","coordinates":[[[9.5183,42.5432],[9.5021,42.5376],[9.5146,42.5365],[9.5148,42.5323],[9.5197,42.5346],[9.5187,42.5314],[9.5269,42.5292],[9.5214,42.5437],[9.5183,42.5432]]]}},{"type":"Feature","properties":{"landuse":"farmland"},"geometry":{"type":"Polygon","coordinates":[[[9.5127,42.5433],[9.5117,42.5437],[9.5126,42.5419],[9.5127,42.5433]]]}},{"type":"Feature","properties":{"landuse":"farmland"},"geometry":{"type":"Polygon","coordinates":[[[9.5117,42.5443],[9.5145,42.5434],[9.514,42.5445],[9.5117,42.5443]]]}},{"type":"Feature","properties":{"landuse":"farmland"},"geometry":{"type":"Polygon","coordinates":[[[9.515,42.5456],[9.5146,42.5467],[9.5121,42.5455],[9.515,42.5456]]]}},{"type":"Feature","properties":{"landuse":"farmland"},"geometry":{"type":"Polygon","coordinates":[[[9.4979,42.5424],[9.4939,42.5399],[9.5021,42.5378],[9.5031,42.54],[9.5035,42.5378],[9.514,42.5412],[9.4979,42.5424]]]}},{"type":"Feature","properties":{"landuse":"farmland"},"geometry":{"type":"Polygon","coordinates":[[[9.5024,42.5442],[9.5025,42.5427],[9.5053,42.5429],[9.5024,42.5442]]]}},{"type":"Feature","properties":{"landuse":"farmland"},"geometry":{"type":"Polygon","coordinates":[[[9.5011,42.5469],[9.4983,42.544],[9.5115,42.5426],[9.516,42.5474],[9.5138,42.5496],[9.5011,42.5469]]]}},{"type":"Feature","properties":{"landuse":"farmland"},"geometry":{"type":"Polygon","coordinates":[[[9.4938,42.5421],[9.4937,42.5403],[9.4948,42.5418],[9.4938,42.5421]]]}},{"type":"Feature","properties":{"landuse":"farmland"},"geometry":{"type":"Polygon","coordinates":[[[9.4807,42.5385],[9.4811,42.5369],[9.4846,42.5377],[9.4807,42.5385]]]}},{"type":"Feature","properties":{"landuse":"farmland"},"geometry":{"type":"Polygon","coordinates":[[[9.4861,42.5374],[9.4942,42.5338],[9.4998,42.5381],[9.483,42.537],[9.4861,42.5374]]]}},{"type":"Feature","properties":{"landuse":"farmland"},"geometry":{"type":"Polygon","coordinates":[[[9.4595,42.5483],[9.4597,42.545],[9.4605,42.5483],[9.4595,42.5483]]]}},{"type":"Feature","properties":{"landuse":"farmland"},"geometry":{"type":"Polygon","coordinates":[[[9.4582,42.5487],[9.4593,42.5475],[9.4593,42.5484],[9.4582,42.5487]]]}},{"type":"Feature","properties":{"landuse":"farmland"},"geometry":{"type":"Polygon","coordinates":[[[9.4709,42.5376],[9.4703,42.5396],[9.4677,42.5391],[9.4709,42.5376]]]}},{"type":"Feature","properties":{"landuse":"farmland"},"geometry":{"type":"Polygon","coordinates":[[[9.4698,42.5414],[9.4672,42.5412],[9.4675,42.5402],[9.4698,42.5414]]]}},{"type":"Feature","properties":{"landuse":"orchard"},"geometry":{"type":"Polygon","coordinates":[[[9.4656,42.5403],[9.4642,42.5407],[9.4642,42.54],[9.4656,42.5403]]]}},{"type":"Feature","properties":{"landuse":"farmland"},"geometry":{"type":"Polygon","coordinates":[[[9.4664,42.5436],[9.4676,42.5449],[9.4657,42.5449],[9.4664,42.5436]]]}},{"type":"Feature","properties":{"landuse":"farmland"},"geometry":{"type":"Polygon","coordinates":[[[9.4701,42.5453],[9.4664,42.5481],[9.4679,42.5433],[9.4701,42.5453]]]}},{"type":"Feature","properties":{"landuse":"farmland"},"geometry":{"type":"Polygon","coordinates":[[[9.4764,42.5424],[9.4702,42.5468],[9.4713,42.5426],[9.4764,42.5424]]]}},{"type":"Feature","properties":{"landuse":"farmland"},"geometry":{"type":"Polygon","coordinates":[[[9.4695,42.5488],[9.4694,42.5473],[9.4708,42.5487],[9.4695,42.5488]]]}},{"type":"Feature","properties":{"landuse":"farmland"},"geometry":{"type":"Polygon","coordinates":[[[9.4625,42.5468],[9.4627,42.5484],[9.4616,42.5485],[9.4625,42.5468]]]}},{"type":"Feature","properties":{"landuse":"farmland"},"geometry":{"type":"Polygon","coordinates":[[[9.4649,42.5476],[9.4616,42.5467],[9.466,42.545],[9.4649,42.5476]]]}},{"type":"Feature","properties":{"landuse":"vineyard"},"geometry":{"type":"Polygon","coordinates":[[[9.4713,42.5561],[9.4701,42.5567],[9.4703,42.5546],[9.4713,42.5561]]]}},{"type":"Feature","properties":{"landuse":"vineyard"},"geometry":{"type":"Polygon","coordinates":[[[9.4345,42.5734],[9.4315,42.5752],[9.4323,42.5728],[9.4345,42.5734]]]}},{"type":"Feature","properties":{"landuse":"farmland"},"geometry":{"type":"Polygon","coordinates":[[[9.4459,42.5589],[9.4436,42.559],[9.4437,42.5574],[9.4459,42.5589]]]}},{"type":"Feature","properties":{"landuse":"farmland"},"geometry":{"type":"Polygon","coordinates":[[[9.4465,42.5572],[9.4475,42.5581],[9.4459,42.5584],[9.4465,42.5572]]]}},{"type":"Feature","properties":{"landuse":"farmland"},"geometry":{"type":"Polygon","coordinates":[[[9.4659,42.5725],[9.4639,42.572],[9.4677,42.5707],[9.4659,42.5725]]]}},{"type":"Feature","properties":{"landuse":"farmland"},"geometry":{"type":"Polygon","coordinates":[[[9.469,42.5609],[9.4687,42.562],[9.4678,42.5608],[9.469,42.5609]]]}},{"type":"Feature","properties":{"landuse":"farmland"},"geometry":{"type":"Polygon","coordinates":[[[9.4658,42.5568],[9.4622,42.5568],[9.4629,42.5539],[9.4658,42.5568]]]}},{"type":"Feature","properties":{"landuse":"farmland"},"geometry":{"type":"Polygon","coordinates":[[[9.4607,42.5599],[9.4605,42.5573],[9.4674,42.5585],[9.4607,42.5599]]]}},{"type":"Feature","properties":{"landuse":"farmland"},"geometry":{"type":"Polygon","coordinates":[[[9.4685,42.5588],[9.467,42.5594],[9.4674,42.5585],[9.4685,42.5588]]]}},{"type":"Feature","properties":{"landuse":"farmland"},"geometry":{"type":"Polygon","coordinates":[[[9.4685,42.5588],[9.4701,42.5594],[9.4683,42.5597],[9.4685,42.5588]]]}},{"type":"Feature","properties":{"landuse":"farmland"},"geometry":{"type":"Polygon","coordinates":[[[9.4678,42.5601],[9.4645,42.5615],[9.4652,42.5596],[9.4678,42.5601]]]}},{"type":"Feature","properties":{"landuse":"farmland"},"geometry":{"type":"Polygon","coordinates":[[[9.4679,42.5643],[9.4642,42.5628],[9.4686,42.5621],[9.4679,42.5643]]]}},{"type":"Feature","properties":{"landuse":"farmland"},"geometry":{"type":"Polygon","coordinates":[[[9.4691,42.5675],[9.4678,42.5662],[9.4691,42.5665],[9.4691,42.5675]]]}},{"type":"Feature","properties":{"landuse":"farmland"},"geometry":{"type":"Polygon","coordinates":[[[9.4707,42.5688],[9.4693,42.5691],[9.4682,42.5678],[9.4707,42.5688]]]}},{"type":"Feature","properties":{"landuse":"farmland"},"geometry":{"type":"Polygon","coordinates":[[[9.4609,42.5659],[9.4605,42.5604],[9.4676,42.5657],[9.4609,42.5659]]]}},{"type":"Feature","properties":{"landuse":"farmland"},"geometry":{"type":"Polygon","coordinates":[[[9.4559,42.5673],[9.4548,42.5664],[9.4565,42.5652],[9.4559,42.5673]]]}},{"type":"Feature","properties":{"landuse":"farmland"},"geometry":{"type":"Polygon","coordinates":[[[9.4502,42.5601],[9.4508,42.5621],[9.447,42.5621],[9.4502,42.5601]]]}},{"type":"Feature","properties":{"landuse":"orchard"},"geometry":{"type":"Polygon","coordinates":[[[9.4639,42.5614],[9.4618,42.5632],[9.4629,42.5612],[9.4639,42.5614]]]}},{"type":"Feature","properties":{"landuse":"orchard"},"geometry":{"type":"Polygon","coordinates":[[[9.4653,42.5596],[9.4635,42.5602],[9.464,42.5587],[9.4653,42.5596]]]}},{"type":"Feature","properties":{"landuse":"orchard"},"geometry":{"type":"Polygon","coordinates":[[[9.4698,42.56],[9.4679,42.5608],[9.4682,42.5599],[9.4698,42.56]]]}},{"type":"Feature","properties":{"landuse":"orchard"},"geometry":{"type":"Polygon","coordinates":[[[9.4756,42.5563],[9.4749,42.5567],[9.472,42.5557],[9.4756,42.5563]]]}},{"type":"Feature","properties":{"landuse":"farmland"},"geometry":{"type":"Polygon","coordinates":[[[9.4731,42.5548],[9.4783,42.5533],[9.4761,42.5558],[9.4731,42.5548]]]}},{"type":"Feature","properties":{"landuse":"farmland"},"geometry":{"type":"Polygon","coordinates":[[[9.4767,42.5611],[9.471,42.5591],[9.4775,42.5593],[9.4767,42.5611]]]}},{"type":"Feature","properties":{"landuse":"farmland"},"geometry":{"type":"Polygon","coordinates":[[[9.4723,42.5612],[9.4696,42.5603],[9.4732,42.5604],[9.4723,42.5612]]]}},{"type":"Feature","properties":{"landuse":"farmland"},"geometry":{"type":"Polygon","coordinates":[[[9.4688,42.5621],[9.4694,42.5605],[9.4746,42.5607],[9.4688,42.5621]]]}},{"type":"Feature","properties":{"landuse":"farmland"},"geometry":{"type":"Polygon","coordinates":[[[9.47,42.5634],[9.4684,42.5638],[9.4717,42.5626],[9.47,42.5634]]]}},{"type":"Feature","properties":{"landuse":"farmland"},"geometry":{"type":"Polygon","coordinates":[[[9.4736,42.5652],[9.4762,42.5615],[9.4741,42.567],[9.4714,42.5664],[9.4736,42.5652]]]}},{"type":"Feature","properties":{"landuse":"farmland"},"geometry":{"type":"Polygon","coordinates":[[[9.4728,42.5686],[9.47,42.5663],[9.4741,42.5671],[9.4728,42.5686]]]}},{"type":"Feature","properties":{"landuse":"farmland"},"geometry":{"type":"Polygon","coordinates":[[[9.4715,42.5759],[9.47,42.5761],[9.4702,42.5738],[9.4715,42.5759]]]}},{"type":"Feature","properties":{"landuse":"farmland"},"geometry":{"type":"Polygon","coordinates":[[[9.4746,42.5772],[9.4717,42.5777],[9.4715,42.5759],[9.4746,42.5772]]]}},{"type":"Feature","properties":{"landuse":"farmland"},"geometry":{"type":"Polygon","coordinates":[[[9.4651,42.5777],[9.4677,42.5762],[9.4676,42.578],[9.4651,42.5777]]]}},{"type":"Feature","properties":{"landuse":"farmland"},"geometry":{"type":"Polygon","coordinates":[[[9.4564,42.5844],[9.454,42.5845],[9.4607,42.5809],[9.4564,42.5844]]]}},{"type":"Feature","properties":{"landuse":"farmland"},"geometry":{"type":"Polygon","coordinates":[[[9.4525,42.5865],[9.4516,42.586],[9.4537,42.5853],[9.4525,42.5865]]]}},{"type":"Feature","properties":{"landuse":"farmland"},"geometry":{"type":"Polygon","coordinates":[[[9.4521,42.5817],[9.4553,42.5816],[9.4519,42.5849],[9.4457,42.5835],[9.4521,42.5817]]]}},{"type":"Feature","properties":{"landuse":"farmland"},"geometry":{"type":"Polygon","coordinates":[[[9.4659,42.5866],[9.4631,42.5827],[9.4687,42.584],[9.4659,42.5866]]]}},{"type":"Feature","properties":{"landuse":"farmland"},"geometry":{"type":"Polygon","coordinates":[[[9.4715,42.586],[9.4717,42.5844],[9.4735,42.5841],[9.4715,42.586]]]}},{"type":"Feature","properties":{"landuse":"farmland"},"geometry":{"type":"Polygon","coordinates":[[[9.4652,42.5894],[9.4642,42.5863],[9.4705,42.5846],[9.4702,42.5886],[9.4652,42.5894]]]}},{"type":"Feature","properties":{"landuse":"orchard"},"geometry":{"type":"Polygon","coordinates":[[[9.2257,41.6054],[9.2227,41.604],[9.2283,41.6066],[9.2257,41.6054]]]}},{"type":"Feature","properties":{"landuse":"farmland"},"geometry":{"type":"Polygon","coordinates":[[[9.2092,41.5945],[9.209,41.5935],[9.2133,41.5928],[9.2092,41.5945]]]}},{"type":"Feature","properties":{"landuse":"vineyard"},"geometry":{"type":"Polygon","coordinates":[[[9.3274,42.6906],[9.3262,42.6927],[9.3255,42.6904],[9.3274,42.6906]]]}},{"type":"Feature","properties":{"landuse":"orchard"},"geometry":{"type":"Polygon","coordinates":[[[9.3143,42.6841],[9.3136,42.6821],[9.3172,42.6846],[9.3143,42.6841]]]}},{"type":"Feature","properties":{"landuse":"vineyard"},"geometry":{"type":"Polygon","coordinates":[[[9.3134,42.6819],[9.3146,42.6847],[9.3105,42.6845],[9.3134,42.6819]]]}},{"type":"Feature","properties":{"landuse":"farmland"},"geometry":{"type":"Polygon","coordinates":[[[8.8899,41.6611],[8.898,41.6605],[8.8922,41.6625],[8.8899,41.6611]]]}},{"type":"Feature","properties":{"landuse":"farmland"},"geometry":{"type":"Polygon","coordinates":[[[8.8965,41.663],[8.8934,41.6651],[8.8832,41.6629],[8.8965,41.663]]]}},{"type":"Feature","properties":{"landuse":"farmland"},"geometry":{"type":"Polygon","coordinates":[[[8.8927,41.6585],[8.8818,41.6606],[8.8819,41.6531],[8.8926,41.6528],[8.8927,41.6585]]]}},{"type":"Feature","properties":{"landuse":"orchard"},"geometry":{"type":"Polygon","coordinates":[[[8.8985,41.6522],[8.8975,41.6543],[8.8908,41.6518],[8.8947,41.6497],[8.8985,41.6522]]]}},{"type":"Feature","properties":{"landuse":"vineyard"},"geometry":{"type":"Polygon","coordinates":[[[8.8357,41.9061],[8.8376,41.9089],[8.8345,41.9092],[8.8357,41.9061]]]}},{"type":"Feature","properties":{"landuse":"vineyard"},"geometry":{"type":"Polygon","coordinates":[[[8.8332,41.9089],[8.8341,41.9096],[8.8321,41.91],[8.8332,41.9089]]]}},{"type":"Feature","properties":{"landuse":"vineyard"},"geometry":{"type":"Polygon","coordinates":[[[8.8333,41.9102],[8.8353,41.9101],[8.8337,41.9115],[8.8333,41.9102]]]}},{"type":"Feature","properties":{"landuse":"greenhouse_horticulture"},"geometry":{"type":"Polygon","coordinates":[[[8.8423,41.9053],[8.8389,41.9046],[8.842,41.9041],[8.8423,41.9053]]]}},{"type":"Feature","properties":{"landuse":"greenhouse_horticulture"},"geometry":{"type":"Polygon","coordinates":[[[8.8399,41.9042],[8.838,41.9044],[8.8382,41.9025],[8.8399,41.9042]]]}},{"type":"Feature","properties":{"landuse":"vineyard"},"geometry":{"type":"Polygon","coordinates":[[[8.8018,41.9401],[8.8035,41.9404],[8.8021,41.9414],[8.8018,41.9401]]]}},{"type":"Feature","properties":{"landuse":"farmland"},"geometry":{"type":"Polygon","coordinates":[[[8.8119,41.9478],[8.8066,41.9406],[8.8105,41.9386],[8.814,41.9442],[8.8119,41.9478]]]}},{"type":"Feature","properties":{"landuse":"green_public_spaces"},"geometry":{"type":"Polygon","coordinates":[[[8.7332,41.9198],[8.7302,41.9206],[8.7307,41.9197],[8.7332,41.9198]]]}},{"type":"Feature","properties":{"landuse":"green_public_spaces"},"geometry":{"type":"Polygon","coordinates":[[[8.7531,41.9399],[8.7514,41.9398],[8.7529,41.9391],[8.7531,41.9399]]]}},{"type":"Feature","properties":{"landuse":"orchard"},"geometry":{"type":"Polygon","coordinates":[[[8.727,41.9458],[8.7291,41.9447],[8.7296,41.9453],[8.727,41.9458]]]}},{"type":"Feature","properties":{"landuse":"orchard"},"geometry":{"type":"Polygon","coordinates":[[[8.73,41.9462],[8.7291,41.9476],[8.728,41.9465],[8.73,41.9462]]]}},{"type":"Feature","properties":{"landuse":"farmland"},"geometry":{"type":"Polygon","coordinates":[[[9.3991,41.9015],[9.4013,41.9016],[9.3988,41.9054],[9.3991,41.9015]]]}},{"type":"Feature","properties":{"landuse":"farmland"},"geometry":{"type":"Polygon","coordinates":[[[8.7914,41.927],[8.7932,41.9262],[8.7942,41.9271],[8.7914,41.927]]]}},{"type":"Feature","properties":{"landuse":"farmland"},"geometry":{"type":"Polygon","coordinates":[[[8.7878,41.9269],[8.7879,41.926],[8.7926,41.9258],[8.7878,41.9269]]]}},{"type":"Feature","properties":{"landuse":"orchard"},"geometry":{"type":"Polygon","coordinates":[[[8.6043,42.1516],[8.6026,42.1546],[8.6015,42.1527],[8.6043,42.1516]]]}},{"type":"Feature","properties":{"landuse":"vineyard"},"geometry":{"type":"Polygon","coordinates":[[[8.7859,41.9419],[8.7837,41.9389],[8.7859,41.9401],[8.7859,41.9419]]]}},{"type":"Feature","properties":{"landuse":"vineyard"},"geometry":{"type":"Polygon","coordinates":[[[8.7751,41.9437],[8.7812,41.9436],[8.7784,41.9457],[8.7751,41.9437]]]}},{"type":"Feature","properties":{"landuse":"vineyard"},"geometry":{"type":"Polygon","coordinates":[[[8.7785,41.9458],[8.7814,41.9435],[8.7826,41.9452],[8.7785,41.9458]]]}},{"type":"Feature","properties":{"landuse":"vineyard"},"geometry":{"type":"Polygon","coordinates":[[[8.7747,41.9407],[8.7776,41.9406],[8.7763,41.9424],[8.7747,41.9407]]]}},{"type":"Feature","properties":{"landuse":"vineyard"},"geometry":{"type":"Polygon","coordinates":[[[8.7755,41.943],[8.7713,41.94],[8.7741,41.9406],[8.7755,41.943]]]}},{"type":"Feature","properties":{"landuse":"vineyard"},"geometry":{"type":"Polygon","coordinates":[[[8.8433,41.9081],[8.8442,41.9072],[8.8462,41.9087],[8.8433,41.9081]]]}},{"type":"Feature","properties":{"landuse":"vineyard"},"geometry":{"type":"Polygon","coordinates":[[[8.8434,41.9066],[8.8426,41.9057],[8.8443,41.9053],[8.8434,41.9066]]]}},{"type":"Feature","properties":{"landuse":"vineyard"},"geometry":{"type":"Polygon","coordinates":[[[8.8473,41.908],[8.8467,41.9085],[8.8445,41.9072],[8.8473,41.908]]]}},{"type":"Feature","properties":{"landuse":"vineyard"},"geometry":{"type":"Polygon","coordinates":[[[8.8454,41.9093],[8.8413,41.9094],[8.8432,41.9081],[8.8454,41.9093]]]}},{"type":"Feature","properties":{"landuse":"vineyard"},"geometry":{"type":"Polygon","coordinates":[[[8.8473,41.9078],[8.8452,41.9067],[8.8467,41.9057],[8.8473,41.9078]]]}},{"type":"Feature","properties":{"landuse":"vineyard"},"geometry":{"type":"Polygon","coordinates":[[[8.8499,41.9085],[8.8527,41.9056],[8.8523,41.9091],[8.8499,41.9085]]]}},{"type":"Feature","properties":{"landuse":"vineyard"},"geometry":{"type":"Polygon","coordinates":[[[8.8527,41.9056],[8.8491,41.9082],[8.8473,41.9059],[8.8527,41.9056]]]}},{"type":"Feature","properties":{"landuse":"vineyard"},"geometry":{"type":"Polygon","coordinates":[[[8.8533,41.9031],[8.8539,41.9055],[8.8502,41.9041],[8.8533,41.9031]]]}},{"type":"Feature","properties":{"landuse":"orchard"},"geometry":{"type":"Polygon","coordinates":[[[9.5331,42.4449],[9.5339,42.446],[9.5329,42.4458],[9.5331,42.4449]]]}},{"type":"Feature","properties":{"landuse":"orchard"},"geometry":{"type":"Polygon","coordinates":[[[9.5124,42.453],[9.5107,42.4541],[9.5099,42.4529],[9.5124,42.453]]]}},{"type":"Feature","properties":{"landuse":"orchard"},"geometry":{"type":"Polygon","coordinates":[[[9.5514,42.2876],[9.5524,42.2874],[9.5495,42.2885],[9.5514,42.2876]]]}},{"type":"Feature","properties":{"landuse":"farmland"},"geometry":{"type":"Polygon","coordinates":[[[9.5518,42.2886],[9.5548,42.2873],[9.5532,42.2895],[9.5518,42.2886]]]}},{"type":"Feature","properties":{"landuse":"vineyard"},"geometry":{"type":"Polygon","coordinates":[[[9.4261,42.0204],[9.4292,42.022],[9.4216,42.0251],[9.4168,42.0215],[9.4212,42.0181],[9.4261,42.0204]]]}},{"type":"Feature","properties":{"landuse":"orchard"},"geometry":{"type":"Polygon","coordinates":[[[9.4289,42.026],[9.4266,42.0237],[9.4314,42.0249],[9.4289,42.026]]]}},{"type":"Feature","properties":{"landuse":"vineyard"},"geometry":{"type":"Polygon","coordinates":[[[9.4311,42.0302],[9.4268,42.028],[9.4352,42.0269],[9.4311,42.0302]]]}},{"type":"Feature","properties":{"landuse":"farmland"},"geometry":{"type":"Polygon","coordinates":[[[9.4259,41.9895],[9.4274,41.9913],[9.4264,41.9917],[9.4259,41.9895]]]}},{"type":"Feature","properties":{"landuse":"farmland"},"geometry":{"type":"Polygon","coordinates":[[[9.4269,41.9893],[9.4284,41.9888],[9.4276,41.9902],[9.4269,41.9893]]]}},{"type":"Feature","properties":{"landuse":"farmland"},"geometry":{"type":"Polygon","coordinates":[[[9.548,42.2057],[9.5477,42.2045],[9.5499,42.204],[9.548,42.2057]]]}},{"type":"Feature","properties":{"landuse":"orchard"},"geometry":{"type":"Polygon","coordinates":[[[9.5478,42.206],[9.5466,42.2021],[9.5478,42.2019],[9.5478,42.206]]]}},{"type":"Feature","properties":{"landuse":"farmland"},"geometry":{"type":"Polygon","coordinates":[[[9.5479,42.2043],[9.5476,42.2022],[9.55,42.2024],[9.5479,42.2043]]]}},{"type":"Feature","properties":{"landuse":"orchard"},"geometry":{"type":"Polygon","coordinates":[[[9.5393,42.2248],[9.5384,42.2237],[9.5404,42.2243],[9.5393,42.2248]]]}},{"type":"Feature","properties":{"landuse":"orchard"},"geometry":{"type":"Polygon","coordinates":[[[9.5398,42.2255],[9.5377,42.2248],[9.5388,42.2244],[9.5398,42.2255]]]}},{"type":"Feature","properties":{"landuse":"orchard"},"geometry":{"type":"Polygon","coordinates":[[[9.5388,42.2244],[9.5368,42.2237],[9.5379,42.2232],[9.5388,42.2244]]]}},{"type":"Feature","properties":{"landuse":"orchard"},"geometry":{"type":"Polygon","coordinates":[[[9.5368,42.2251],[9.5359,42.2241],[9.5368,42.2237],[9.5368,42.2251]]]}},{"type":"Feature","properties":{"landuse":"orchard"},"geometry":{"type":"Polygon","coordinates":[[[9.5375,42.226],[9.5368,42.2251],[9.5384,42.2257],[9.5375,42.226]]]}},{"type":"Feature","properties":{"landuse":"vineyard"},"geometry":{"type":"Polygon","coordinates":[[[9.5278,42.2135],[9.5269,42.2115],[9.5288,42.2124],[9.5278,42.2135]]]}},{"type":"Feature","properties":{"landuse":"orchard"},"geometry":{"type":"Polygon","coordinates":[[[9.5315,42.2046],[9.528,42.2017],[9.5305,42.2009],[9.5337,42.2052],[9.5315,42.2046]]]}},{"type":"Feature","properties":{"landuse":"vineyard"},"geometry":{"type":"Polygon","coordinates":[[[9.5231,42.1891],[9.5195,42.1873],[9.5237,42.1819],[9.5231,42.1891]]]}},{"type":"Feature","properties":{"landuse":"farmland"},"geometry":{"type":"Polygon","coordinates":[[[9.5386,42.2128],[9.5349,42.2138],[9.5373,42.2108],[9.5386,42.2128]]]}},{"type":"Feature","properties":{"landuse":"vineyard"},"geometry":{"type":"Polygon","coordinates":[[[9.5277,42.211],[9.531,42.2115],[9.5289,42.2125],[9.5277,42.211]]]}},{"type":"Feature","properties":{"landuse":"vineyard"},"geometry":{"type":"Polygon","coordinates":[[[9.5259,42.214],[9.5255,42.2124],[9.5276,42.2134],[9.5259,42.214]]]}},{"type":"Feature","properties":{"landuse":"farmland"},"geometry":{"type":"Polygon","coordinates":[[[9.5369,42.2158],[9.5393,42.2135],[9.5395,42.216],[9.5369,42.2158]]]}},{"type":"Feature","properties":{"landuse":"farmland"},"geometry":{"type":"Polygon","coordinates":[[[9.5293,42.2125],[9.5321,42.2113],[9.5299,42.2131],[9.5293,42.2125]]]}},{"type":"Feature","properties":{"landuse":"farmland"},"geometry":{"type":"Polygon","coordinates":[[[9.5303,42.2131],[9.5309,42.2153],[9.5279,42.2151],[9.5303,42.2131]]]}},{"type":"Feature","properties":{"landuse":"farmland"},"geometry":{"type":"Polygon","coordinates":[[[9.5259,42.2148],[9.5277,42.2145],[9.5271,42.2153],[9.5259,42.2148]]]}},{"type":"Feature","properties":{"landuse":"greenhouse_horticulture"},"geometry":{"type":"Polygon","coordinates":[[[9.4657,42.5281],[9.4654,42.5287],[9.4627,42.5271],[9.4657,42.5281]]]}},{"type":"Feature","properties":{"landuse":"farmland"},"geometry":{"type":"Polygon","coordinates":[[[9.4955,42.53],[9.4999,42.5302],[9.5002,42.5328],[9.4959,42.5329],[9.4955,42.53]]]}},{"type":"Feature","properties":{"landuse":"farmland"},"geometry":{"type":"Polygon","coordinates":[[[9.4927,42.528],[9.4923,42.5335],[9.4902,42.533],[9.4927,42.528]]]}},{"type":"Feature","properties":{"landuse":"farmland"},"geometry":{"type":"Polygon","coordinates":[[[9.4875,42.5289],[9.4858,42.5306],[9.4925,42.5279],[9.4878,42.5311],[9.4875,42.5289]]]}},{"type":"Feature","properties":{"landuse":"farmland"},"geometry":{"type":"Polygon","coordinates":[[[9.4768,42.527],[9.482,42.5284],[9.4809,42.5307],[9.4774,42.5308],[9.4768,42.527]]]}},{"type":"Feature","properties":{"landuse":"farmland"},"geometry":{"type":"Polygon","coordinates":[[[9.4702,42.5309],[9.4706,42.5286],[9.4709,42.531],[9.4702,42.5309]]]}},{"type":"Feature","properties":{"landuse":"greenhouse_horticulture"},"geometry":{"type":"Polygon","coordinates":[[[9.4707,42.5322],[9.4682,42.529],[9.4707,42.5283],[9.4707,42.5322]]]}},{"type":"Feature","properties":{"landuse":"farmland"},"geometry":{"type":"Polygon","coordinates":[[[9.4733,42.5325],[9.472,42.529],[9.4772,42.5283],[9.4733,42.5325]]]}},{"type":"Feature","properties":{"landuse":"orchard"},"geometry":{"type":"Polygon","coordinates":[[[9.472,42.5287],[9.4714,42.5322],[9.4713,42.5266],[9.472,42.5287]]]}},{"type":"Feature","properties":{"landuse":"orchard"},"geometry":{"type":"Polygon","coordinates":[[[9.4737,42.5302],[9.4928,42.5295],[9.4879,42.5366],[9.483,42.5316],[9.4733,42.5325],[9.4737,42.5302]]]}},{"type":"Feature","properties":{"landuse":"orchard"},"geometry":{"type":"Polygon","coordinates":[[[9.4891,42.5287],[9.4906,42.5278],[9.4907,42.5286],[9.4891,42.5287]]]}},{"type":"Feature","properties":{"landuse":"orchard"},"geometry":{"type":"Polygon","coordinates":[[[9.4984,42.5267],[9.4965,42.5267],[9.4955,42.5241],[9.4984,42.5267]]]}},{"type":"Feature","properties":{"landuse":"orchard"},"geometry":{"type":"Polygon","coordinates":[[[9.5015,42.5328],[9.5013,42.5372],[9.496,42.5331],[9.5015,42.5328]]]}},{"type":"Feature","properties":{"landuse":"farmland"},"geometry":{"type":"Polygon","coordinates":[[[9.5253,42.1984],[9.5253,42.1962],[9.5263,42.1958],[9.5253,42.1984]]]}},{"type":"Feature","properties":{"landuse":"farmland"},"geometry":{"type":"Polygon","coordinates":[[[9.5285,42.1965],[9.5294,42.1986],[9.5279,42.1984],[9.5285,42.1965]]]}},{"type":"Feature","properties":{"landuse":"farmland"},"geometry":{"type":"Polygon","coordinates":[[[9.5261,42.1986],[9.5267,42.1959],[9.5274,42.1984],[9.5261,42.1986]]]}},{"type":"Feature","properties":{"landuse":"farmland"},"geometry":{"type":"Polygon","coordinates":[[[9.551,42.2041],[9.5503,42.2037],[9.5533,42.2031],[9.551,42.2041]]]}},{"type":"Feature","properties":{"landuse":"orchard"},"geometry":{"type":"Polygon","coordinates":[[[8.9759,42.6276],[8.9744,42.6282],[8.9739,42.6266],[8.9759,42.6276]]]}},{"type":"Feature","properties":{"landuse":"orchard"},"geometry":{"type":"Polygon","coordinates":[[[8.885,42.5987],[8.8872,42.6004],[8.8864,42.6011],[8.885,42.5987]]]}},{"type":"Feature","properties":{"landuse":"farmland"},"geometry":{"type":"Polygon","coordinates":[[[9.5508,42.2062],[9.551,42.2052],[9.553,42.2052],[9.5508,42.2062]]]}},{"type":"Feature","properties":{"landuse":"vineyard"},"geometry":{"type":"Polygon","coordinates":[[[9.5254,42.2205],[9.5261,42.2181],[9.5267,42.2195],[9.5254,42.2205]]]}},{"type":"Feature","properties":{"landuse":"vineyard"},"geometry":{"type":"Polygon","coordinates":[[[9.2885,42.6445],[9.2891,42.6422],[9.2932,42.6414],[9.2885,42.6445]]]}},{"type":"Feature","properties":{"landuse":"vineyard"},"geometry":{"type":"Polygon","coordinates":[[[9.5219,42.1912],[9.5201,42.1902],[9.5231,42.1894],[9.5219,42.1912]]]}},{"type":"Feature","properties":{"landuse":"orchard"},"geometry":{"type":"Polygon","coordinates":[[[9.3221,42.7031],[9.3229,42.7016],[9.3234,42.703],[9.3221,42.7031]]]}},{"type":"Feature","properties":{"landuse":"farmland"},"geometry":{"type":"Polygon","coordinates":[[[9.3214,42.6959],[9.3222,42.6934],[9.3245,42.6947],[9.3214,42.6959]]]}},{"type":"Feature","properties":{"landuse":"orchard"},"geometry":{"type":"Polygon","coordinates":[[[9.5217,42.4311],[9.5179,42.432],[9.5195,42.4302],[9.5217,42.4311]]]}},{"type":"Feature","properties":{"landuse":"orchard"},"geometry":{"type":"Polygon","coordinates":[[[9.5087,42.4105],[9.5111,42.4112],[9.509,42.412],[9.5087,42.4105]]]}},{"type":"Feature","properties":{"landuse":"vineyard"},"geometry":{"type":"Polygon","coordinates":[[[9.5282,42.4158],[9.5288,42.4166],[9.5271,42.417],[9.5282,42.4158]]]}},{"type":"Feature","properties":{"landuse":"vineyard"},"geometry":{"type":"Polygon","coordinates":[[[9.5346,42.4141],[9.5339,42.4184],[9.5307,42.4195],[9.5346,42.4141]]]}},{"type":"Feature","properties":{"landuse":"orchard"},"geometry":{"type":"Polygon","coordinates":[[[9.4931,42.4922],[9.4921,42.4853],[9.5051,42.4857],[9.5043,42.4902],[9.494,42.4892],[9.4931,42.4922]]]}},{"type":"Feature","properties":{"landuse":"orchard"},"geometry":{"type":"Polygon","coordinates":[[[8.8917,42.6167],[8.886,42.6191],[8.887,42.6172],[8.8917,42.6167]]]}},{"type":"Feature","properties":{"landuse":"vineyard"},"geometry":{"type":"Polygon","coordinates":[[[9.5037,42.1216],[9.5047,42.1225],[9.502,42.1222],[9.5037,42.1216]]]}},{"type":"Feature","properties":{"landuse":"orchard"},"geometry":{"type":"Polygon","coordinates":[[[9.506,42.1243],[9.5071,42.1245],[9.5067,42.1263],[9.506,42.1243]]]}},{"type":"Feature","properties":{"landuse":"vineyard"},"geometry":{"type":"Polygon","coordinates":[[[9.5284,42.1112],[9.53,42.1099],[9.5332,42.1109],[9.5284,42.1112]]]}},{"type":"Feature","properties":{"landuse":"vineyard"},"geometry":{"type":"Polygon","coordinates":[[[9.504,42.1179],[9.4986,42.119],[9.4982,42.1169],[9.5014,42.1147],[9.504,42.1179]]]}},{"type":"Feature","properties":{"landuse":"vineyard"},"geometry":{"type":"Polygon","coordinates":[[[9.5088,42.1308],[9.5037,42.1304],[9.503,42.128],[9.5088,42.1308]]]}},{"type":"Feature","properties":{"landuse":"vineyard"},"geometry":{"type":"Polygon","coordinates":[[[9.5123,42.1285],[9.5105,42.1307],[9.5102,42.1279],[9.5123,42.1285]]]}},{"type":"Feature","properties":{"landuse":"farmland"},"geometry":{"type":"Polygon","coordinates":[[[9.1411,42.3059],[9.1435,42.3053],[9.143,42.3065],[9.1411,42.3059]]]}},{"type":"Feature","properties":{"landuse":"farmland"},"geometry":{"type":"Polygon","coordinates":[[[9.1438,42.3028],[9.1452,42.3013],[9.1453,42.3039],[9.1438,42.3028]]]}},{"type":"Feature","properties":{"landuse":"green_public_spaces"},"geometry":{"type":"Polygon","coordinates":[[[9.3003,42.6774],[9.3019,42.6781],[9.3005,42.6784],[9.3003,42.6774]]]}},{"type":"Feature","properties":{"landuse":"farmland"},"geometry":{"type":"Polygon","coordinates":[[[9.4487,42.5981],[9.4518,42.5986],[9.4461,42.5987],[9.4487,42.5981]]]}},{"type":"Feature","properties":{"landuse":"farmland"},"geometry":{"type":"Polygon","coordinates":[[[9.5315,42.3358],[9.5355,42.3365],[9.5321,42.3384],[9.535,42.3367],[9.5315,42.3358]]]}},{"type":"Feature","properties":{"landuse":"farmland"},"geometry":{"type":"Polygon","coordinates":[[[9.5324,42.3345],[9.536,42.3349],[9.5317,42.3357],[9.5324,42.3345]]]}},{"type":"Feature","properties":{"landuse":"farmland"},"geometry":{"type":"Polygon","coordinates":[[[9.5378,42.3339],[9.5401,42.3311],[9.54,42.3336],[9.5378,42.3339]]]}},{"type":"Feature","properties":{"landuse":"farmland"},"geometry":{"type":"Polygon","coordinates":[[[9.529,42.3466],[9.5252,42.3467],[9.5308,42.3448],[9.529,42.3466]]]}},{"type":"Feature","properties":{"landuse":"farmland"},"geometry":{"type":"Polygon","coordinates":[[[9.5193,42.2018],[9.5205,42.2034],[9.5173,42.2034],[9.5193,42.2018]]]}},{"type":"Feature","properties":{"landuse":"farmland"},"geometry":{"type":"Polygon","coordinates":[[[9.5265,42.2022],[9.5262,42.2005],[9.5273,42.2022],[9.5265,42.2022]]]}},{"type":"Feature","properties":{"landuse":"orchard"},"geometry":{"type":"Polygon","coordinates":[[[9.5269,42.2029],[9.5275,42.2052],[9.5264,42.2052],[9.5269,42.2029]]]}},{"type":"Feature","properties":{"landuse":"vineyard"},"geometry":{"type":"Polygon","coordinates":[[[9.1068,41.5223],[9.1085,41.5209],[9.1109,41.5214],[9.1068,41.5223]]]}},{"type":"Feature","properties":{"landuse":"farmland"},"geometry":{"type":"Polygon","coordinates":[[[9.1046,41.4957],[9.111,41.4969],[9.1052,41.498],[9.1046,41.4957]]]}},{"type":"Feature","properties":{"landuse":"vineyard"},"geometry":{"type":"Polygon","coordinates":[[[9.1099,41.5203],[9.109,41.5189],[9.1121,41.52],[9.1099,41.5203]]]}},{"type":"Feature","properties":{"landuse":"vineyard"},"geometry":{"type":"Polygon","coordinates":[[[9.1542,42.3129],[9.1526,42.3127],[9.1521,42.3093],[9.1542,42.3129]]]}},{"type":"Feature","properties":{"landuse":"vineyard"},"geometry":{"type":"Polygon","coordinates":[[[9.3493,42.695],[9.3508,42.6946],[9.3505,42.6966],[9.3493,42.695]]]}},{"type":"Feature","properties":{"landuse":"farmland"},"geometry":{"type":"Polygon","coordinates":[[[9.2878,42.6489],[9.2875,42.6479],[9.2903,42.6485],[9.2878,42.6489]]]}},{"type":"Feature","properties":{"landuse":"farmland"},"geometry":{"type":"Polygon","coordinates":[[[9.3923,41.9342],[9.3886,41.9345],[9.3884,41.9327],[9.3923,41.9342]]]}},{"type":"Feature","properties":{"landuse":"farmland"},"geometry":{"type":"Polygon","coordinates":[[[9.5266,42.4366],[9.5289,42.4346],[9.5376,42.4374],[9.5266,42.4366]]]}},{"type":"Feature","properties":{"landuse":"farmland"},"geometry":{"type":"Polygon","coordinates":[[[9.5196,42.4373],[9.5201,42.436],[9.522,42.4359],[9.5196,42.4373]]]}},{"type":"Feature","properties":{"landuse":"farmland"},"geometry":{"type":"Polygon","coordinates":[[[9.5194,42.4381],[9.5239,42.4361],[9.5223,42.4386],[9.5194,42.4381]]]}},{"type":"Feature","properties":{"landuse":"farmland"},"geometry":{"type":"Polygon","coordinates":[[[9.5231,42.438],[9.5239,42.4363],[9.5256,42.4369],[9.5231,42.438]]]}},{"type":"Feature","properties":{"landuse":"farmland"},"geometry":{"type":"Polygon","coordinates":[[[9.5231,42.4386],[9.5295,42.4378],[9.5252,42.4398],[9.5231,42.4386]]]}},{"type":"Feature","properties":{"landuse":"farmland"},"geometry":{"type":"Polygon","coordinates":[[[9.5307,42.4339],[9.5318,42.4337],[9.5322,42.4353],[9.5307,42.4339]]]}}]}