{"type":"FeatureCollection","features":[{"type":"Feature","properties":{"landuse":"green_public_spaces"},"geometry":{"type":"MultiPolygon","coordinates":[[[[-60.882,14.4233],[-60.8861,14.4158],[-60.8806,14.4186],[-60.882,14.4233]]],[[[-60.8792,14.4264],[-60.8782,14.4266],[-60.8789,14.4278],[-60.8792,14.4264]]],[[[-60.8787,14.4316],[-60.8841,14.4276],[-60.8812,14.4227],[-60.8755,14.4239],[-60.8753,14.4268],[-60.8809,14.4282],[-60.8776,14.4279],[-60.8787,14.4316]]]]}},{"type":"Feature","properties":{"landuse":"green_public_spaces"},"geometry":{"type":"Polygon","coordinates":[[[-61.0909,14.6722],[-61.0928,14.6715],[-61.0914,14.6699],[-61.0909,14.6722]]]}},{"type":"Feature","properties":{"landuse":"farmland"},"geometry":{"type":"Polygon","coordinates":[[[-60.9952,14.6022],[-60.9916,14.5994],[-60.9918,14.6025],[-60.9952,14.6022]]]}},{"type":"Feature","properties":{"landuse":"farmland"},"geometry":{"type":"Polygon","coordinates":[[[-60.9918,14.6025],[-60.9917,14.5995],[-60.9877,14.5995],[-60.9918,14.6025]]]}},{"type":"Feature","properties":{"landuse":"farmland"},"geometry":{"type":"Polygon","coordinates":[[[-60.9918,14.6025],[-60.9877,14.5995],[-60.9737,14.6018],[-60.9751,14.6102],[-60.9667,14.6127],[-60.967,14.6192],[-60.9796,14.6212],[-60.9842,14.603],[-60.9918,14.6025]]]}},{"type":"Feature","properties":{"landuse":"farmland"},"geometry":{"type":"Polygon","coordinates":[[[-60.9953,14.6029],[-60.9953,14.6024],[-60.9918,14.6025],[-60.9953,14.6029]]]}},{"type":"Feature","properties":{"landuse":"farmland"},"geometry":{"type":"Polygon","coordinates":[[[-60.992,14.6056],[-60.993,14.6086],[-61.002,14.6039],[-60.995,14.5992],[-60.9965,14.6048],[-60.9918,14.6029],[-60.992,14.6056]]]}},{"type":"Feature","properties":{"landuse":"farmland"},"geometry":{"type":"Polygon","coordinates":[[[-60.992,14.6056],[-60.9918,14.603],[-60.9845,14.6073],[-60.9833,14.6124],[-60.9874,14.6113],[-60.9867,14.6087],[-60.993,14.6086],[-60.992,14.6056]]]}},{"type":"Feature","properties":{"landuse":"farmland"},"geometry":{"type":"Polygon","coordinates":[[[-60.9898,14.6046],[-60.9882,14.6038],[-60.9883,14.6051],[-60.9898,14.6046]]]}},{"type":"Feature","properties":{"landuse":"farmland"},"geometry":{"type":"Polygon","coordinates":[[[-60.9846,14.6027],[-60.9845,14.6073],[-60.9869,14.6054],[-60.9846,14.6027]]]}},{"type":"Feature","properties":{"landuse":"farmland"},"geometry":{"type":"Polygon","coordinates":[[[-60.9933,14.5989],[-60.9916,14.5982],[-60.9916,14.5994],[-60.9933,14.5989]]]}},{"type":"Feature","properties":{"landuse":"farmland"},"geometry":{"type":"Polygon","coordinates":[[[-60.9916,14.5982],[-60.9814,14.5956],[-60.9745,14.6],[-60.9916,14.5982]]]}},{"type":"Feature","properties":{"landuse":"green_public_spaces"},"geometry":{"type":"Polygon","coordinates":[[[-60.9099,14.6844],[-60.9093,14.6876],[-60.9111,14.685],[-60.9099,14.6844]]]}},{"type":"Feature","properties":{"landuse":"green_public_spaces"},"geometry":{"type":"Polygon","coordinates":[[[-60.8882,14.6348],[-60.8886,14.6311],[-60.8847,14.6325],[-60.8882,14.6348]]]}},{"type":"Feature","properties":{"landuse":"green_public_spaces"},"geometry":{"type":"Polygon","coordinates":[[[-60.935,14.5557],[-60.9402,14.5564],[-60.9398,14.5493],[-60.9339,14.5485],[-60.937,14.5517],[-60.9324,14.5491],[-60.935,14.5557]]]}},{"type":"Feature","properties":{"landuse":"farmland"},"geometry":{"type":"Polygon","coordinates":[[[-61.1083,14.8502],[-61.1095,14.8485],[-61.1087,14.8482],[-61.1083,14.8502]]]}},{"type":"Feature","properties":{"landuse":"farmland"},"geometry":{"type":"Polygon","coordinates":[[[-61.1152,14.8594],[-61.1141,14.8581],[-61.1137,14.8588],[-61.1152,14.8594]]]}},{"type":"Feature","properties":{"landuse":"farmland"},"geometry":{"type":"Polygon","coordinates":[[[-61.1085,14.8607],[-61.1075,14.8602],[-61.1072,14.861],[-61.1082,14.8615],[-61.1085,14.8607]]]}},{"type":"Feature","properties":{"landuse":"farmland"},"geometry":{"type":"Polygon","coordinates":[[[-61.1075,14.8573],[-61.1066,14.8569],[-61.1055,14.8591],[-61.1075,14.8573]]]}},{"type":"Feature","properties":{"landuse":"farmland"},"geometry":{"type":"Polygon","coordinates":[[[-61.1132,14.8545],[-61.1128,14.853],[-61.1122,14.854],[-61.1132,14.8545]]]}},{"type":"Feature","properties":{"landuse":"farmland"},"geometry":{"type":"Polygon","coordinates":[[[-61.1197,14.8668],[-61.1166,14.868],[-61.1192,14.8686],[-61.1197,14.8668]]]}},{"type":"Feature","properties":{"landuse":"farmland"},"geometry":{"type":"Polygon","coordinates":[[[-61.1096,14.8582],[-61.1079,14.8566],[-61.1076,14.8574],[-61.1096,14.8582]]]}},{"type":"Feature","properties":{"landuse":"farmland"},"geometry":{"type":"Polygon","coordinates":[[[-61.111,14.8616],[-61.1113,14.8607],[-61.1103,14.8614],[-61.111,14.8616]]]}},{"type":"Feature","properties":{"landuse":"farmland"},"geometry":{"type":"Polygon","coordinates":[[[-61.1127,14.8557],[-61.1132,14.8546],[-61.1118,14.8553],[-61.1127,14.8557]]]}},{"type":"Feature","properties":{"landuse":"farmland"},"geometry":{"type":"Polygon","coordinates":[[[-61.1064,14.8519],[-61.1075,14.85],[-61.1068,14.8496],[-61.1064,14.8519]]]}},{"type":"Feature","properties":{"landuse":"farmland"},"geometry":{"type":"Polygon","coordinates":[[[-61.1157,14.86],[-61.1159,14.8581],[-61.1149,14.8601],[-61.1157,14.86]]]}},{"type":"Feature","properties":{"landuse":"farmland"},"geometry":{"type":"Polygon","coordinates":[[[-61.1033,14.8628],[-61.1028,14.8612],[-61.102,14.8622],[-61.1033,14.8628]]]}},{"type":"Feature","properties":{"landuse":"farmland"},"geometry":{"type":"Polygon","coordinates":[[[-61.1166,14.8562],[-61.1153,14.8558],[-61.1162,14.8572],[-61.1166,14.8562]]]}},{"type":"Feature","properties":{"landuse":"farmland"},"geometry":{"type":"Polygon","coordinates":[[[-61.1196,14.8526],[-61.12,14.8511],[-61.1188,14.8521],[-61.1196,14.8526]]]}},{"type":"Feature","properties":{"landuse":"farmland"},"geometry":{"type":"Polygon","coordinates":[[[-61.1042,14.8555],[-61.1058,14.8538],[-61.1048,14.8533],[-61.1042,14.8555]]]}},{"type":"Feature","properties":{"landuse":"farmland"},"geometry":{"type":"Polygon","coordinates":[[[-61.1144,14.8575],[-61.1135,14.8571],[-61.1139,14.8583],[-61.1144,14.8575]]]}},{"type":"Feature","properties":{"landuse":"farmland"},"geometry":{"type":"Polygon","coordinates":[[[-61.106,14.8641],[-61.1065,14.8629],[-61.1047,14.8636],[-61.106,14.8641]]]}},{"type":"Feature","properties":{"landuse":"farmland"},"geometry":{"type":"Polygon","coordinates":[[[-61.1019,14.8622],[-61.1026,14.8612],[-61.1009,14.8606],[-61.1019,14.8622]]]}},{"type":"Feature","properties":{"landuse":"farmland"},"geometry":{"type":"Polygon","coordinates":[[[-61.1102,14.8507],[-61.1113,14.8501],[-61.1096,14.8494],[-61.1102,14.8507]]]}},{"type":"Feature","properties":{"landuse":"farmland"},"geometry":{"type":"Polygon","coordinates":[[[-61.1082,14.8586],[-61.1085,14.8578],[-61.1075,14.8574],[-61.1072,14.8582],[-61.1082,14.8586]]]}},{"type":"Feature","properties":{"landuse":"farmland"},"geometry":{"type":"Polygon","coordinates":[[[-61.113,14.8579],[-61.1134,14.8571],[-61.1117,14.8564],[-61.113,14.8579]]]}},{"type":"Feature","properties":{"landuse":"farmland"},"geometry":{"type":"Polygon","coordinates":[[[-61.1081,14.865],[-61.1086,14.8637],[-61.107,14.8645],[-61.1081,14.865]]]}},{"type":"Feature","properties":{"landuse":"farmland"},"geometry":{"type":"Polygon","coordinates":[[[-61.1075,14.86],[-61.1069,14.8589],[-61.1065,14.8596],[-61.1075,14.86]]]}},{"type":"Feature","properties":{"landuse":"farmland"},"geometry":{"type":"Polygon","coordinates":[[[-61.1128,14.8529],[-61.1133,14.8521],[-61.1123,14.8515],[-61.1128,14.8529]]]}},{"type":"Feature","properties":{"landuse":"farmland"},"geometry":{"type":"Polygon","coordinates":[[[-61.1104,14.8564],[-61.1109,14.8551],[-61.1094,14.856],[-61.1104,14.8564]]]}},{"type":"Feature","properties":{"landuse":"farmland"},"geometry":{"type":"Polygon","coordinates":[[[-61.1114,14.859],[-61.11,14.8575],[-61.1098,14.8581],[-61.1114,14.859]]]}},{"type":"Feature","properties":{"landuse":"farmland"},"geometry":{"type":"Polygon","coordinates":[[[-61.107,14.851],[-61.1076,14.8528],[-61.1093,14.8517],[-61.107,14.851]]]}},{"type":"Feature","properties":{"landuse":"farmland"},"geometry":{"type":"Polygon","coordinates":[[[-61.1122,14.8597],[-61.1134,14.8592],[-61.1126,14.8588],[-61.1122,14.8597]]]}},{"type":"Feature","properties":{"landuse":"farmland"},"geometry":{"type":"Polygon","coordinates":[[[-61.1098,14.8623],[-61.1102,14.8614],[-61.1086,14.8607],[-61.1098,14.8623]]]}},{"type":"Feature","properties":{"landuse":"farmland"},"geometry":{"type":"Polygon","coordinates":[[[-61.1051,14.8572],[-61.1055,14.8565],[-61.1044,14.856],[-61.1051,14.8572]]]}},{"type":"Feature","properties":{"landuse":"farmland"},"geometry":{"type":"Polygon","coordinates":[[[-61.1133,14.8545],[-61.115,14.8543],[-61.1138,14.8537],[-61.1133,14.8545]]]}},{"type":"Feature","properties":{"landuse":"farmland"},"geometry":{"type":"Polygon","coordinates":[[[-61.1103,14.8634],[-61.1082,14.8616],[-61.1078,14.8626],[-61.1103,14.8634]]]}},{"type":"Feature","properties":{"landuse":"farmland"},"geometry":{"type":"Polygon","coordinates":[[[-61.105,14.86],[-61.1044,14.8588],[-61.1039,14.8595],[-61.105,14.86]]]}},{"type":"Feature","properties":{"landuse":"farmland"},"geometry":{"type":"Polygon","coordinates":[[[-61.1154,14.8557],[-61.1165,14.854],[-61.1156,14.8535],[-61.1154,14.8557]]]}},{"type":"Feature","properties":{"landuse":"farmland"},"geometry":{"type":"Polygon","coordinates":[[[-61.1161,14.8572],[-61.1149,14.8567],[-61.1145,14.8574],[-61.1161,14.8572]]]}},{"type":"Feature","properties":{"landuse":"farmland"},"geometry":{"type":"Polygon","coordinates":[[[-61.1013,14.8631],[-61.1001,14.8613],[-61.0994,14.8621],[-61.1013,14.8631]]]}},{"type":"Feature","properties":{"landuse":"farmland"},"geometry":{"type":"Polygon","coordinates":[[[-61.1132,14.8642],[-61.1123,14.8637],[-61.1129,14.8649],[-61.1132,14.8642]]]}},{"type":"Feature","properties":{"landuse":"farmland"},"geometry":{"type":"Polygon","coordinates":[[[-61.1113,14.8535],[-61.1124,14.8505],[-61.1101,14.8527],[-61.1113,14.8535]]]}},{"type":"Feature","properties":{"landuse":"farmland"},"geometry":{"type":"Polygon","coordinates":[[[-61.1113,14.8629],[-61.1123,14.861],[-61.1116,14.8607],[-61.1113,14.8629]]]}},{"type":"Feature","properties":{"landuse":"farmland"},"geometry":{"type":"Polygon","coordinates":[[[-61.1075,14.8632],[-61.1066,14.8629],[-61.1061,14.8641],[-61.1075,14.8632]]]}},{"type":"Feature","properties":{"landuse":"farmland"},"geometry":{"type":"Polygon","coordinates":[[[-61.1043,14.8616],[-61.1035,14.8604],[-61.1031,14.861],[-61.1043,14.8616]]]}},{"type":"Feature","properties":{"landuse":"farmland"},"geometry":{"type":"Polygon","coordinates":[[[-61.11,14.8547],[-61.109,14.8543],[-61.1084,14.8555],[-61.11,14.8547]]]}},{"type":"Feature","properties":{"landuse":"farmland"},"geometry":{"type":"Polygon","coordinates":[[[-61.1127,14.8628],[-61.1123,14.8613],[-61.1118,14.8624],[-61.1127,14.8628]]]}},{"type":"Feature","properties":{"landuse":"farmland"},"geometry":{"type":"Polygon","coordinates":[[[-61.1166,14.8506],[-61.1154,14.8498],[-61.114,14.8506],[-61.1166,14.8506]]]}},{"type":"Feature","properties":{"landuse":"farmland"},"geometry":{"type":"Polygon","coordinates":[[[-61.1076,14.8499],[-61.1087,14.8481],[-61.1069,14.8495],[-61.1076,14.8499]]]}},{"type":"Feature","properties":{"landuse":"farmland"},"geometry":{"type":"Polygon","coordinates":[[[-61.1143,14.8629],[-61.1153,14.8604],[-61.114,14.8618],[-61.1143,14.8629]]]}},{"type":"Feature","properties":{"landuse":"farmland"},"geometry":{"type":"Polygon","coordinates":[[[-61.1064,14.8625],[-61.1075,14.8601],[-61.1054,14.8621],[-61.1064,14.8625]]]}},{"type":"Feature","properties":{"landuse":"farmland"},"geometry":{"type":"Polygon","coordinates":[[[-61.1065,14.8569],[-61.1056,14.8565],[-61.1061,14.8577],[-61.1065,14.8569]]]}},{"type":"Feature","properties":{"landuse":"farmland"},"geometry":{"type":"Polygon","coordinates":[[[-61.107,14.8558],[-61.1075,14.8549],[-61.1063,14.8555],[-61.107,14.8558]]]}},{"type":"Feature","properties":{"landuse":"farmland"},"geometry":{"type":"Polygon","coordinates":[[[-61.1088,14.8569],[-61.1093,14.856],[-61.1084,14.8556],[-61.1088,14.8569]]]}},{"type":"Feature","properties":{"landuse":"farmland"},"geometry":{"type":"Polygon","coordinates":[[[-61.1114,14.8601],[-61.1094,14.859],[-61.1091,14.8597],[-61.1114,14.8601]]]}},{"type":"Feature","properties":{"landuse":"farmland"},"geometry":{"type":"Polygon","coordinates":[[[-61.1054,14.8513],[-61.1068,14.8496],[-61.106,14.8492],[-61.1054,14.8513]]]}},{"type":"Feature","properties":{"landuse":"farmland"},"geometry":{"type":"Polygon","coordinates":[[[-61.1155,14.8588],[-61.1158,14.858],[-61.1146,14.8575],[-61.1155,14.8588]]]}},{"type":"Feature","properties":{"landuse":"farmland"},"geometry":{"type":"Polygon","coordinates":[[[-61.1176,14.8586],[-61.1176,14.8566],[-61.1168,14.8583],[-61.1176,14.8586]]]}},{"type":"Feature","properties":{"landuse":"farmland"},"geometry":{"type":"Polygon","coordinates":[[[-61.1173,14.8542],[-61.1197,14.8508],[-61.1157,14.8535],[-61.1173,14.8542]]]}},{"type":"Feature","properties":{"landuse":"farmland"},"geometry":{"type":"Polygon","coordinates":[[[-61.1067,14.8533],[-61.1048,14.8521],[-61.1058,14.8537],[-61.1067,14.8533]]]}},{"type":"Feature","properties":{"landuse":"farmland"},"geometry":{"type":"Polygon","coordinates":[[[-61.1047,14.8637],[-61.1037,14.8633],[-61.1039,14.8646],[-61.1047,14.8637]]]}},{"type":"Feature","properties":{"landuse":"farmland"},"geometry":{"type":"Polygon","coordinates":[[[-61.1166,14.8561],[-61.1174,14.8543],[-61.1155,14.8557],[-61.1166,14.8561]]]}},{"type":"Feature","properties":{"landuse":"farmland"},"geometry":{"type":"Polygon","coordinates":[[[-61.1115,14.85],[-61.11,14.8488],[-61.1097,14.8494],[-61.1115,14.85]]]}},{"type":"Feature","properties":{"landuse":"farmland"},"geometry":{"type":"Polygon","coordinates":[[[-61.1055,14.8564],[-61.1061,14.8555],[-61.1051,14.855],[-61.1055,14.8564]]]}},{"type":"Feature","properties":{"landuse":"farmland"},"geometry":{"type":"Polygon","coordinates":[[[-61.1128,14.865],[-61.1105,14.8636],[-61.112,14.8659],[-61.1128,14.865]]]}},{"type":"Feature","properties":{"landuse":"farmland"},"geometry":{"type":"Polygon","coordinates":[[[-61.1192,14.8549],[-61.1195,14.8527],[-61.1175,14.8543],[-61.1192,14.8549]]]}},{"type":"Feature","properties":{"landuse":"farmland"},"geometry":{"type":"Polygon","coordinates":[[[-61.1143,14.8527],[-61.1169,14.851],[-61.1128,14.8517],[-61.1143,14.8527]]]}},{"type":"Feature","properties":{"landuse":"farmland"},"geometry":{"type":"Polygon","coordinates":[[[-61.1125,14.8588],[-61.1129,14.858],[-61.1117,14.8575],[-61.1125,14.8588]]]}},{"type":"Feature","properties":{"landuse":"farmland"},"geometry":{"type":"Polygon","coordinates":[[[-61.1079,14.8593],[-61.1081,14.8587],[-61.1072,14.8583],[-61.1079,14.8593]]]}},{"type":"Feature","properties":{"landuse":"farmland"},"geometry":{"type":"Polygon","coordinates":[[[-61.1137,14.8535],[-61.1142,14.8527],[-61.1128,14.8529],[-61.1137,14.8535]]]}},{"type":"Feature","properties":{"landuse":"farmland"},"geometry":{"type":"Polygon","coordinates":[[[-61.11,14.8574],[-61.1094,14.856],[-61.1089,14.8569],[-61.11,14.8574]]]}},{"type":"Feature","properties":{"landuse":"farmland"},"geometry":{"type":"Polygon","coordinates":[[[-61.1168,14.8583],[-61.1172,14.8565],[-61.1159,14.858],[-61.1168,14.8583]]]}},{"type":"Feature","properties":{"landuse":"farmland"},"geometry":{"type":"Polygon","coordinates":[[[-61.1139,14.8618],[-61.1146,14.8604],[-61.1123,14.8612],[-61.1139,14.8618]]]}},{"type":"Feature","properties":{"landuse":"farmland"},"geometry":{"type":"Polygon","coordinates":[[[-61.109,14.8597],[-61.1102,14.8613],[-61.1106,14.8605],[-61.109,14.8597]]]}},{"type":"Feature","properties":{"landuse":"farmland"},"geometry":{"type":"Polygon","coordinates":[[[-61.1055,14.8591],[-61.1047,14.8579],[-61.1044,14.8586],[-61.1055,14.8591]]]}},{"type":"Feature","properties":{"landuse":"farmland"},"geometry":{"type":"Polygon","coordinates":[[[-61.115,14.8542],[-61.1143,14.8528],[-61.1138,14.8536],[-61.115,14.8542]]]}},{"type":"Feature","properties":{"landuse":"farmland"},"geometry":{"type":"Polygon","coordinates":[[[-61.1181,14.8568],[-61.117,14.8553],[-61.1167,14.8562],[-61.1181,14.8568]]]}},{"type":"Feature","properties":{"landuse":"farmland"},"geometry":{"type":"Polygon","coordinates":[[[-61.1106,14.8628],[-61.1109,14.8617],[-61.1098,14.8624],[-61.1106,14.8628]]]}},{"type":"Feature","properties":{"landuse":"farmland"},"geometry":{"type":"Polygon","coordinates":[[[-61.1148,14.8566],[-61.1133,14.8546],[-61.1128,14.8557],[-61.1148,14.8566]]]}},{"type":"Feature","properties":{"landuse":"farmland"},"geometry":{"type":"Polygon","coordinates":[[[-61.1176,14.8588],[-61.1168,14.8584],[-61.1159,14.86],[-61.1176,14.8588]]]}},{"type":"Feature","properties":{"landuse":"farmland"},"geometry":{"type":"Polygon","coordinates":[[[-61.1046,14.8635],[-61.104,14.8618],[-61.1034,14.8629],[-61.1046,14.8635]]]}},{"type":"Feature","properties":{"landuse":"farmland"},"geometry":{"type":"Polygon","coordinates":[[[-61.1144,14.8574],[-61.1148,14.8567],[-61.1116,14.8553],[-61.1144,14.8574]]]}},{"type":"Feature","properties":{"landuse":"farmland"},"geometry":{"type":"Polygon","coordinates":[[[-61.1153,14.8645],[-61.1137,14.8627],[-61.1134,14.8642],[-61.1153,14.8645]]]}},{"type":"Feature","properties":{"landuse":"farmland"},"geometry":{"type":"Polygon","coordinates":[[[-61.1114,14.8551],[-61.11,14.8529],[-61.109,14.8541],[-61.1114,14.8551]]]}},{"type":"Feature","properties":{"landuse":"farmland"},"geometry":{"type":"Polygon","coordinates":[[[-61.1124,14.8609],[-61.1129,14.86],[-61.1117,14.8596],[-61.1124,14.8609]]]}},{"type":"Feature","properties":{"landuse":"farmland"},"geometry":{"type":"Polygon","coordinates":[[[-61.1055,14.8654],[-61.1059,14.8642],[-61.1043,14.8647],[-61.1055,14.8654]]]}},{"type":"Feature","properties":{"landuse":"farmland"},"geometry":{"type":"Polygon","coordinates":[[[-61.1046,14.8608],[-61.105,14.8601],[-61.1039,14.8596],[-61.1046,14.8608]]]}},{"type":"Feature","properties":{"landuse":"farmland"},"geometry":{"type":"Polygon","coordinates":[[[-61.1089,14.8598],[-61.1092,14.8591],[-61.1082,14.8587],[-61.1089,14.8598]]]}},{"type":"Feature","properties":{"landuse":"farmland"},"geometry":{"type":"Polygon","coordinates":[[[-61.1154,14.8498],[-61.113,14.85],[-61.1139,14.8506],[-61.1154,14.8498]]]}},{"type":"Feature","properties":{"landuse":"farmland"},"geometry":{"type":"Polygon","coordinates":[[[-61.1061,14.8491],[-61.1079,14.8477],[-61.1071,14.8473],[-61.1061,14.8491]]]}},{"type":"Feature","properties":{"landuse":"farmland"},"geometry":{"type":"Polygon","coordinates":[[[-61.1152,14.8633],[-61.1158,14.8606],[-61.1144,14.863],[-61.1152,14.8633]]]}},{"type":"Feature","properties":{"landuse":"farmland"},"geometry":{"type":"Polygon","coordinates":[[[-61.1077,14.8663],[-61.1081,14.8651],[-61.1065,14.8659],[-61.1077,14.8663]]]}},{"type":"Feature","properties":{"landuse":"farmland"},"geometry":{"type":"Polygon","coordinates":[[[-61.1121,14.8539],[-61.1127,14.8529],[-61.112,14.8525],[-61.1121,14.8539]]]}},{"type":"Feature","properties":{"landuse":"farmland"},"geometry":{"type":"Polygon","coordinates":[[[-61.1114,14.8581],[-61.1103,14.8568],[-61.1101,14.8575],[-61.1114,14.8581]]]}},{"type":"Feature","properties":{"landuse":"farmland"},"geometry":{"type":"Polygon","coordinates":[[[-61.1114,14.8599],[-61.1097,14.8582],[-61.1094,14.859],[-61.1114,14.8599]]]}},{"type":"Feature","properties":{"landuse":"farmland"},"geometry":{"type":"Polygon","coordinates":[[[-61.1134,14.8591],[-61.1139,14.8583],[-61.113,14.8579],[-61.1134,14.8591]]]}},{"type":"Feature","properties":{"landuse":"farmland"},"geometry":{"type":"Polygon","coordinates":[[[-61.1075,14.863],[-61.1081,14.8615],[-61.1064,14.8626],[-61.1075,14.863]]]}},{"type":"Feature","properties":{"landuse":"farmland"},"geometry":{"type":"Polygon","coordinates":[[[-61.1045,14.8581],[-61.105,14.8573],[-61.1039,14.8568],[-61.1045,14.8581]]]}},{"type":"Feature","properties":{"landuse":"farmland"},"geometry":{"type":"Polygon","coordinates":[[[-61.1075,14.8528],[-61.1054,14.8514],[-61.1049,14.8521],[-61.1075,14.8528]]]}},{"type":"Feature","properties":{"landuse":"farmland"},"geometry":{"type":"Polygon","coordinates":[[[-61.1093,14.8591],[-61.1086,14.8578],[-61.1082,14.8586],[-61.1093,14.8591]]]}},{"type":"Feature","properties":{"landuse":"farmland"},"geometry":{"type":"Polygon","coordinates":[[[-61.1187,14.8559],[-61.1174,14.8544],[-61.1171,14.8553],[-61.1187,14.8559]]]}},{"type":"Feature","properties":{"landuse":"farmland"},"geometry":{"type":"Polygon","coordinates":[[[-61.1065,14.8568],[-61.107,14.8559],[-61.1057,14.8564],[-61.1065,14.8568]]]}},{"type":"Feature","properties":{"landuse":"farmland"},"geometry":{"type":"Polygon","coordinates":[[[-61.1133,14.8641],[-61.1127,14.8629],[-61.1123,14.8636],[-61.1133,14.8641]]]}},{"type":"Feature","properties":{"landuse":"farmland"},"geometry":{"type":"Polygon","coordinates":[[[-61.116,14.8527],[-61.1149,14.8522],[-61.1156,14.8534],[-61.116,14.8527]]]}},{"type":"Feature","properties":{"landuse":"farmland"},"geometry":{"type":"Polygon","coordinates":[[[-61.1089,14.8541],[-61.1098,14.8529],[-61.1078,14.853],[-61.1089,14.8541]]]}},{"type":"Feature","properties":{"landuse":"farmland"},"geometry":{"type":"Polygon","coordinates":[[[-61.1069,14.8646],[-61.1061,14.8643],[-61.1058,14.8661],[-61.1069,14.8646]]]}},{"type":"Feature","properties":{"landuse":"farmland"},"geometry":{"type":"Polygon","coordinates":[[[-61.1053,14.8621],[-61.1064,14.8597],[-61.1054,14.8592],[-61.1053,14.8621]]]}},{"type":"Feature","properties":{"landuse":"farmland"},"geometry":{"type":"Polygon","coordinates":[[[-61.1147,14.8603],[-61.1151,14.8595],[-61.1137,14.8589],[-61.1147,14.8603]]]}},{"type":"Feature","properties":{"landuse":"farmland"},"geometry":{"type":"Polygon","coordinates":[[[-61.1243,14.8645],[-61.1243,14.8628],[-61.1235,14.8642],[-61.1243,14.8645]]]}},{"type":"Feature","properties":{"landuse":"farmland"},"geometry":{"type":"Polygon","coordinates":[[[-61.1219,14.8608],[-61.1201,14.8599],[-61.1192,14.8615],[-61.1219,14.8608]]]}},{"type":"Feature","properties":{"landuse":"farmland"},"geometry":{"type":"Polygon","coordinates":[[[-61.1317,14.8562],[-61.1301,14.859],[-61.1308,14.8593],[-61.1317,14.8562]]]}},{"type":"Feature","properties":{"landuse":"farmland"},"geometry":{"type":"Polygon","coordinates":[[[-61.1243,14.856],[-61.1247,14.8552],[-61.123,14.8543],[-61.1243,14.856]]]}},{"type":"Feature","properties":{"landuse":"farmland"},"geometry":{"type":"Polygon","coordinates":[[[-61.128,14.8564],[-61.1294,14.8548],[-61.1287,14.8546],[-61.128,14.8564]]]}},{"type":"Feature","properties":{"landuse":"farmland"},"geometry":{"type":"Polygon","coordinates":[[[-61.12,14.8598],[-61.1207,14.8582],[-61.1185,14.8576],[-61.12,14.8598]]]}},{"type":"Feature","properties":{"landuse":"farmland"},"geometry":{"type":"Polygon","coordinates":[[[-61.1218,14.8653],[-61.1231,14.8623],[-61.1206,14.865],[-61.1218,14.8653]]]}},{"type":"Feature","properties":{"landuse":"farmland"},"geometry":{"type":"Polygon","coordinates":[[[-61.1166,14.8632],[-61.1183,14.8598],[-61.116,14.8622],[-61.1166,14.8632]]]}},{"type":"Feature","properties":{"landuse":"farmland"},"geometry":{"type":"Polygon","coordinates":[[[-61.1268,14.8637],[-61.1282,14.8618],[-61.1276,14.8616],[-61.1268,14.8637]]]}},{"type":"Feature","properties":{"landuse":"farmland"},"geometry":{"type":"Polygon","coordinates":[[[-61.1209,14.8582],[-61.1213,14.8575],[-61.1192,14.8571],[-61.1209,14.8582]]]}},{"type":"Feature","properties":{"landuse":"farmland"},"geometry":{"type":"Polygon","coordinates":[[[-61.1253,14.8607],[-61.1262,14.8583],[-61.1247,14.8606],[-61.1253,14.8607]]]}},{"type":"Feature","properties":{"landuse":"farmland"},"geometry":{"type":"Polygon","coordinates":[[[-61.1205,14.8622],[-61.1185,14.8631],[-61.1197,14.8638],[-61.1205,14.8622]]]}},{"type":"Feature","properties":{"landuse":"farmland"},"geometry":{"type":"Polygon","coordinates":[[[-61.122,14.8558],[-61.1208,14.8553],[-61.1205,14.856],[-61.122,14.8558]]]}},{"type":"Feature","properties":{"landuse":"farmland"},"geometry":{"type":"Polygon","coordinates":[[[-61.1269,14.8585],[-61.1263,14.8584],[-61.1253,14.8608],[-61.1269,14.8585]]]}},{"type":"Feature","properties":{"landuse":"farmland"},"geometry":{"type":"Polygon","coordinates":[[[-61.1277,14.8614],[-61.1284,14.8617],[-61.129,14.8603],[-61.1277,14.8614]]]}},{"type":"Feature","properties":{"landuse":"farmland"},"geometry":{"type":"Polygon","coordinates":[[[-61.1196,14.8607],[-61.1183,14.8601],[-61.1192,14.8615],[-61.1196,14.8607]]]}},{"type":"Feature","properties":{"landuse":"farmland"},"geometry":{"type":"Polygon","coordinates":[[[-61.1291,14.8603],[-61.1298,14.8589],[-61.1292,14.8587],[-61.1291,14.8603]]]}},{"type":"Feature","properties":{"landuse":"farmland"},"geometry":{"type":"Polygon","coordinates":[[[-61.1252,14.8544],[-61.1234,14.8535],[-61.1248,14.8551],[-61.1252,14.8544]]]}},{"type":"Feature","properties":{"landuse":"farmland"},"geometry":{"type":"Polygon","coordinates":[[[-61.1268,14.8546],[-61.1259,14.8534],[-61.1243,14.8565],[-61.1268,14.8546]]]}},{"type":"Feature","properties":{"landuse":"farmland"},"geometry":{"type":"Polygon","coordinates":[[[-61.1184,14.8629],[-61.1179,14.8609],[-61.1171,14.8624],[-61.1184,14.8629]]]}},{"type":"Feature","properties":{"landuse":"farmland"},"geometry":{"type":"Polygon","coordinates":[[[-61.1243,14.8561],[-61.1218,14.8567],[-61.1235,14.8575],[-61.1243,14.8561]]]}},{"type":"Feature","properties":{"landuse":"farmland"},"geometry":{"type":"Polygon","coordinates":[[[-61.1219,14.8608],[-61.1209,14.8583],[-61.1201,14.8599],[-61.1219,14.8608]]]}},{"type":"Feature","properties":{"landuse":"farmland"},"geometry":{"type":"Polygon","coordinates":[[[-61.1307,14.8559],[-61.13,14.8556],[-61.1294,14.8567],[-61.1307,14.8559]]]}},{"type":"Feature","properties":{"landuse":"farmland"},"geometry":{"type":"Polygon","coordinates":[[[-61.1274,14.8615],[-61.1268,14.8613],[-61.1259,14.8632],[-61.1274,14.8615]]]}},{"type":"Feature","properties":{"landuse":"farmland"},"geometry":{"type":"Polygon","coordinates":[[[-61.1257,14.8633],[-61.125,14.8631],[-61.1244,14.8645],[-61.1257,14.8633]]]}},{"type":"Feature","properties":{"landuse":"farmland"},"geometry":{"type":"Polygon","coordinates":[[[-61.12,14.8599],[-61.1187,14.8593],[-61.1196,14.8606],[-61.12,14.8599]]]}},{"type":"Feature","properties":{"landuse":"farmland"},"geometry":{"type":"Polygon","coordinates":[[[-61.1235,14.8576],[-61.1218,14.8567],[-61.1232,14.8584],[-61.1235,14.8576]]]}},{"type":"Feature","properties":{"landuse":"farmland"},"geometry":{"type":"Polygon","coordinates":[[[-61.1265,14.8611],[-61.1275,14.8587],[-61.126,14.861],[-61.1265,14.8611]]]}},{"type":"Feature","properties":{"landuse":"farmland"},"geometry":{"type":"Polygon","coordinates":[[[-61.1258,14.8632],[-61.1266,14.8613],[-61.1259,14.861],[-61.1258,14.8632]]]}},{"type":"Feature","properties":{"landuse":"farmland"},"geometry":{"type":"Polygon","coordinates":[[[-61.1173,14.8649],[-61.1183,14.8631],[-61.1171,14.8625],[-61.1173,14.8649]]]}},{"type":"Feature","properties":{"landuse":"farmland"},"geometry":{"type":"Polygon","coordinates":[[[-61.1217,14.8566],[-61.1202,14.8559],[-61.1213,14.8574],[-61.1217,14.8566]]]}},{"type":"Feature","properties":{"landuse":"farmland"},"geometry":{"type":"Polygon","coordinates":[[[-61.1237,14.8625],[-61.1246,14.8606],[-61.1231,14.8618],[-61.1237,14.8625]]]}},{"type":"Feature","properties":{"landuse":"farmland"},"geometry":{"type":"Polygon","coordinates":[[[-61.1212,14.8544],[-61.1204,14.854],[-61.1208,14.8552],[-61.1212,14.8544]]]}},{"type":"Feature","properties":{"landuse":"farmland"},"geometry":{"type":"Polygon","coordinates":[[[-61.1289,14.8591],[-61.1282,14.8588],[-61.1271,14.8613],[-61.1289,14.8591]]]}},{"type":"Feature","properties":{"landuse":"farmland"},"geometry":{"type":"Polygon","coordinates":[[[-61.1235,14.8594],[-61.1248,14.8569],[-61.1229,14.8591],[-61.1235,14.8594]]]}},{"type":"Feature","properties":{"landuse":"farmland"},"geometry":{"type":"Polygon","coordinates":[[[-61.1289,14.8589],[-61.1301,14.8569],[-61.128,14.8564],[-61.1289,14.8589]]]}},{"type":"Feature","properties":{"landuse":"farmland"},"geometry":{"type":"Polygon","coordinates":[[[-61.122,14.8558],[-61.1213,14.8545],[-61.1209,14.8552],[-61.122,14.8558]]]}},{"type":"Feature","properties":{"landuse":"farmland"},"geometry":{"type":"Polygon","coordinates":[[[-61.1258,14.861],[-61.1238,14.8626],[-61.125,14.8629],[-61.1258,14.861]]]}},{"type":"Feature","properties":{"landuse":"farmland"},"geometry":{"type":"Polygon","coordinates":[[[-61.1236,14.8662],[-61.1243,14.8646],[-61.1231,14.8641],[-61.1236,14.8662]]]}},{"type":"Feature","properties":{"landuse":"farmland"},"geometry":{"type":"Polygon","coordinates":[[[-61.1294,14.8567],[-61.1291,14.8554],[-61.1281,14.8564],[-61.1294,14.8567]]]}},{"type":"Feature","properties":{"landuse":"farmland"},"geometry":{"type":"Polygon","coordinates":[[[-61.1247,14.8606],[-61.1258,14.8582],[-61.1241,14.8603],[-61.1247,14.8606]]]}},{"type":"Feature","properties":{"landuse":"farmland"},"geometry":{"type":"Polygon","coordinates":[[[-61.1228,14.8591],[-61.1214,14.8575],[-61.121,14.8582],[-61.1228,14.8591]]]}},{"type":"Feature","properties":{"landuse":"farmland"},"geometry":{"type":"Polygon","coordinates":[[[-61.1278,14.8564],[-61.1263,14.8583],[-61.127,14.8584],[-61.1278,14.8564]]]}},{"type":"Feature","properties":{"landuse":"farmland"},"geometry":{"type":"Polygon","coordinates":[[[-61.13,14.8589],[-61.131,14.8556],[-61.1292,14.8586],[-61.13,14.8589]]]}},{"type":"Feature","properties":{"landuse":"farmland"},"geometry":{"type":"Polygon","coordinates":[[[-61.1232,14.8534],[-61.1216,14.8527],[-61.1229,14.8542],[-61.1232,14.8534]]]}},{"type":"Feature","properties":{"landuse":"farmland"},"geometry":{"type":"Polygon","coordinates":[[[-61.1231,14.8626],[-61.122,14.8654],[-61.1229,14.8657],[-61.1231,14.8626]]]}},{"type":"Feature","properties":{"landuse":"farmland"},"geometry":{"type":"Polygon","coordinates":[[[-61.1224,14.855],[-61.1228,14.8542],[-61.1208,14.8534],[-61.1224,14.855]]]}},{"type":"Feature","properties":{"landuse":"farmland"},"geometry":{"type":"Polygon","coordinates":[[[-61.1256,14.8536],[-61.1234,14.8535],[-61.1253,14.8544],[-61.1256,14.8536]]]}},{"type":"Feature","properties":{"landuse":"farmland"},"geometry":{"type":"Polygon","coordinates":[[[-60.9253,14.7556],[-60.9227,14.7552],[-60.9248,14.7599],[-60.9253,14.7556]]]}},{"type":"Feature","properties":{"landuse":"green_public_spaces"},"geometry":{"type":"Polygon","coordinates":[[[-61.067,14.6041],[-61.0687,14.6025],[-61.0672,14.602],[-61.067,14.6041]]]}},{"type":"Feature","properties":{"landuse":"green_public_spaces"},"geometry":{"type":"Polygon","coordinates":[[[-61.073,14.6082],[-61.0718,14.6102],[-61.0731,14.6106],[-61.073,14.6082]]]}},{"type":"Feature","properties":{"landuse":"farmland"},"geometry":{"type":"Polygon","coordinates":[[[-61.1264,14.8732],[-61.1328,14.8639],[-61.1293,14.8649],[-61.1264,14.8732]]]}},{"type":"Feature","properties":{"landuse":"farmland"},"geometry":{"type":"Polygon","coordinates":[[[-61.1336,14.8747],[-61.1316,14.8709],[-61.1271,14.8741],[-61.1336,14.8747]]]}},{"type":"Feature","properties":{"landuse":"farmland"},"geometry":{"type":"Polygon","coordinates":[[[-60.8456,14.448],[-60.8458,14.4469],[-60.8447,14.4481],[-60.8456,14.448]]]}},{"type":"Feature","properties":{"landuse":"farmland"},"geometry":{"type":"Polygon","coordinates":[[[-60.859,14.4417],[-60.8584,14.4411],[-60.8568,14.4417],[-60.859,14.4417]]]}},{"type":"Feature","properties":{"landuse":"farmland"},"geometry":{"type":"Polygon","coordinates":[[[-60.9245,14.7027],[-60.9258,14.7074],[-60.9282,14.706],[-60.9245,14.7027]]]}},{"type":"Feature","properties":{"landuse":"farmland"},"geometry":{"type":"Polygon","coordinates":[[[-60.9602,14.5377],[-60.9526,14.5402],[-60.957,14.5457],[-60.9578,14.5416],[-60.9629,14.5425],[-60.9602,14.5377]]]}},{"type":"Feature","properties":{"landuse":"farmland"},"geometry":{"type":"Polygon","coordinates":[[[-60.9675,14.5359],[-60.9608,14.5378],[-60.9601,14.5407],[-60.9634,14.5412],[-60.9675,14.5359]]]}},{"type":"Feature","properties":{"landuse":"farmland"},"geometry":{"type":"Polygon","coordinates":[[[-60.9639,14.5355],[-60.9585,14.5372],[-60.9619,14.5377],[-60.9639,14.5355]]]}},{"type":"Feature","properties":{"landuse":"farmland"},"geometry":{"type":"Polygon","coordinates":[[[-60.9653,14.5314],[-60.9644,14.531],[-60.9625,14.5316],[-60.9653,14.5314]]]}},{"type":"Feature","properties":{"landuse":"farmland"},"geometry":{"type":"Polygon","coordinates":[[[-60.9669,14.5332],[-60.9648,14.5318],[-60.9639,14.536],[-60.972,14.5361],[-60.9669,14.5332]]]}},{"type":"Feature","properties":{"landuse":"farmland"},"geometry":{"type":"Polygon","coordinates":[[[-60.9666,14.5307],[-60.9706,14.5348],[-60.9757,14.534],[-60.9666,14.5307]]]}},{"type":"Feature","properties":{"landuse":"farmland"},"geometry":{"type":"Polygon","coordinates":[[[-60.9764,14.5312],[-60.9741,14.5324],[-60.9786,14.5346],[-60.9764,14.5312]]]}},{"type":"Feature","properties":{"landuse":"farmland"},"geometry":{"type":"Polygon","coordinates":[[[-60.9763,14.5307],[-60.9706,14.527],[-60.9672,14.529],[-60.972,14.5323],[-60.9763,14.5307]]]}},{"type":"Feature","properties":{"landuse":"farmland"},"geometry":{"type":"Polygon","coordinates":[[[-60.9658,14.5292],[-60.9623,14.5281],[-60.9663,14.5305],[-60.9658,14.5292]]]}},{"type":"Feature","properties":{"landuse":"farmland"},"geometry":{"type":"Polygon","coordinates":[[[-60.9704,14.5269],[-60.9661,14.5228],[-60.9659,14.5275],[-60.9704,14.5269]]]}},{"type":"Feature","properties":{"landuse":"farmland"},"geometry":{"type":"Polygon","coordinates":[[[-60.9801,14.5461],[-60.9766,14.5462],[-60.9742,14.5509],[-60.9804,14.5511],[-60.9817,14.548],[-60.9781,14.5472],[-60.9801,14.5461]]]}},{"type":"Feature","properties":{"landuse":"farmland"},"geometry":{"type":"Polygon","coordinates":[[[-60.9882,14.5448],[-60.981,14.5452],[-60.9831,14.5472],[-60.9882,14.5448]]]}},{"type":"Feature","properties":{"landuse":"farmland"},"geometry":{"type":"Polygon","coordinates":[[[-60.9796,14.5454],[-60.9779,14.5435],[-60.9767,14.546],[-60.9796,14.5454]]]}},{"type":"Feature","properties":{"landuse":"farmland"},"geometry":{"type":"Polygon","coordinates":[[[-60.9754,14.5473],[-60.9767,14.5442],[-60.9752,14.5453],[-60.9754,14.5473]]]}},{"type":"Feature","properties":{"landuse":"farmland"},"geometry":{"type":"Polygon","coordinates":[[[-60.9758,14.5425],[-60.9739,14.5426],[-60.9736,14.545],[-60.9758,14.5425]]]}},{"type":"Feature","properties":{"landuse":"farmland"},"geometry":{"type":"Polygon","coordinates":[[[-60.9745,14.5367],[-60.9746,14.5399],[-60.9692,14.5399],[-60.9703,14.5431],[-60.9761,14.5423],[-60.9791,14.5374],[-60.9745,14.5367]]]}},{"type":"Feature","properties":{"landuse":"farmland"},"geometry":{"type":"Polygon","coordinates":[[[-60.9691,14.5398],[-60.9744,14.54],[-60.9743,14.5383],[-60.9691,14.5398]]]}},{"type":"Feature","properties":{"landuse":"farmland"},"geometry":{"type":"Polygon","coordinates":[[[-60.9722,14.5364],[-60.9677,14.5359],[-60.9681,14.5372],[-60.9722,14.5364]]]}},{"type":"Feature","properties":{"landuse":"farmland"},"geometry":{"type":"Polygon","coordinates":[[[-60.9676,14.5456],[-60.9703,14.5447],[-60.9663,14.5448],[-60.9698,14.5438],[-60.969,14.5399],[-60.9641,14.5431],[-60.9676,14.5456]]]}},{"type":"Feature","properties":{"landuse":"farmland"},"geometry":{"type":"Polygon","coordinates":[[[-60.9607,14.5439],[-60.9604,14.5467],[-60.9627,14.5457],[-60.9607,14.5439]]]}},{"type":"Feature","properties":{"landuse":"farmland"},"geometry":{"type":"Polygon","coordinates":[[[-60.961,14.544],[-60.9618,14.543],[-60.9599,14.5431],[-60.961,14.544]]]}},{"type":"Feature","properties":{"landuse":"farmland"},"geometry":{"type":"Polygon","coordinates":[[[-60.9632,14.5434],[-60.9687,14.5399],[-60.9633,14.5414],[-60.9632,14.5434]]]}},{"type":"Feature","properties":{"landuse":"green_public_spaces"},"geometry":{"type":"Polygon","coordinates":[[[-60.8977,14.6192],[-60.8947,14.6176],[-60.897,14.6197],[-60.8977,14.6192]]]}},{"type":"Feature","properties":{"landuse":"green_public_spaces"},"geometry":{"type":"Polygon","coordinates":[[[-60.9104,14.6192],[-60.9095,14.6179],[-60.9096,14.6193],[-60.9104,14.6192]]]}},{"type":"Feature","properties":{"landuse":"orchard"},"geometry":{"type":"Polygon","coordinates":[[[-61.1527,14.873],[-61.1506,14.8753],[-61.1519,14.8758],[-61.1527,14.873]]]}},{"type":"Feature","properties":{"landuse":"orchard"},"geometry":{"type":"Polygon","coordinates":[[[-61.1511,14.8772],[-61.1502,14.8755],[-61.1504,14.8773],[-61.1511,14.8772]]]}},{"type":"Feature","properties":{"landuse":"orchard"},"geometry":{"type":"Polygon","coordinates":[[[-61.1465,14.8758],[-61.1476,14.8753],[-61.1472,14.8742],[-61.1465,14.8758]]]}},{"type":"Feature","properties":{"landuse":"farmland"},"geometry":{"type":"Polygon","coordinates":[[[-60.9088,14.7623],[-60.9068,14.7607],[-60.9078,14.7626],[-60.9088,14.7623]]]}},{"type":"Feature","properties":{"landuse":"orchard"},"geometry":{"type":"Polygon","coordinates":[[[-60.9803,14.649],[-60.9818,14.6514],[-60.9821,14.6509],[-60.9803,14.649]]]}},{"type":"Feature","properties":{"landuse":"farmland"},"geometry":{"type":"Polygon","coordinates":[[[-60.9871,14.6559],[-60.9862,14.6565],[-60.9868,14.6586],[-60.9871,14.6559]]]}},{"type":"Feature","properties":{"landuse":"orchard"},"geometry":{"type":"Polygon","coordinates":[[[-60.9856,14.6583],[-60.986,14.656],[-60.9848,14.656],[-60.9856,14.6583]]]}},{"type":"Feature","properties":{"landuse":"orchard"},"geometry":{"type":"Polygon","coordinates":[[[-60.9782,14.6508],[-60.9779,14.6491],[-60.9775,14.6506],[-60.9782,14.6508]]]}},{"type":"Feature","properties":{"landuse":"orchard"},"geometry":{"type":"Polygon","coordinates":[[[-60.9814,14.652],[-60.9818,14.6516],[-60.9803,14.6492],[-60.9814,14.652]]]}},{"type":"Feature","properties":{"landuse":"orchard"},"geometry":{"type":"Polygon","coordinates":[[[-60.9777,14.6484],[-60.9789,14.6473],[-60.9773,14.6473],[-60.9777,14.6484]]]}},{"type":"Feature","properties":{"landuse":"orchard"},"geometry":{"type":"Polygon","coordinates":[[[-60.9771,14.6464],[-60.9773,14.6473],[-60.9785,14.6472],[-60.9771,14.6464]]]}},{"type":"Feature","properties":{"landuse":"orchard"},"geometry":{"type":"Polygon","coordinates":[[[-60.9801,14.6516],[-60.9796,14.6505],[-60.9785,14.6508],[-60.9801,14.6516]]]}},{"type":"Feature","properties":{"landuse":"farmland"},"geometry":{"type":"Polygon","coordinates":[[[-60.9874,14.5923],[-60.985,14.5923],[-60.986,14.5954],[-60.9874,14.5923]]]}},{"type":"Feature","properties":{"landuse":"farmland"},"geometry":{"type":"Polygon","coordinates":[[[-60.9879,14.5898],[-60.987,14.5886],[-60.9839,14.5925],[-60.9879,14.5898]]]}},{"type":"Feature","properties":{"landuse":"farmland"},"geometry":{"type":"Polygon","coordinates":[[[-60.8715,14.4337],[-60.8736,14.4322],[-60.8716,14.4323],[-60.8715,14.4337]]]}},{"type":"Feature","properties":{"landuse":"farmland"},"geometry":{"type":"Polygon","coordinates":[[[-60.8528,14.5526],[-60.8551,14.5499],[-60.8532,14.548],[-60.847,14.5515],[-60.8478,14.5574],[-60.8523,14.5576],[-60.8533,14.5547],[-60.85,14.5546],[-60.8528,14.5526]]]}},{"type":"Feature","properties":{"landuse":"farmland"},"geometry":{"type":"Polygon","coordinates":[[[-60.8539,14.5579],[-60.8476,14.5575],[-60.8499,14.5596],[-60.8539,14.5579]]]}},{"type":"Feature","properties":{"landuse":"farmland"},"geometry":{"type":"Polygon","coordinates":[[[-60.8462,14.5529],[-60.841,14.5521],[-60.8407,14.5572],[-60.8468,14.5565],[-60.8462,14.5529]]]}},{"type":"Feature","properties":{"landuse":"farmland"},"geometry":{"type":"Polygon","coordinates":[[[-60.8471,14.557],[-60.8367,14.5582],[-60.8404,14.5594],[-60.8471,14.557]]]}},{"type":"Feature","properties":{"landuse":"farmland"},"geometry":{"type":"Polygon","coordinates":[[[-60.8502,14.5463],[-60.8506,14.5431],[-60.844,14.5444],[-60.8442,14.547],[-60.8502,14.5463]]]}},{"type":"Feature","properties":{"landuse":"farmland"},"geometry":{"type":"Polygon","coordinates":[[[-60.8399,14.5175],[-60.8334,14.5179],[-60.8357,14.5193],[-60.8337,14.5247],[-60.8391,14.5277],[-60.8375,14.519],[-60.8399,14.5175]]]}},{"type":"Feature","properties":{"landuse":"farmland"},"geometry":{"type":"Polygon","coordinates":[[[-60.8441,14.5249],[-60.8391,14.5198],[-60.8378,14.5225],[-60.8441,14.5249]]]}},{"type":"Feature","properties":{"landuse":"farmland"},"geometry":{"type":"Polygon","coordinates":[[[-60.8353,14.5298],[-60.8373,14.5294],[-60.8361,14.5274],[-60.8353,14.5298]]]}},{"type":"Feature","properties":{"landuse":"farmland"},"geometry":{"type":"Polygon","coordinates":[[[-60.8631,14.5526],[-60.8575,14.5427],[-60.8454,14.5497],[-60.8467,14.5522],[-60.8599,14.5466],[-60.859,14.5493],[-60.8631,14.5526]]]}},{"type":"Feature","properties":{"landuse":"farmland"},"geometry":{"type":"Polygon","coordinates":[[[-60.8456,14.5381],[-60.8439,14.5383],[-60.8453,14.5389],[-60.8456,14.5381]]]}},{"type":"Feature","properties":{"landuse":"green_public_spaces"},"geometry":{"type":"Polygon","coordinates":[[[-60.9068,14.6017],[-60.9045,14.601],[-60.9058,14.6035],[-60.9068,14.6017]]]}},{"type":"Feature","properties":{"landuse":"farmland"},"geometry":{"type":"Polygon","coordinates":[[[-60.9864,14.6177],[-60.9845,14.6127],[-60.9819,14.6136],[-60.9808,14.6168],[-60.9864,14.6177]]]}},{"type":"Feature","properties":{"landuse":"green_public_spaces"},"geometry":{"type":"Polygon","coordinates":[[[-61.1365,14.79],[-61.1367,14.7888],[-61.1349,14.7888],[-61.1365,14.79]]]}},{"type":"Feature","properties":{"landuse":"green_public_spaces"},"geometry":{"type":"Polygon","coordinates":[[[-61.0993,14.6317],[-61.0999,14.6299],[-61.098,14.6296],[-61.0993,14.6317]]]}},{"type":"Feature","properties":{"landuse":"farmland"},"geometry":{"type":"Polygon","coordinates":[[[-60.9154,14.6004],[-60.9126,14.5959],[-60.9097,14.5999],[-60.9109,14.6024],[-60.9154,14.6004]]]}},{"type":"Feature","properties":{"landuse":"farmland"},"geometry":{"type":"Polygon","coordinates":[[[-60.9199,14.6036],[-60.9158,14.6013],[-60.9125,14.604],[-60.9091,14.6095],[-60.9115,14.615],[-60.921,14.6123],[-60.9199,14.6036]]]}},{"type":"Feature","properties":{"landuse":"farmland"},"geometry":{"type":"Polygon","coordinates":[[[-60.9133,14.5959],[-60.903,14.5981],[-60.9101,14.6032],[-60.9133,14.5959]]]}},{"type":"Feature","properties":{"landuse":"farmland"},"geometry":{"type":"Polygon","coordinates":[[[-60.9043,14.5995],[-60.8967,14.6091],[-60.8983,14.6122],[-60.9029,14.6109],[-60.9027,14.6136],[-60.9095,14.6068],[-60.9043,14.5995]]]}},{"type":"Feature","properties":{"landuse":"farmland"},"geometry":{"type":"Polygon","coordinates":[[[-60.8984,14.6127],[-60.897,14.6122],[-60.8964,14.6144],[-60.8984,14.6127]]]}},{"type":"Feature","properties":{"landuse":"farmland"},"geometry":{"type":"Polygon","coordinates":[[[-60.8953,14.6145],[-60.8917,14.612],[-60.8906,14.6178],[-60.8954,14.6169],[-60.8953,14.6145]]]}},{"type":"Feature","properties":{"landuse":"farmland"},"geometry":{"type":"Polygon","coordinates":[[[-60.9287,14.629],[-60.9278,14.6222],[-60.9342,14.6265],[-60.9357,14.6242],[-60.9293,14.6198],[-60.9349,14.6161],[-60.9243,14.6124],[-60.9102,14.6162],[-60.9131,14.621],[-60.9201,14.6193],[-60.9193,14.6252],[-60.9232,14.6266],[-60.9229,14.6242],[-60.9271,14.6309],[-60.9287,14.629]]]}},{"type":"Feature","properties":{"landuse":"farmland"},"geometry":{"type":"Polygon","coordinates":[[[-60.9183,14.6239],[-60.9144,14.6201],[-60.9163,14.6247],[-60.9183,14.6239]]]}},{"type":"Feature","properties":{"landuse":"farmland"},"geometry":{"type":"Polygon","coordinates":[[[-60.9079,14.5042],[-60.9052,14.5002],[-60.9053,14.5031],[-60.9079,14.5042]]]}},{"type":"Feature","properties":{"landuse":"farmland"},"geometry":{"type":"Polygon","coordinates":[[[-60.905,14.5025],[-60.9032,14.5001],[-60.9008,14.5005],[-60.905,14.5025]]]}},{"type":"Feature","properties":{"landuse":"farmland"},"geometry":{"type":"Polygon","coordinates":[[[-60.9047,14.5104],[-60.9061,14.5081],[-60.9035,14.5091],[-60.9047,14.5104]]]}},{"type":"Feature","properties":{"landuse":"farmland"},"geometry":{"type":"Polygon","coordinates":[[[-60.9047,14.5074],[-60.9007,14.5057],[-60.901,14.5084],[-60.9047,14.5074]]]}},{"type":"Feature","properties":{"landuse":"farmland"},"geometry":{"type":"Polygon","coordinates":[[[-60.9416,14.4679],[-60.9411,14.4665],[-60.9407,14.4683],[-60.9416,14.4679]]]}},{"type":"Feature","properties":{"landuse":"farmland"},"geometry":{"type":"Polygon","coordinates":[[[-60.9086,14.6425],[-60.907,14.6358],[-60.9032,14.6368],[-60.9059,14.6453],[-60.9086,14.6425]]]}},{"type":"Feature","properties":{"landuse":"farmland"},"geometry":{"type":"Polygon","coordinates":[[[-61.0148,14.7893],[-61.0138,14.7838],[-61.0075,14.7829],[-61.0111,14.7864],[-61.0055,14.7844],[-61.0078,14.781],[-61.006,14.7787],[-61.0039,14.7807],[-61.0048,14.7773],[-60.9993,14.7748],[-61.0004,14.785],[-60.9986,14.7839],[-61.0026,14.7846],[-61.0032,14.7881],[-60.9993,14.7899],[-61.0002,14.7931],[-61.0148,14.7893]]]}},{"type":"Feature","properties":{"landuse":"farmland"},"geometry":{"type":"Polygon","coordinates":[[[-60.9976,14.7765],[-60.9984,14.7743],[-60.9938,14.7717],[-60.9976,14.7765]]]}},{"type":"Feature","properties":{"landuse":"farmland"},"geometry":{"type":"Polygon","coordinates":[[[-61.0003,14.7716],[-60.995,14.7684],[-60.9968,14.7713],[-61.0003,14.7716]]]}},{"type":"Feature","properties":{"landuse":"farmland"},"geometry":{"type":"Polygon","coordinates":[[[-61.0114,14.7786],[-61.0102,14.7761],[-61.0041,14.7765],[-61.0114,14.7786]]]}},{"type":"Feature","properties":{"landuse":"farmland"},"geometry":{"type":"Polygon","coordinates":[[[-60.9907,14.6452],[-60.9904,14.6417],[-60.986,14.6426],[-60.9907,14.6452]]]}},{"type":"Feature","properties":{"landuse":"farmland"},"geometry":{"type":"Polygon","coordinates":[[[-60.9834,14.6253],[-60.9803,14.6255],[-60.9793,14.6379],[-60.9844,14.6435],[-60.977,14.6399],[-60.9793,14.6419],[-60.977,14.6451],[-60.9819,14.6486],[-60.9808,14.6445],[-60.9877,14.6449],[-60.9817,14.6347],[-60.9853,14.6281],[-60.9834,14.6253]]]}},{"type":"Feature","properties":{"landuse":"farmland"},"geometry":{"type":"Polygon","coordinates":[[[-60.9864,14.6186],[-60.9804,14.6188],[-60.9803,14.625],[-60.9849,14.6247],[-60.9864,14.6186]]]}},{"type":"Feature","properties":{"landuse":"farmland"},"geometry":{"type":"Polygon","coordinates":[[[-60.9799,14.6287],[-60.9805,14.6275],[-60.9798,14.6254],[-60.9799,14.6287]]]}},{"type":"Feature","properties":{"landuse":"farmland"},"geometry":{"type":"Polygon","coordinates":[[[-60.9785,14.6224],[-60.9694,14.6205],[-60.9641,14.6247],[-60.9703,14.6312],[-60.9734,14.6281],[-60.9731,14.6395],[-60.9774,14.6338],[-60.9742,14.623],[-60.9785,14.6224]]]}},{"type":"Feature","properties":{"landuse":"farmland"},"geometry":{"type":"Polygon","coordinates":[[[-61.006,14.6215],[-61.0049,14.6191],[-61.0019,14.6189],[-61.006,14.6215]]]}},{"type":"Feature","properties":{"landuse":"farmland"},"geometry":{"type":"Polygon","coordinates":[[[-61.0064,14.6228],[-61.0022,14.6205],[-61.0017,14.6286],[-61.007,14.6291],[-61.0064,14.6228]]]}},{"type":"Feature","properties":{"landuse":"farmland"},"geometry":{"type":"Polygon","coordinates":[[[-61.0014,14.6278],[-60.9981,14.6305],[-60.9969,14.6442],[-60.9961,14.642],[-60.9905,14.6461],[-60.9898,14.6499],[-60.9945,14.6483],[-60.9971,14.6617],[-61.0022,14.6629],[-61.0011,14.6668],[-61.006,14.669],[-61.0085,14.6599],[-61.0034,14.6544],[-61.0059,14.6435],[-61.003,14.6463],[-61.0006,14.6427],[-61.0036,14.6419],[-61.0008,14.6391],[-61.0054,14.639],[-61.0014,14.6278]]]}},{"type":"Feature","properties":{"landuse":"farmland"},"geometry":{"type":"Polygon","coordinates":[[[-61.0079,14.6216],[-61.0079,14.618],[-61.0057,14.6196],[-61.0079,14.6216]]]}},{"type":"Feature","properties":{"landuse":"farmland"},"geometry":{"type":"Polygon","coordinates":[[[-60.9811,14.6411],[-60.9799,14.6288],[-60.9774,14.6379],[-60.9811,14.6411]]]}},{"type":"Feature","properties":{"landuse":"greenhouse_horticulture"},"geometry":{"type":"Polygon","coordinates":[[[-60.9893,14.6509],[-60.9893,14.6535],[-60.9911,14.6516],[-60.9893,14.6509]]]}},{"type":"Feature","properties":{"landuse":"farmland"},"geometry":{"type":"Polygon","coordinates":[[[-61.1104,14.8523],[-61.111,14.8515],[-61.1096,14.852],[-61.1104,14.8523]]]}},{"type":"Feature","properties":{"landuse":"farmland"},"geometry":{"type":"Polygon","coordinates":[[[-61.1278,14.8119],[-61.1294,14.8103],[-61.1239,14.8118],[-61.1278,14.8119]]]}},{"type":"Feature","properties":{"landuse":"farmland"},"geometry":{"type":"Polygon","coordinates":[[[-61.1258,14.8152],[-61.1284,14.8144],[-61.1262,14.8133],[-61.1258,14.8152]]]}},{"type":"Feature","properties":{"landuse":"farmland"},"geometry":{"type":"Polygon","coordinates":[[[-61.0827,14.8287],[-61.0853,14.8259],[-61.0828,14.8257],[-61.0827,14.8287]]]}},{"type":"Feature","properties":{"landuse":"farmland"},"geometry":{"type":"Polygon","coordinates":[[[-61.1479,14.7617],[-61.1485,14.7597],[-61.1451,14.7619],[-61.1479,14.7617]]]}},{"type":"Feature","properties":{"landuse":"farmland"},"geometry":{"type":"Polygon","coordinates":[[[-61.142,14.7631],[-61.1445,14.7623],[-61.1428,14.7622],[-61.142,14.7631]]]}},{"type":"Feature","properties":{"landuse":"farmland"},"geometry":{"type":"Polygon","coordinates":[[[-61.023,14.7704],[-61.0163,14.7706],[-61.0108,14.7747],[-61.0186,14.7765],[-61.023,14.7704]]]}},{"type":"Feature","properties":{"landuse":"farmland"},"geometry":{"type":"Polygon","coordinates":[[[-61.1435,14.7643],[-61.1431,14.766],[-61.1494,14.7648],[-61.1435,14.7643]]]}},{"type":"Feature","properties":{"landuse":"farmland"},"geometry":{"type":"Polygon","coordinates":[[[-61.1258,14.8027],[-61.1252,14.8016],[-61.1234,14.8023],[-61.1258,14.8027]]]}},{"type":"Feature","properties":{"landuse":"farmland"},"geometry":{"type":"Polygon","coordinates":[[[-61.1075,14.8572],[-61.1079,14.8564],[-61.1066,14.8568],[-61.1075,14.8572]]]}},{"type":"Feature","properties":{"landuse":"farmland"},"geometry":{"type":"Polygon","coordinates":[[[-61.1037,14.8528],[-61.1033,14.8512],[-61.1024,14.8541],[-61.1037,14.8528]]]}},{"type":"Feature","properties":{"landuse":"farmland"},"geometry":{"type":"Polygon","coordinates":[[[-60.9271,14.5744],[-60.9242,14.575],[-60.9278,14.5751],[-60.9271,14.5744]]]}},{"type":"Feature","properties":{"landuse":"farmland"},"geometry":{"type":"Polygon","coordinates":[[[-61.1528,14.7047],[-61.1522,14.7039],[-61.1509,14.7045],[-61.1528,14.7047]]]}},{"type":"Feature","properties":{"landuse":"farmland"},"geometry":{"type":"Polygon","coordinates":[[[-61.161,14.7104],[-61.163,14.7083],[-61.1605,14.7089],[-61.161,14.7104]]]}},{"type":"Feature","properties":{"landuse":"green_public_spaces"},"geometry":{"type":"Polygon","coordinates":[[[-61.047,14.5333],[-61.0455,14.5322],[-61.0456,14.5339],[-61.047,14.5333]]]}},{"type":"Feature","properties":{"landuse":"green_public_spaces"},"geometry":{"type":"Polygon","coordinates":[[[-60.8741,14.4827],[-60.8725,14.4836],[-60.8749,14.4836],[-60.8741,14.4827]]]}},{"type":"Feature","properties":{"landuse":"farmland"},"geometry":{"type":"Polygon","coordinates":[[[-60.8751,14.4838],[-60.871,14.4885],[-60.8749,14.4864],[-60.8751,14.4838]]]}},{"type":"Feature","properties":{"landuse":"green_public_spaces"},"geometry":{"type":"Polygon","coordinates":[[[-60.9946,14.6163],[-60.9941,14.6148],[-60.9938,14.6164],[-60.9946,14.6163]]]}},{"type":"Feature","properties":{"landuse":"farmland"},"geometry":{"type":"Polygon","coordinates":[[[-60.9884,14.6933],[-60.9892,14.6916],[-60.9875,14.6935],[-60.9884,14.6933]]]}},{"type":"Feature","properties":{"landuse":"farmland"},"geometry":{"type":"Polygon","coordinates":[[[-60.9904,14.6921],[-60.989,14.692],[-60.9886,14.6932],[-60.9904,14.6921]]]}},{"type":"Feature","properties":{"landuse":"farmland"},"geometry":{"type":"Polygon","coordinates":[[[-60.991,14.6922],[-60.9889,14.6932],[-60.9902,14.6933],[-60.991,14.6922]]]}},{"type":"Feature","properties":{"landuse":"farmland"},"geometry":{"type":"Polygon","coordinates":[[[-61.1137,14.8131],[-61.1129,14.8119],[-61.1059,14.8122],[-61.1137,14.8131]]]}},{"type":"Feature","properties":{"landuse":"orchard"},"geometry":{"type":"Polygon","coordinates":[[[-61.1197,14.8106],[-61.1168,14.8094],[-61.1159,14.8116],[-61.1197,14.8106]]]}},{"type":"Feature","properties":{"landuse":"orchard"},"geometry":{"type":"Polygon","coordinates":[[[-61.1216,14.8159],[-61.1222,14.8137],[-61.1132,14.8122],[-61.1216,14.8159]]]}},{"type":"Feature","properties":{"landuse":"orchard"},"geometry":{"type":"Polygon","coordinates":[[[-61.1314,14.8133],[-61.1303,14.8122],[-61.1282,14.8131],[-61.1314,14.8133]]]}},{"type":"Feature","properties":{"landuse":"orchard"},"geometry":{"type":"Polygon","coordinates":[[[-61.1257,14.8151],[-61.1231,14.8133],[-61.122,14.8155],[-61.1257,14.8151]]]}},{"type":"Feature","properties":{"landuse":"greenhouse_horticulture"},"geometry":{"type":"Polygon","coordinates":[[[-61.142,14.8512],[-61.1415,14.85],[-61.1397,14.8498],[-61.142,14.8512]]]}},{"type":"Feature","properties":{"landuse":"green_public_spaces"},"geometry":{"type":"Polygon","coordinates":[[[-61.069,14.6409],[-61.0686,14.6436],[-61.0699,14.6454],[-61.069,14.6409]]]}}]}