{"type":"FeatureCollection","features":[{"type":"Feature","properties":{"landuse":"farmland"},"geometry":{"type":"Polygon","coordinates":[[[-61.7397,16.0076],[-61.7338,16.0056],[-61.7291,16.0087],[-61.7337,16.0118],[-61.7397,16.0076]],[[-61.7361,16.0088],[-61.7335,16.0103],[-61.732,16.0098],[-61.7361,16.0088]],[[-61.738,16.0077],[-61.7359,16.0069],[-61.7371,16.0061],[-61.738,16.0077]]]}},{"type":"Feature","properties":{"landuse":"farmland"},"geometry":{"type":"Polygon","coordinates":[[[-61.7214,16.039],[-61.7338,16.0316],[-61.7275,16.0275],[-61.7216,16.029],[-61.7214,16.039]],[[-61.7251,16.0324],[-61.7241,16.0337],[-61.7232,16.0311],[-61.7251,16.0324]]]}},{"type":"Feature","properties":{"landuse":"farmland"},"geometry":{"type":"Polygon","coordinates":[[[-61.7252,16.005],[-61.7174,16.012],[-61.7183,16.0154],[-61.7294,16.0097],[-61.7256,16.0092],[-61.728,16.0079],[-61.7252,16.005]],[[-61.7246,16.0083],[-61.7239,16.009],[-61.7245,16.0074],[-61.7246,16.0083]]]}},{"type":"Feature","properties":{"landuse":"farmland"},"geometry":{"type":"Polygon","coordinates":[[[-61.7494,16.0399],[-61.7498,16.0367],[-61.7458,16.039],[-61.7494,16.0399]],[[-61.7485,16.0382],[-61.7481,16.0393],[-61.7479,16.0385],[-61.7485,16.0382]]]}},{"type":"Feature","properties":{"landuse":"farmland"},"geometry":{"type":"Polygon","coordinates":[[[-61.5807,16.2738],[-61.5771,16.2726],[-61.5782,16.275],[-61.5807,16.2738]]]}},{"type":"Feature","properties":{"landuse":"farmland"},"geometry":{"type":"Polygon","coordinates":[[[-61.5769,16.2747],[-61.5708,16.2722],[-61.5706,16.2745],[-61.5769,16.2747]]]}},{"type":"Feature","properties":{"landuse":"farmland"},"geometry":{"type":"Polygon","coordinates":[[[-61.5568,16.268],[-61.5595,16.2654],[-61.5556,16.2635],[-61.5531,16.2677],[-61.5568,16.268]],[[-61.5563,16.2661],[-61.5551,16.2671],[-61.5557,16.2655],[-61.5563,16.2661]]]}},{"type":"Feature","properties":{"landuse":"orchard"},"geometry":{"type":"Polygon","coordinates":[[[-61.5826,16.1427],[-61.5863,16.144],[-61.5879,16.1405],[-61.5826,16.1427]]]}},{"type":"Feature","properties":{"landuse":"orchard"},"geometry":{"type":"Polygon","coordinates":[[[-61.5675,16.1029],[-61.5659,16.1064],[-61.5676,16.1065],[-61.5675,16.1029]],[[-61.5659,16.1036],[-61.5661,16.1034],[-61.5662,16.1036],[-61.5659,16.1036]]]}},{"type":"Feature","properties":{"landuse":"farmland"},"geometry":{"type":"Polygon","coordinates":[[[-61.5782,16.1032],[-61.5794,16.1019],[-61.576,16.1016],[-61.5782,16.1032]],[[-61.5788,16.1025],[-61.5785,16.1022],[-61.5789,16.1021],[-61.5788,16.1025]]]}},{"type":"Feature","properties":{"landuse":"green_public_spaces"},"geometry":{"type":"Polygon","coordinates":[[[-61.7245,15.9974],[-61.7236,15.9968],[-61.7231,15.9978],[-61.7245,15.9974]]]}},{"type":"Feature","properties":{"landuse":"farmland"},"geometry":{"type":"Polygon","coordinates":[[[-61.5724,16.031],[-61.5763,16.0411],[-61.5792,16.0412],[-61.5835,16.0308],[-61.5748,16.0251],[-61.5724,16.031]]]}},{"type":"Feature","properties":{"landuse":"green_public_spaces"},"geometry":{"type":"Polygon","coordinates":[[[-61.727,15.9946],[-61.7265,15.994],[-61.7257,15.9947],[-61.727,15.9946]]]}},{"type":"Feature","properties":{"landuse":"farmland"},"geometry":{"type":"Polygon","coordinates":[[[-61.731,16.0114],[-61.7278,16.0105],[-61.7262,16.0123],[-61.731,16.0114]]]}},{"type":"Feature","properties":{"landuse":"farmland"},"geometry":{"type":"Polygon","coordinates":[[[-61.7222,16.3471],[-61.7265,16.3443],[-61.7255,16.333],[-61.7223,16.3417],[-61.7179,16.3435],[-61.7194,16.3462],[-61.721,16.3434],[-61.7222,16.3471]]]}},{"type":"Feature","properties":{"landuse":"farmland"},"geometry":{"type":"Polygon","coordinates":[[[-61.5844,16.2642],[-61.5847,16.261],[-61.5786,16.2612],[-61.5787,16.2648],[-61.5844,16.2642]]]}},{"type":"Feature","properties":{"landuse":"farmland"},"geometry":{"type":"Polygon","coordinates":[[[-61.317,16.3257],[-61.3141,16.3236],[-61.3137,16.3257],[-61.317,16.3257]]]}},{"type":"Feature","properties":{"landuse":"green_public_spaces"},"geometry":{"type":"Polygon","coordinates":[[[-61.3258,16.3325],[-61.3313,16.3334],[-61.33,16.3324],[-61.3258,16.3325]]]}},{"type":"Feature","properties":{"landuse":"green_public_spaces"},"geometry":{"type":"Polygon","coordinates":[[[-61.7103,15.9906],[-61.7099,15.9896],[-61.7096,15.9908],[-61.7103,15.9906]]]}},{"type":"Feature","properties":{"landuse":"green_public_spaces"},"geometry":{"type":"Polygon","coordinates":[[[-61.571,16.0304],[-61.572,16.0298],[-61.5728,16.0278],[-61.571,16.0304]]]}},{"type":"Feature","properties":{"landuse":"farmland"},"geometry":{"type":"Polygon","coordinates":[[[-61.5693,16.0524],[-61.5717,16.0504],[-61.5664,16.0485],[-61.5663,16.0517],[-61.5693,16.0524]]]}},{"type":"Feature","properties":{"landuse":"farmland"},"geometry":{"type":"Polygon","coordinates":[[[-61.5686,16.053],[-61.5672,16.0525],[-61.5679,16.0536],[-61.5686,16.053]]]}},{"type":"Feature","properties":{"landuse":"farmland"},"geometry":{"type":"Polygon","coordinates":[[[-61.6018,16.032],[-61.6044,16.031],[-61.594,16.0217],[-61.5893,16.0126],[-61.5768,16.0232],[-61.5856,16.0295],[-61.6018,16.032]]]}},{"type":"Feature","properties":{"landuse":"farmland"},"geometry":{"type":"Polygon","coordinates":[[[-63.0845,18.0544],[-63.0831,18.0549],[-63.084,18.0568],[-63.0845,18.0544]]]}},{"type":"Feature","properties":{"landuse":"green_public_spaces"},"geometry":{"type":"Polygon","coordinates":[[[-61.3374,16.3326],[-61.3392,16.3329],[-61.3391,16.331],[-61.3374,16.3326]]]}},{"type":"Feature","properties":{"landuse":"orchard"},"geometry":{"type":"Polygon","coordinates":[[[-61.6489,15.9955],[-61.6426,15.9887],[-61.6432,15.9925],[-61.6489,15.9955]]]}},{"type":"Feature","properties":{"landuse":"farmland"},"geometry":{"type":"Polygon","coordinates":[[[-61.6322,16.2781],[-61.6326,16.277],[-61.6317,16.2767],[-61.6322,16.2781]]]}},{"type":"Feature","properties":{"landuse":"farmland"},"geometry":{"type":"Polygon","coordinates":[[[-61.634,16.2798],[-61.6306,16.2784],[-61.6308,16.2803],[-61.634,16.2798]]]}},{"type":"Feature","properties":{"landuse":"farmland"},"geometry":{"type":"Polygon","coordinates":[[[-61.6342,16.2807],[-61.6354,16.2777],[-61.6338,16.278],[-61.6342,16.2807]]]}},{"type":"Feature","properties":{"landuse":"orchard"},"geometry":{"type":"Polygon","coordinates":[[[-61.6863,16.0095],[-61.6886,16.009],[-61.6869,16.0037],[-61.6863,16.0095]]]}},{"type":"Feature","properties":{"landuse":"green_public_spaces"},"geometry":{"type":"Polygon","coordinates":[[[-61.5378,16.2432],[-61.5364,16.2435],[-61.5352,16.245],[-61.5378,16.2432]]]}},{"type":"Feature","properties":{"landuse":"green_public_spaces"},"geometry":{"type":"Polygon","coordinates":[[[-61.336,16.3331],[-61.3316,16.3321],[-61.3313,16.3334],[-61.336,16.3331]]]}},{"type":"Feature","properties":{"landuse":"green_public_spaces"},"geometry":{"type":"Polygon","coordinates":[[[-61.3256,16.3325],[-61.3257,16.332],[-61.3222,16.3307],[-61.3256,16.3325]]]}},{"type":"Feature","properties":{"landuse":"green_public_spaces"},"geometry":{"type":"Polygon","coordinates":[[[-61.6372,16.2671],[-61.6362,16.2674],[-61.6371,16.2683],[-61.6372,16.2671]]]}},{"type":"Feature","properties":{"landuse":"green_public_spaces"},"geometry":{"type":"Polygon","coordinates":[[[-61.6343,16.2704],[-61.6346,16.2688],[-61.6333,16.2703],[-61.6343,16.2704]]]}},{"type":"Feature","properties":{"landuse":"farmland"},"geometry":{"type":"Polygon","coordinates":[[[-61.6006,16.1802],[-61.6014,16.1787],[-61.6001,16.1783],[-61.6006,16.1802]]]}},{"type":"Feature","properties":{"landuse":"farmland"},"geometry":{"type":"Polygon","coordinates":[[[-61.5877,16.1801],[-61.5883,16.183],[-61.591,16.1826],[-61.5877,16.1801]]]}},{"type":"Feature","properties":{"landuse":"farmland"},"geometry":{"type":"Polygon","coordinates":[[[-61.3307,16.3061],[-61.33,16.3098],[-61.3399,16.3083],[-61.3363,16.3017],[-61.3317,16.3023],[-61.3307,16.3061]]]}},{"type":"Feature","properties":{"landuse":"orchard"},"geometry":{"type":"Polygon","coordinates":[[[-61.732,16.03],[-61.732,16.0288],[-61.7304,16.0287],[-61.732,16.03]]]}},{"type":"Feature","properties":{"landuse":"orchard"},"geometry":{"type":"Polygon","coordinates":[[[-61.7251,16.0324],[-61.7232,16.0309],[-61.7238,16.0335],[-61.7251,16.0324]]]}},{"type":"Feature","properties":{"landuse":"farmland"},"geometry":{"type":"Polygon","coordinates":[[[-61.7332,16.0172],[-61.7306,16.0146],[-61.725,16.0169],[-61.7155,16.0274],[-61.723,16.0206],[-61.7332,16.0172]]]}},{"type":"Feature","properties":{"landuse":"orchard"},"geometry":{"type":"Polygon","coordinates":[[[-61.7301,16.0256],[-61.728,16.0268],[-61.7286,16.0298],[-61.7301,16.0256]]]}},{"type":"Feature","properties":{"landuse":"farmland"},"geometry":{"type":"Polygon","coordinates":[[[-61.6592,16.281],[-61.6555,16.2808],[-61.6551,16.2907],[-61.6583,16.2889],[-61.6592,16.281]]]}},{"type":"Feature","properties":{"landuse":"farmland"},"geometry":{"type":"Polygon","coordinates":[[[-61.6496,16.3052],[-61.6507,16.3018],[-61.6469,16.3027],[-61.6496,16.3052]]]}},{"type":"Feature","properties":{"landuse":"farmland"},"geometry":{"type":"Polygon","coordinates":[[[-61.6492,16.2934],[-61.6467,16.2915],[-61.6487,16.281],[-61.6428,16.2815],[-61.6433,16.289],[-61.6492,16.2934]]]}},{"type":"Feature","properties":{"landuse":"farmland"},"geometry":{"type":"Polygon","coordinates":[[[-61.6506,16.2952],[-61.6534,16.2898],[-61.648,16.2872],[-61.6467,16.2915],[-61.6506,16.2952]]]}},{"type":"Feature","properties":{"landuse":"farmland"},"geometry":{"type":"Polygon","coordinates":[[[-61.6366,16.2889],[-61.6384,16.2836],[-61.6342,16.281],[-61.6366,16.2889]]]}},{"type":"Feature","properties":{"landuse":"farmland"},"geometry":{"type":"Polygon","coordinates":[[[-61.596,16.0392],[-61.5947,16.0389],[-61.5951,16.0401],[-61.596,16.0392]]]}},{"type":"Feature","properties":{"landuse":"green_public_spaces"},"geometry":{"type":"Polygon","coordinates":[[[-61.5382,16.2433],[-61.5381,16.246],[-61.5393,16.2436],[-61.5382,16.2433]]]}},{"type":"Feature","properties":{"landuse":"farmland"},"geometry":{"type":"Polygon","coordinates":[[[-61.5913,16.2303],[-61.5919,16.2252],[-61.5993,16.217],[-61.595,16.2131],[-61.5945,16.2186],[-61.5901,16.2185],[-61.5891,16.2282],[-61.5913,16.2303]]]}},{"type":"Feature","properties":{"landuse":"farmland"},"geometry":{"type":"Polygon","coordinates":[[[-61.5985,16.0324],[-61.5912,16.0324],[-61.5936,16.0353],[-61.5971,16.0328],[-61.5975,16.036],[-61.5985,16.0324]]]}},{"type":"Feature","properties":{"landuse":"green_public_spaces"},"geometry":{"type":"Polygon","coordinates":[[[-61.5942,16.1909],[-61.5939,16.192],[-61.5953,16.1914],[-61.5942,16.1909]]]}},{"type":"Feature","properties":{"landuse":"green_public_spaces"},"geometry":{"type":"Polygon","coordinates":[[[-61.357,16.3348],[-61.3559,16.3334],[-61.3556,16.3343],[-61.357,16.3348]]]}},{"type":"Feature","properties":{"landuse":"green_public_spaces"},"geometry":{"type":"Polygon","coordinates":[[[-61.6093,16.2028],[-61.6096,16.2003],[-61.6087,16.1998],[-61.6093,16.2028]]]}},{"type":"Feature","properties":{"landuse":"farmland"},"geometry":{"type":"Polygon","coordinates":[[[-61.5014,16.2939],[-61.5025,16.292],[-61.4999,16.2921],[-61.5014,16.2939]]]}},{"type":"Feature","properties":{"landuse":"farmland"},"geometry":{"type":"Polygon","coordinates":[[[-61.3283,16.3023],[-61.3398,16.3013],[-61.3382,16.2954],[-61.3325,16.2956],[-61.3273,16.2994],[-61.3283,16.3023]]]}},{"type":"Feature","properties":{"landuse":"farmland"},"geometry":{"type":"Polygon","coordinates":[[[-61.7096,16.3263],[-61.7108,16.3229],[-61.7074,16.3261],[-61.7096,16.3263]]]}},{"type":"Feature","properties":{"landuse":"farmland"},"geometry":{"type":"Polygon","coordinates":[[[-61.6031,16.2177],[-61.6006,16.2162],[-61.6011,16.2179],[-61.6031,16.2177]]]}},{"type":"Feature","properties":{"landuse":"farmland"},"geometry":{"type":"Polygon","coordinates":[[[-61.6159,16.212],[-61.6138,16.2113],[-61.6128,16.2127],[-61.6159,16.212]]]}},{"type":"Feature","properties":{"landuse":"orchard"},"geometry":{"type":"Polygon","coordinates":[[[-61.6096,16.2127],[-61.6091,16.2148],[-61.6123,16.2115],[-61.6096,16.2127]]]}},{"type":"Feature","properties":{"landuse":"farmland"},"geometry":{"type":"Polygon","coordinates":[[[-61.6065,16.2163],[-61.6076,16.2141],[-61.6066,16.2143],[-61.6065,16.2163]]]}},{"type":"Feature","properties":{"landuse":"farmland"},"geometry":{"type":"Polygon","coordinates":[[[-61.6089,16.2139],[-61.6077,16.2141],[-61.6091,16.215],[-61.6089,16.2139]]]}},{"type":"Feature","properties":{"landuse":"farmland"},"geometry":{"type":"Polygon","coordinates":[[[-61.6143,16.211],[-61.6131,16.2088],[-61.6128,16.2099],[-61.6143,16.211]]]}},{"type":"Feature","properties":{"landuse":"farmland"},"geometry":{"type":"Polygon","coordinates":[[[-61.6128,16.2101],[-61.6126,16.211],[-61.6142,16.2113],[-61.6128,16.2101]]]}},{"type":"Feature","properties":{"landuse":"farmland"},"geometry":{"type":"Polygon","coordinates":[[[-61.7019,15.9929],[-61.6996,15.9912],[-61.7007,15.993],[-61.7019,15.9929]]]}},{"type":"Feature","properties":{"landuse":"farmland"},"geometry":{"type":"Polygon","coordinates":[[[-61.6127,16.2012],[-61.6124,16.1977],[-61.611,16.1978],[-61.6127,16.2012]]]}},{"type":"Feature","properties":{"landuse":"farmland"},"geometry":{"type":"Polygon","coordinates":[[[-61.6113,16.2001],[-61.611,16.1978],[-61.6102,16.2003],[-61.6113,16.2001]]]}},{"type":"Feature","properties":{"landuse":"farmland"},"geometry":{"type":"Polygon","coordinates":[[[-61.6131,16.201],[-61.6145,16.1992],[-61.6131,16.1991],[-61.6131,16.201]]]}},{"type":"Feature","properties":{"landuse":"farmland"},"geometry":{"type":"Polygon","coordinates":[[[-61.6152,16.2],[-61.6163,16.1985],[-61.6146,16.1981],[-61.6152,16.2]]]}},{"type":"Feature","properties":{"landuse":"farmland"},"geometry":{"type":"Polygon","coordinates":[[[-61.7062,16.0086],[-61.7055,16.0073],[-61.7049,16.0077],[-61.7062,16.0086]]]}},{"type":"Feature","properties":{"landuse":"farmland"},"geometry":{"type":"Polygon","coordinates":[[[-61.6951,16.0175],[-61.6958,16.0166],[-61.6943,16.0151],[-61.6951,16.0175]]]}},{"type":"Feature","properties":{"landuse":"farmland"},"geometry":{"type":"Polygon","coordinates":[[[-61.3289,16.3269],[-61.3271,16.3246],[-61.3275,16.3271],[-61.3289,16.3269]]]}},{"type":"Feature","properties":{"landuse":"farmland"},"geometry":{"type":"Polygon","coordinates":[[[-61.6562,16.2773],[-61.6571,16.2737],[-61.6552,16.2776],[-61.6562,16.2773]]]}},{"type":"Feature","properties":{"landuse":"farmland"},"geometry":{"type":"Polygon","coordinates":[[[-61.6586,16.281],[-61.6587,16.2799],[-61.6569,16.2801],[-61.6586,16.281]]]}},{"type":"Feature","properties":{"landuse":"farmland"},"geometry":{"type":"Polygon","coordinates":[[[-61.6423,16.2882],[-61.6422,16.2862],[-61.6413,16.287],[-61.6423,16.2882]]]}},{"type":"Feature","properties":{"landuse":"green_public_spaces"},"geometry":{"type":"Polygon","coordinates":[[[-61.5474,16.25],[-61.5477,16.2494],[-61.5418,16.2443],[-61.5474,16.25]]]}},{"type":"Feature","properties":{"landuse":"farmland"},"geometry":{"type":"Polygon","coordinates":[[[-61.3598,16.3143],[-61.3595,16.3124],[-61.3568,16.3129],[-61.3598,16.3143]]]}},{"type":"Feature","properties":{"landuse":"farmland"},"geometry":{"type":"Polygon","coordinates":[[[-61.5115,16.4126],[-61.5137,16.4122],[-61.5112,16.4109],[-61.5115,16.4126]]]}},{"type":"Feature","properties":{"landuse":"farmland"},"geometry":{"type":"Polygon","coordinates":[[[-61.5133,16.4099],[-61.513,16.4084],[-61.5107,16.4079],[-61.5133,16.4099]]]}},{"type":"Feature","properties":{"landuse":"farmland"},"geometry":{"type":"Polygon","coordinates":[[[-61.5133,16.4105],[-61.5106,16.4079],[-61.5111,16.4107],[-61.5133,16.4105]]]}},{"type":"Feature","properties":{"landuse":"farmland"},"geometry":{"type":"Polygon","coordinates":[[[-61.514,16.4122],[-61.5159,16.412],[-61.5155,16.41],[-61.514,16.4122]]]}},{"type":"Feature","properties":{"landuse":"farmland"},"geometry":{"type":"Polygon","coordinates":[[[-61.5145,16.4098],[-61.5137,16.4083],[-61.5137,16.4099],[-61.5145,16.4098]]]}},{"type":"Feature","properties":{"landuse":"farmland"},"geometry":{"type":"Polygon","coordinates":[[[-61.5123,16.4079],[-61.5101,16.4035],[-61.5065,16.4048],[-61.5123,16.4079]]]}},{"type":"Feature","properties":{"landuse":"farmland"},"geometry":{"type":"Polygon","coordinates":[[[-61.5064,16.4047],[-61.5101,16.4029],[-61.5075,16.4013],[-61.5064,16.4047]]]}},{"type":"Feature","properties":{"landuse":"farmland"},"geometry":{"type":"Polygon","coordinates":[[[-61.5205,16.4171],[-61.5203,16.415],[-61.5186,16.4167],[-61.5205,16.4171]]]}},{"type":"Feature","properties":{"landuse":"farmland"},"geometry":{"type":"Polygon","coordinates":[[[-61.5121,16.415],[-61.5094,16.4115],[-61.5091,16.4151],[-61.5121,16.415]]]}},{"type":"Feature","properties":{"landuse":"farmland"},"geometry":{"type":"Polygon","coordinates":[[[-61.5101,16.4095],[-61.5083,16.407],[-61.508,16.4086],[-61.5101,16.4095]]]}},{"type":"Feature","properties":{"landuse":"farmland"},"geometry":{"type":"Polygon","coordinates":[[[-61.5062,16.4099],[-61.503,16.4109],[-61.5056,16.4147],[-61.5092,16.4131],[-61.5062,16.4099]]]}},{"type":"Feature","properties":{"landuse":"farmland"},"geometry":{"type":"Polygon","coordinates":[[[-61.5068,16.4059],[-61.5021,16.4067],[-61.5067,16.4091],[-61.5068,16.4059]]]}},{"type":"Feature","properties":{"landuse":"farmland"},"geometry":{"type":"Polygon","coordinates":[[[-61.6876,16.0005],[-61.6825,15.9965],[-61.6847,16.0027],[-61.6876,16.0005]]]}},{"type":"Feature","properties":{"landuse":"green_public_spaces"},"geometry":{"type":"Polygon","coordinates":[[[-61.7264,16.0053],[-61.7268,16.0067],[-61.7276,16.006],[-61.7264,16.0053]]]}},{"type":"Feature","properties":{"landuse":"farmland"},"geometry":{"type":"Polygon","coordinates":[[[-61.6537,16.2802],[-61.6525,16.2789],[-61.6525,16.2808],[-61.6537,16.2802]]]}},{"type":"Feature","properties":{"landuse":"farmland"},"geometry":{"type":"Polygon","coordinates":[[[-61.6492,16.2873],[-61.6506,16.2851],[-61.6485,16.2848],[-61.6492,16.2873]]]}},{"type":"Feature","properties":{"landuse":"farmland"},"geometry":{"type":"Polygon","coordinates":[[[-61.5187,16.4174],[-61.518,16.4199],[-61.5196,16.4196],[-61.5187,16.4174]]]}},{"type":"Feature","properties":{"landuse":"farmland"},"geometry":{"type":"Polygon","coordinates":[[[-61.5025,16.4063],[-61.5042,16.4069],[-61.5049,16.4055],[-61.5025,16.4063]]]}},{"type":"Feature","properties":{"landuse":"farmland"},"geometry":{"type":"Polygon","coordinates":[[[-61.5179,16.4115],[-61.516,16.4099],[-61.516,16.4118],[-61.5179,16.4115]]]}},{"type":"Feature","properties":{"landuse":"farmland"},"geometry":{"type":"Polygon","coordinates":[[[-61.514,16.4218],[-61.5126,16.4168],[-61.5104,16.4202],[-61.514,16.4218]]]}},{"type":"Feature","properties":{"landuse":"farmland"},"geometry":{"type":"Polygon","coordinates":[[[-61.5127,16.4286],[-61.514,16.422],[-61.509,16.4218],[-61.5062,16.4244],[-61.5127,16.4286]]]}},{"type":"Feature","properties":{"landuse":"farmland"},"geometry":{"type":"Polygon","coordinates":[[[-61.5044,16.4091],[-61.5016,16.4088],[-61.5018,16.4118],[-61.5044,16.4091]]]}},{"type":"Feature","properties":{"landuse":"green_public_spaces"},"geometry":{"type":"Polygon","coordinates":[[[-61.6428,15.9695],[-61.6413,15.9696],[-61.6413,15.9705],[-61.6428,15.9695]]]}},{"type":"Feature","properties":{"landuse":"farmland"},"geometry":{"type":"Polygon","coordinates":[[[-61.6569,16.2777],[-61.6547,16.278],[-61.6564,16.2797],[-61.6569,16.2777]]]}},{"type":"Feature","properties":{"landuse":"farmland"},"geometry":{"type":"Polygon","coordinates":[[[-61.6538,16.2802],[-61.655,16.2804],[-61.6526,16.2777],[-61.6538,16.2802]]]}},{"type":"Feature","properties":{"landuse":"farmland"},"geometry":{"type":"Polygon","coordinates":[[[-61.6487,16.2806],[-61.6465,16.2797],[-61.6477,16.2824],[-61.6487,16.2806]]]}},{"type":"Feature","properties":{"landuse":"farmland"},"geometry":{"type":"Polygon","coordinates":[[[-61.6451,16.286],[-61.6454,16.2849],[-61.6426,16.2841],[-61.6451,16.286]]]}},{"type":"Feature","properties":{"landuse":"farmland"},"geometry":{"type":"Polygon","coordinates":[[[-61.6464,16.282],[-61.6422,16.2811],[-61.6462,16.2829],[-61.6464,16.282]]]}},{"type":"Feature","properties":{"landuse":"farmland"},"geometry":{"type":"Polygon","coordinates":[[[-61.6554,16.2768],[-61.6567,16.2733],[-61.6551,16.272],[-61.6554,16.2768]]]}},{"type":"Feature","properties":{"landuse":"farmland"},"geometry":{"type":"Polygon","coordinates":[[[-61.6536,16.2771],[-61.6536,16.2741],[-61.6517,16.2776],[-61.6536,16.2771]]]}},{"type":"Feature","properties":{"landuse":"farmland"},"geometry":{"type":"Polygon","coordinates":[[[-61.6869,16.3137],[-61.689,16.3126],[-61.6878,16.3121],[-61.6869,16.3137]]]}},{"type":"Feature","properties":{"landuse":"farmland"},"geometry":{"type":"Polygon","coordinates":[[[-61.689,16.3126],[-61.6917,16.3126],[-61.6909,16.3114],[-61.689,16.3126]]]}},{"type":"Feature","properties":{"landuse":"farmland"},"geometry":{"type":"Polygon","coordinates":[[[-61.6911,16.3136],[-61.689,16.3126],[-61.689,16.3135],[-61.6911,16.3136]]]}},{"type":"Feature","properties":{"landuse":"farmland"},"geometry":{"type":"Polygon","coordinates":[[[-61.6911,16.3136],[-61.6891,16.3135],[-61.6902,16.3143],[-61.6911,16.3136]]]}},{"type":"Feature","properties":{"landuse":"farmland"},"geometry":{"type":"Polygon","coordinates":[[[-61.691,16.3149],[-61.6918,16.3143],[-61.6902,16.3143],[-61.691,16.3149]]]}},{"type":"Feature","properties":{"landuse":"farmland"},"geometry":{"type":"Polygon","coordinates":[[[-61.689,16.3112],[-61.6902,16.3106],[-61.6892,16.3093],[-61.689,16.3112]]]}},{"type":"Feature","properties":{"landuse":"farmland"},"geometry":{"type":"Polygon","coordinates":[[[-61.6888,16.3108],[-61.6886,16.31],[-61.6871,16.3118],[-61.6888,16.3108]]]}},{"type":"Feature","properties":{"landuse":"farmland"},"geometry":{"type":"Polygon","coordinates":[[[-61.6953,16.308],[-61.6948,16.3069],[-61.6932,16.3082],[-61.6953,16.308]]]}},{"type":"Feature","properties":{"landuse":"farmland"},"geometry":{"type":"Polygon","coordinates":[[[-61.578,16.2776],[-61.5818,16.2744],[-61.5782,16.2755],[-61.578,16.2776]]]}},{"type":"Feature","properties":{"landuse":"farmland"},"geometry":{"type":"Polygon","coordinates":[[[-61.5923,16.248],[-61.5918,16.2414],[-61.5888,16.2422],[-61.5896,16.2486],[-61.5923,16.248]]]}},{"type":"Feature","properties":{"landuse":"farmland"},"geometry":{"type":"Polygon","coordinates":[[[-61.5984,16.1846],[-61.5955,16.182],[-61.5952,16.1841],[-61.5984,16.1846]]]}},{"type":"Feature","properties":{"landuse":"farmland"},"geometry":{"type":"Polygon","coordinates":[[[-61.6018,16.1843],[-61.6017,16.1832],[-61.5996,16.1844],[-61.6018,16.1843]]]}},{"type":"Feature","properties":{"landuse":"farmland"},"geometry":{"type":"Polygon","coordinates":[[[-61.33,15.9431],[-61.3283,15.9423],[-61.328,15.9443],[-61.33,15.9431]]]}},{"type":"Feature","properties":{"landuse":"farmland"},"geometry":{"type":"Polygon","coordinates":[[[-61.3177,15.95],[-61.3182,15.9487],[-61.3159,15.9515],[-61.3177,15.95]]]}},{"type":"Feature","properties":{"landuse":"farmland"},"geometry":{"type":"Polygon","coordinates":[[[-61.3141,15.951],[-61.3163,15.9499],[-61.3144,15.9501],[-61.3141,15.951]]]}},{"type":"Feature","properties":{"landuse":"farmland"},"geometry":{"type":"Polygon","coordinates":[[[-61.3156,15.9499],[-61.3156,15.9483],[-61.3132,15.9485],[-61.3156,15.9499]]]}},{"type":"Feature","properties":{"landuse":"farmland"},"geometry":{"type":"Polygon","coordinates":[[[-61.3136,15.9464],[-61.3152,15.9462],[-61.3127,15.9452],[-61.3136,15.9464]]]}},{"type":"Feature","properties":{"landuse":"farmland"},"geometry":{"type":"Polygon","coordinates":[[[-61.3117,15.9398],[-61.3081,15.9404],[-61.3119,15.9406],[-61.3117,15.9398]]]}},{"type":"Feature","properties":{"landuse":"farmland"},"geometry":{"type":"Polygon","coordinates":[[[-61.3088,15.9433],[-61.3088,15.9441],[-61.3099,15.944],[-61.3088,15.9433]]]}},{"type":"Feature","properties":{"landuse":"farmland"},"geometry":{"type":"Polygon","coordinates":[[[-61.3117,15.946],[-61.3089,15.9465],[-61.3093,15.947],[-61.3117,15.946]]]}},{"type":"Feature","properties":{"landuse":"farmland"},"geometry":{"type":"Polygon","coordinates":[[[-61.3092,15.9483],[-61.3088,15.9465],[-61.3075,15.9484],[-61.3092,15.9483]]]}},{"type":"Feature","properties":{"landuse":"farmland"},"geometry":{"type":"Polygon","coordinates":[[[-61.332,15.9198],[-61.333,15.9215],[-61.3329,15.9198],[-61.332,15.9198]]]}},{"type":"Feature","properties":{"landuse":"farmland"},"geometry":{"type":"Polygon","coordinates":[[[-61.3322,15.9191],[-61.3319,15.9172],[-61.3309,15.9182],[-61.3322,15.9191]]]}},{"type":"Feature","properties":{"landuse":"farmland"},"geometry":{"type":"Polygon","coordinates":[[[-61.3119,15.9366],[-61.3122,15.9356],[-61.3106,15.9353],[-61.3119,15.9366]]]}},{"type":"Feature","properties":{"landuse":"farmland"},"geometry":{"type":"Polygon","coordinates":[[[-61.3123,15.9286],[-61.3118,15.93],[-61.3127,15.9299],[-61.3123,15.9286]]]}},{"type":"Feature","properties":{"landuse":"farmland"},"geometry":{"type":"Polygon","coordinates":[[[-61.3141,15.9347],[-61.3144,15.9325],[-61.3125,15.9343],[-61.3141,15.9347]]]}},{"type":"Feature","properties":{"landuse":"farmland"},"geometry":{"type":"Polygon","coordinates":[[[-61.3157,15.9585],[-61.3175,15.9599],[-61.3179,15.9585],[-61.3157,15.9585]]]}},{"type":"Feature","properties":{"landuse":"farmland"},"geometry":{"type":"Polygon","coordinates":[[[-61.313,15.9517],[-61.3134,15.9507],[-61.3113,15.9509],[-61.313,15.9517]]]}},{"type":"Feature","properties":{"landuse":"farmland"},"geometry":{"type":"Polygon","coordinates":[[[-61.3278,15.916],[-61.3265,15.9164],[-61.3271,15.9179],[-61.3278,15.916]]]}},{"type":"Feature","properties":{"landuse":"farmland"},"geometry":{"type":"Polygon","coordinates":[[[-61.3285,15.918],[-61.3293,15.918],[-61.3296,15.9168],[-61.3288,15.9167],[-61.3285,15.918]]]}},{"type":"Feature","properties":{"landuse":"farmland"},"geometry":{"type":"Polygon","coordinates":[[[-61.6246,16.1863],[-61.6226,16.1904],[-61.6256,16.1887],[-61.6246,16.1863]]]}},{"type":"Feature","properties":{"landuse":"orchard"},"geometry":{"type":"Polygon","coordinates":[[[-61.6162,16.1928],[-61.6151,16.1942],[-61.6165,16.1937],[-61.6162,16.1928]]]}},{"type":"Feature","properties":{"landuse":"farmland"},"geometry":{"type":"Polygon","coordinates":[[[-61.3156,15.9264],[-61.3157,15.9302],[-61.3172,15.9298],[-61.3156,15.9264]]]}},{"type":"Feature","properties":{"landuse":"farmland"},"geometry":{"type":"Polygon","coordinates":[[[-61.3165,15.9268],[-61.3169,15.928],[-61.3185,15.9273],[-61.3165,15.9268]]]}},{"type":"Feature","properties":{"landuse":"farmland"},"geometry":{"type":"Polygon","coordinates":[[[-61.3164,15.9243],[-61.315,15.9257],[-61.317,15.9256],[-61.3164,15.9243]]]}},{"type":"Feature","properties":{"landuse":"farmland"},"geometry":{"type":"Polygon","coordinates":[[[-61.3166,15.9231],[-61.3164,15.9223],[-61.3142,15.9227],[-61.3166,15.9231]]]}},{"type":"Feature","properties":{"landuse":"farmland"},"geometry":{"type":"Polygon","coordinates":[[[-61.3213,15.922],[-61.322,15.9245],[-61.3237,15.9237],[-61.3213,15.922]]]}},{"type":"Feature","properties":{"landuse":"farmland"},"geometry":{"type":"Polygon","coordinates":[[[-61.3243,15.9253],[-61.3228,15.927],[-61.3241,15.9268],[-61.3243,15.9253]]]}},{"type":"Feature","properties":{"landuse":"farmland"},"geometry":{"type":"Polygon","coordinates":[[[-61.3186,15.9265],[-61.3207,15.9273],[-61.3205,15.9261],[-61.3186,15.9265]]]}},{"type":"Feature","properties":{"landuse":"farmland"},"geometry":{"type":"Polygon","coordinates":[[[-61.3208,15.9274],[-61.3187,15.9278],[-61.3212,15.9288],[-61.3208,15.9274]]]}},{"type":"Feature","properties":{"landuse":"farmland"},"geometry":{"type":"Polygon","coordinates":[[[-61.3225,15.9271],[-61.3208,15.9274],[-61.3213,15.9288],[-61.3225,15.9271]]]}},{"type":"Feature","properties":{"landuse":"farmland"},"geometry":{"type":"Polygon","coordinates":[[[-61.3208,15.9273],[-61.3219,15.9272],[-61.3209,15.926],[-61.3208,15.9273]]]}},{"type":"Feature","properties":{"landuse":"farmland"},"geometry":{"type":"Polygon","coordinates":[[[-61.3219,15.9272],[-61.3226,15.9261],[-61.3217,15.9256],[-61.3219,15.9272]]]}},{"type":"Feature","properties":{"landuse":"farmland"},"geometry":{"type":"Polygon","coordinates":[[[-61.3186,15.9278],[-61.3172,15.9287],[-61.319,15.929],[-61.3186,15.9278]]]}},{"type":"Feature","properties":{"landuse":"farmland"},"geometry":{"type":"Polygon","coordinates":[[[-61.3255,15.9267],[-61.3248,15.9269],[-61.3254,15.9282],[-61.3255,15.9267]]]}},{"type":"Feature","properties":{"landuse":"farmland"},"geometry":{"type":"Polygon","coordinates":[[[-61.3115,15.9313],[-61.3098,15.9317],[-61.3117,15.9327],[-61.3115,15.9313]]]}},{"type":"Feature","properties":{"landuse":"farmland"},"geometry":{"type":"Polygon","coordinates":[[[-61.3101,15.9337],[-61.3087,15.9335],[-61.3092,15.9347],[-61.3101,15.9337]]]}},{"type":"Feature","properties":{"landuse":"farmland"},"geometry":{"type":"Polygon","coordinates":[[[-61.3123,15.9285],[-61.3131,15.9275],[-61.3113,15.9259],[-61.3123,15.9285]]]}},{"type":"Feature","properties":{"landuse":"farmland"},"geometry":{"type":"Polygon","coordinates":[[[-61.3141,15.9251],[-61.3132,15.9254],[-61.3139,15.9267],[-61.3141,15.9251]]]}},{"type":"Feature","properties":{"landuse":"farmland"},"geometry":{"type":"Polygon","coordinates":[[[-61.3238,15.9237],[-61.325,15.9218],[-61.3237,15.9218],[-61.3238,15.9237]]]}},{"type":"Feature","properties":{"landuse":"farmland"},"geometry":{"type":"Polygon","coordinates":[[[-61.3238,15.9189],[-61.3241,15.9156],[-61.3225,15.9167],[-61.3238,15.9189]]]}},{"type":"Feature","properties":{"landuse":"farmland"},"geometry":{"type":"Polygon","coordinates":[[[-61.3285,15.9184],[-61.3273,15.9185],[-61.3273,15.9194],[-61.3285,15.9184]]]}},{"type":"Feature","properties":{"landuse":"farmland"},"geometry":{"type":"Polygon","coordinates":[[[-61.3328,15.928],[-61.3335,15.9238],[-61.3314,15.9241],[-61.3328,15.928]]]}},{"type":"Feature","properties":{"landuse":"farmland"},"geometry":{"type":"Polygon","coordinates":[[[-61.3276,15.9226],[-61.3278,15.9205],[-61.3259,15.9222],[-61.3276,15.9226]]]}},{"type":"Feature","properties":{"landuse":"farmland"},"geometry":{"type":"Polygon","coordinates":[[[-61.3258,15.9221],[-61.3264,15.9192],[-61.3255,15.92],[-61.3258,15.9221]]]}},{"type":"Feature","properties":{"landuse":"farmland"},"geometry":{"type":"Polygon","coordinates":[[[-61.6188,16.1805],[-61.6164,16.18],[-61.6167,16.1814],[-61.6188,16.1805]]]}},{"type":"Feature","properties":{"landuse":"farmland"},"geometry":{"type":"Polygon","coordinates":[[[-61.6113,16.195],[-61.6101,16.1944],[-61.6101,16.1956],[-61.6113,16.195]]]}},{"type":"Feature","properties":{"landuse":"farmland"},"geometry":{"type":"Polygon","coordinates":[[[-61.3604,16.3196],[-61.3604,16.3181],[-61.3586,16.3185],[-61.3604,16.3196]]]}},{"type":"Feature","properties":{"landuse":"farmland"},"geometry":{"type":"Polygon","coordinates":[[[-61.6056,16.1694],[-61.6044,16.1681],[-61.6043,16.1697],[-61.6056,16.1694]]]}},{"type":"Feature","properties":{"landuse":"farmland"},"geometry":{"type":"Polygon","coordinates":[[[-61.6039,16.2162],[-61.6042,16.215],[-61.6027,16.2148],[-61.6039,16.2162]]]}},{"type":"Feature","properties":{"landuse":"farmland"},"geometry":{"type":"Polygon","coordinates":[[[-61.6011,16.2161],[-61.6028,16.2162],[-61.6018,16.2142],[-61.6011,16.2161]]]}},{"type":"Feature","properties":{"landuse":"farmland"},"geometry":{"type":"Polygon","coordinates":[[[-61.6064,16.2145],[-61.6058,16.213],[-61.6052,16.2143],[-61.6064,16.2145]]]}},{"type":"Feature","properties":{"landuse":"orchard"},"geometry":{"type":"Polygon","coordinates":[[[-61.5783,16.1298],[-61.5796,16.1303],[-61.5794,16.1295],[-61.5783,16.1298]]]}},{"type":"Feature","properties":{"landuse":"farmland"},"geometry":{"type":"Polygon","coordinates":[[[-61.2757,16.271],[-61.2693,16.2744],[-61.2704,16.2786],[-61.2756,16.278],[-61.2757,16.271]]]}},{"type":"Feature","properties":{"landuse":"farmland"},"geometry":{"type":"Polygon","coordinates":[[[-61.5025,16.292],[-61.4972,16.2902],[-61.4968,16.2937],[-61.5025,16.292]]]}},{"type":"Feature","properties":{"landuse":"farmland"},"geometry":{"type":"Polygon","coordinates":[[[-61.5032,16.2907],[-61.5039,16.2891],[-61.4983,16.2892],[-61.5032,16.2907]]]}},{"type":"Feature","properties":{"landuse":"farmland"},"geometry":{"type":"Polygon","coordinates":[[[-61.3011,16.2503],[-61.3011,16.2523],[-61.303,16.252],[-61.3011,16.2503]]]}},{"type":"Feature","properties":{"landuse":"farmland"},"geometry":{"type":"Polygon","coordinates":[[[-61.2853,16.2559],[-61.2828,16.2551],[-61.2828,16.2564],[-61.2853,16.2559]]]}},{"type":"Feature","properties":{"landuse":"farmland"},"geometry":{"type":"Polygon","coordinates":[[[-61.2938,16.2796],[-61.2922,16.2744],[-61.2978,16.2747],[-61.2947,16.269],[-61.2855,16.2702],[-61.2874,16.2815],[-61.2938,16.2796]]]}},{"type":"Feature","properties":{"landuse":"farmland"},"geometry":{"type":"Polygon","coordinates":[[[-61.2822,16.2631],[-61.2767,16.2644],[-61.2771,16.2667],[-61.2822,16.2631]]]}},{"type":"Feature","properties":{"landuse":"farmland"},"geometry":{"type":"Polygon","coordinates":[[[-61.277,16.2677],[-61.2762,16.2655],[-61.2721,16.2669],[-61.277,16.2677]]]}},{"type":"Feature","properties":{"landuse":"farmland"},"geometry":{"type":"Polygon","coordinates":[[[-61.2744,16.2703],[-61.2679,16.2691],[-61.2695,16.2711],[-61.2744,16.2703]]]}},{"type":"Feature","properties":{"landuse":"farmland"},"geometry":{"type":"Polygon","coordinates":[[[-61.2682,16.2703],[-61.2671,16.2667],[-61.2616,16.2678],[-61.2612,16.2702],[-61.2682,16.2703]]]}},{"type":"Feature","properties":{"landuse":"farmland"},"geometry":{"type":"Polygon","coordinates":[[[-61.2851,16.2768],[-61.279,16.2703],[-61.2747,16.2746],[-61.2851,16.2768]]]}},{"type":"Feature","properties":{"landuse":"farmland"},"geometry":{"type":"Polygon","coordinates":[[[-61.3158,16.3051],[-61.315,16.3037],[-61.3149,16.3047],[-61.3158,16.3051]]]}},{"type":"Feature","properties":{"landuse":"farmland"},"geometry":{"type":"Polygon","coordinates":[[[-61.3192,16.3003],[-61.3168,16.2999],[-61.3181,16.3022],[-61.3192,16.3003]]]}},{"type":"Feature","properties":{"landuse":"farmland"},"geometry":{"type":"Polygon","coordinates":[[[-61.3179,16.3044],[-61.3199,16.3028],[-61.3165,16.3033],[-61.3179,16.3044]]]}},{"type":"Feature","properties":{"landuse":"farmland"},"geometry":{"type":"Polygon","coordinates":[[[-61.3181,16.3061],[-61.3156,16.3059],[-61.3204,16.3107],[-61.3181,16.3061]]]}},{"type":"Feature","properties":{"landuse":"farmland"},"geometry":{"type":"Polygon","coordinates":[[[-61.3243,16.3041],[-61.3234,16.3044],[-61.325,16.306],[-61.3243,16.3041]]]}},{"type":"Feature","properties":{"landuse":"farmland"},"geometry":{"type":"Polygon","coordinates":[[[-61.3196,16.3113],[-61.3194,16.3143],[-61.3226,16.3147],[-61.3196,16.3113]]]}},{"type":"Feature","properties":{"landuse":"farmland"},"geometry":{"type":"Polygon","coordinates":[[[-61.3243,16.3089],[-61.3229,16.3106],[-61.3256,16.3115],[-61.3243,16.3089]]]}},{"type":"Feature","properties":{"landuse":"farmland"},"geometry":{"type":"Polygon","coordinates":[[[-61.3209,16.3122],[-61.3214,16.3132],[-61.3239,16.3127],[-61.3209,16.3122]]]}},{"type":"Feature","properties":{"landuse":"farmland"},"geometry":{"type":"Polygon","coordinates":[[[-61.3188,16.3131],[-61.318,16.313],[-61.3185,16.3152],[-61.3188,16.3131]]]}},{"type":"Feature","properties":{"landuse":"farmland"},"geometry":{"type":"Polygon","coordinates":[[[-61.3119,16.307],[-61.3113,16.3053],[-61.3095,16.3054],[-61.3119,16.307]]]}},{"type":"Feature","properties":{"landuse":"farmland"},"geometry":{"type":"Polygon","coordinates":[[[-61.3273,16.2994],[-61.324,16.301],[-61.3249,16.3036],[-61.3283,16.3023],[-61.3273,16.2994]]]}},{"type":"Feature","properties":{"landuse":"farmland"},"geometry":{"type":"Polygon","coordinates":[[[-61.3263,16.3114],[-61.3298,16.312],[-61.3252,16.3098],[-61.3263,16.3114]]]}},{"type":"Feature","properties":{"landuse":"farmland"},"geometry":{"type":"Polygon","coordinates":[[[-61.3179,16.2992],[-61.3205,16.2992],[-61.318,16.2981],[-61.3179,16.2992]]]}},{"type":"Feature","properties":{"landuse":"farmland"},"geometry":{"type":"Polygon","coordinates":[[[-61.3222,16.2949],[-61.3199,16.2959],[-61.3233,16.3004],[-61.3222,16.2949]]]}},{"type":"Feature","properties":{"landuse":"farmland"},"geometry":{"type":"Polygon","coordinates":[[[-61.306,16.3171],[-61.3061,16.3233],[-61.3099,16.3244],[-61.3178,16.3164],[-61.3107,16.3188],[-61.3119,16.3107],[-61.308,16.3127],[-61.3096,16.3143],[-61.3066,16.3128],[-61.3081,16.3175],[-61.306,16.3171]]]}},{"type":"Feature","properties":{"landuse":"farmland"},"geometry":{"type":"Polygon","coordinates":[[[-61.3214,16.3197],[-61.3224,16.3169],[-61.3206,16.3164],[-61.3214,16.3197]]]}},{"type":"Feature","properties":{"landuse":"farmland"},"geometry":{"type":"Polygon","coordinates":[[[-61.3232,16.321],[-61.3245,16.319],[-61.3231,16.3173],[-61.3232,16.321]]]}},{"type":"Feature","properties":{"landuse":"farmland"},"geometry":{"type":"Polygon","coordinates":[[[-61.3409,16.2992],[-61.3391,16.2993],[-61.3402,16.3012],[-61.3409,16.2992]]]}},{"type":"Feature","properties":{"landuse":"farmland"},"geometry":{"type":"Polygon","coordinates":[[[-61.3418,16.3024],[-61.34,16.3013],[-61.341,16.3039],[-61.3418,16.3024]]]}},{"type":"Feature","properties":{"landuse":"farmland"},"geometry":{"type":"Polygon","coordinates":[[[-61.3407,16.3044],[-61.3395,16.3041],[-61.3401,16.3063],[-61.3407,16.3044]]]}},{"type":"Feature","properties":{"landuse":"farmland"},"geometry":{"type":"Polygon","coordinates":[[[-61.3395,16.3069],[-61.3427,16.3093],[-61.3429,16.3056],[-61.3395,16.3069]]]}},{"type":"Feature","properties":{"landuse":"farmland"},"geometry":{"type":"Polygon","coordinates":[[[-61.3428,16.3054],[-61.3441,16.3087],[-61.3476,16.3084],[-61.3428,16.3054]]]}},{"type":"Feature","properties":{"landuse":"farmland"},"geometry":{"type":"Polygon","coordinates":[[[-61.3471,16.3098],[-61.3443,16.3088],[-61.3455,16.3103],[-61.3471,16.3098]]]}},{"type":"Feature","properties":{"landuse":"farmland"},"geometry":{"type":"Polygon","coordinates":[[[-61.3431,16.311],[-61.343,16.3095],[-61.3407,16.3099],[-61.3431,16.311]]]}},{"type":"Feature","properties":{"landuse":"farmland"},"geometry":{"type":"Polygon","coordinates":[[[-61.3399,16.3101],[-61.3401,16.3081],[-61.3392,16.3085],[-61.3399,16.3101]]]}},{"type":"Feature","properties":{"landuse":"farmland"},"geometry":{"type":"Polygon","coordinates":[[[-61.3389,16.3086],[-61.3319,16.3095],[-61.3397,16.3158],[-61.3389,16.3086]]]}},{"type":"Feature","properties":{"landuse":"farmland"},"geometry":{"type":"Polygon","coordinates":[[[-61.3412,16.3113],[-61.3392,16.3105],[-61.3407,16.3119],[-61.3412,16.3113]]]}},{"type":"Feature","properties":{"landuse":"farmland"},"geometry":{"type":"Polygon","coordinates":[[[-61.3431,16.311],[-61.3412,16.3121],[-61.3424,16.3145],[-61.3431,16.311]]]}},{"type":"Feature","properties":{"landuse":"farmland"},"geometry":{"type":"Polygon","coordinates":[[[-61.315,16.3159],[-61.3136,16.3146],[-61.3123,16.3166],[-61.315,16.3159]]]}},{"type":"Feature","properties":{"landuse":"farmland"},"geometry":{"type":"Polygon","coordinates":[[[-61.3296,16.3268],[-61.3272,16.3249],[-61.3256,16.3281],[-61.3296,16.3268]]]}},{"type":"Feature","properties":{"landuse":"farmland"},"geometry":{"type":"Polygon","coordinates":[[[-61.3334,16.3239],[-61.3319,16.3242],[-61.3336,16.3247],[-61.3334,16.3239]]]}},{"type":"Feature","properties":{"landuse":"farmland"},"geometry":{"type":"Polygon","coordinates":[[[-61.2852,16.2773],[-61.2844,16.2771],[-61.2839,16.2785],[-61.2852,16.2773]]]}},{"type":"Feature","properties":{"landuse":"farmland"},"geometry":{"type":"Polygon","coordinates":[[[-61.3451,16.2995],[-61.3434,16.2985],[-61.3425,16.3011],[-61.3451,16.2995]]]}},{"type":"Feature","properties":{"landuse":"farmland"},"geometry":{"type":"Polygon","coordinates":[[[-61.3422,16.2995],[-61.3411,16.301],[-61.3424,16.3011],[-61.3422,16.2995]]]}},{"type":"Feature","properties":{"landuse":"farmland"},"geometry":{"type":"Polygon","coordinates":[[[-61.3428,16.3023],[-61.3454,16.3014],[-61.3434,16.3007],[-61.3428,16.3023]]]}},{"type":"Feature","properties":{"landuse":"farmland"},"geometry":{"type":"Polygon","coordinates":[[[-61.3458,16.3017],[-61.3489,16.3026],[-61.3477,16.299],[-61.3458,16.3017]]]}},{"type":"Feature","properties":{"landuse":"farmland"},"geometry":{"type":"Polygon","coordinates":[[[-61.3706,16.2622],[-61.3641,16.2563],[-61.3655,16.2604],[-61.3706,16.2622]]]}},{"type":"Feature","properties":{"landuse":"farmland"},"geometry":{"type":"Polygon","coordinates":[[[-61.6176,16.1777],[-61.6152,16.1756],[-61.6148,16.1767],[-61.6176,16.1777]]]}},{"type":"Feature","properties":{"landuse":"farmland"},"geometry":{"type":"Polygon","coordinates":[[[-61.7201,16.317],[-61.7198,16.3188],[-61.7218,16.3184],[-61.7201,16.317]]]}},{"type":"Feature","properties":{"landuse":"farmland"},"geometry":{"type":"Polygon","coordinates":[[[-61.7202,16.3191],[-61.7183,16.3198],[-61.7188,16.3204],[-61.7202,16.3191]]]}},{"type":"Feature","properties":{"landuse":"farmland"},"geometry":{"type":"Polygon","coordinates":[[[-61.7229,16.3193],[-61.724,16.3202],[-61.725,16.3192],[-61.7229,16.3193]]]}},{"type":"Feature","properties":{"landuse":"farmland"},"geometry":{"type":"Polygon","coordinates":[[[-61.7078,16.3222],[-61.7055,16.3246],[-61.7092,16.3231],[-61.7078,16.3222]]]}},{"type":"Feature","properties":{"landuse":"farmland"},"geometry":{"type":"Polygon","coordinates":[[[-61.5824,16.1465],[-61.5813,16.1458],[-61.5796,16.1483],[-61.5824,16.1465]]]}},{"type":"Feature","properties":{"landuse":"farmland"},"geometry":{"type":"Polygon","coordinates":[[[-61.6121,16.1976],[-61.6108,16.1964],[-61.611,16.1978],[-61.6121,16.1976]]]}},{"type":"Feature","properties":{"landuse":"farmland"},"geometry":{"type":"Polygon","coordinates":[[[-61.5901,16.2036],[-61.5893,16.2024],[-61.5896,16.2038],[-61.5901,16.2036]]]}},{"type":"Feature","properties":{"landuse":"farmland"},"geometry":{"type":"Polygon","coordinates":[[[-61.5892,16.2025],[-61.5882,16.2033],[-61.5896,16.2038],[-61.5892,16.2025]]]}},{"type":"Feature","properties":{"landuse":"farmland"},"geometry":{"type":"Polygon","coordinates":[[[-61.5912,16.2023],[-61.5919,16.2032],[-61.5925,16.2021],[-61.5912,16.2023]]]}},{"type":"Feature","properties":{"landuse":"farmland"},"geometry":{"type":"Polygon","coordinates":[[[-61.5901,16.2074],[-61.591,16.2064],[-61.5894,16.2057],[-61.5901,16.2074]]]}},{"type":"Feature","properties":{"landuse":"farmland"},"geometry":{"type":"Polygon","coordinates":[[[-61.5907,16.2057],[-61.5906,16.2049],[-61.5898,16.2058],[-61.5907,16.2057]]]}},{"type":"Feature","properties":{"landuse":"farmland"},"geometry":{"type":"Polygon","coordinates":[[[-61.5874,16.2075],[-61.5877,16.2083],[-61.5884,16.2074],[-61.5874,16.2075]]]}},{"type":"Feature","properties":{"landuse":"farmland"},"geometry":{"type":"Polygon","coordinates":[[[-61.5874,16.2075],[-61.5884,16.2074],[-61.5881,16.2051],[-61.5874,16.2075]]]}},{"type":"Feature","properties":{"landuse":"farmland"},"geometry":{"type":"Polygon","coordinates":[[[-61.5861,16.2046],[-61.5873,16.2042],[-61.5848,16.2041],[-61.5861,16.2046]]]}},{"type":"Feature","properties":{"landuse":"farmland"},"geometry":{"type":"Polygon","coordinates":[[[-61.5916,16.2073],[-61.5911,16.2063],[-61.5903,16.2077],[-61.5916,16.2073]]]}},{"type":"Feature","properties":{"landuse":"farmland"},"geometry":{"type":"Polygon","coordinates":[[[-61.5956,16.2031],[-61.5965,16.2019],[-61.5952,16.2021],[-61.5956,16.2031]]]}},{"type":"Feature","properties":{"landuse":"farmland"},"geometry":{"type":"Polygon","coordinates":[[[-61.5965,16.204],[-61.5972,16.2019],[-61.5965,16.2019],[-61.5965,16.204]]]}},{"type":"Feature","properties":{"landuse":"farmland"},"geometry":{"type":"Polygon","coordinates":[[[-61.5966,16.2065],[-61.5984,16.2058],[-61.5967,16.2056],[-61.5966,16.2065]]]}},{"type":"Feature","properties":{"landuse":"farmland"},"geometry":{"type":"Polygon","coordinates":[[[-61.6038,16.2119],[-61.6071,16.212],[-61.6076,16.2111],[-61.6038,16.2119]]]}},{"type":"Feature","properties":{"landuse":"farmland"},"geometry":{"type":"Polygon","coordinates":[[[-61.6068,16.2108],[-61.6044,16.211],[-61.6038,16.2119],[-61.6068,16.2108]]]}},{"type":"Feature","properties":{"landuse":"farmland"},"geometry":{"type":"Polygon","coordinates":[[[-61.5976,16.1995],[-61.5982,16.2006],[-61.6,16.1993],[-61.5976,16.1995]]]}},{"type":"Feature","properties":{"landuse":"farmland"},"geometry":{"type":"Polygon","coordinates":[[[-61.5873,16.2048],[-61.5859,16.2052],[-61.5871,16.2072],[-61.5873,16.2048]]]}},{"type":"Feature","properties":{"landuse":"farmland"},"geometry":{"type":"Polygon","coordinates":[[[-61.5834,16.2683],[-61.5776,16.2678],[-61.5779,16.2724],[-61.5834,16.2683]]]}},{"type":"Feature","properties":{"landuse":"farmland"},"geometry":{"type":"Polygon","coordinates":[[[-61.5768,16.2774],[-61.577,16.2815],[-61.5794,16.2779],[-61.5768,16.2774]]]}},{"type":"Feature","properties":{"landuse":"farmland"},"geometry":{"type":"Polygon","coordinates":[[[-61.5769,16.2747],[-61.5708,16.2722],[-61.5706,16.2745],[-61.5769,16.2747]]]}},{"type":"Feature","properties":{"landuse":"farmland"},"geometry":{"type":"Polygon","coordinates":[[[-61.576,16.2725],[-61.5753,16.2687],[-61.5645,16.2694],[-61.576,16.2725]]]}},{"type":"Feature","properties":{"landuse":"farmland"},"geometry":{"type":"Polygon","coordinates":[[[-61.5783,16.2749],[-61.5795,16.2755],[-61.5796,16.2747],[-61.5783,16.2749]]]}},{"type":"Feature","properties":{"landuse":"farmland"},"geometry":{"type":"Polygon","coordinates":[[[-61.6064,16.2145],[-61.609,16.2138],[-61.6063,16.213],[-61.6064,16.2145]]]}},{"type":"Feature","properties":{"landuse":"orchard"},"geometry":{"type":"Polygon","coordinates":[[[-61.5782,16.1228],[-61.5812,16.1202],[-61.5778,16.1206],[-61.5782,16.1228]]]}},{"type":"Feature","properties":{"landuse":"orchard"},"geometry":{"type":"Polygon","coordinates":[[[-61.5809,16.1194],[-61.5815,16.12],[-61.5836,16.1174],[-61.5809,16.1194]]]}},{"type":"Feature","properties":{"landuse":"orchard"},"geometry":{"type":"Polygon","coordinates":[[[-61.5811,16.1192],[-61.5789,16.1202],[-61.579,16.121],[-61.5811,16.1192]]]}},{"type":"Feature","properties":{"landuse":"orchard"},"geometry":{"type":"Polygon","coordinates":[[[-61.5812,16.1202],[-61.5823,16.1213],[-61.5825,16.1197],[-61.5812,16.1202]]]}},{"type":"Feature","properties":{"landuse":"orchard"},"geometry":{"type":"Polygon","coordinates":[[[-61.5722,16.1299],[-61.5688,16.13],[-61.5709,16.1316],[-61.5722,16.1299]]]}},{"type":"Feature","properties":{"landuse":"orchard"},"geometry":{"type":"Polygon","coordinates":[[[-61.5687,16.1307],[-61.5715,16.1299],[-61.5681,16.1298],[-61.5687,16.1307]]]}},{"type":"Feature","properties":{"landuse":"orchard"},"geometry":{"type":"Polygon","coordinates":[[[-61.5665,16.1317],[-61.5661,16.1299],[-61.5646,16.1312],[-61.5665,16.1317]]]}},{"type":"Feature","properties":{"landuse":"orchard"},"geometry":{"type":"Polygon","coordinates":[[[-61.5662,16.1274],[-61.5647,16.1298],[-61.5674,16.1288],[-61.5662,16.1274]]]}},{"type":"Feature","properties":{"landuse":"orchard"},"geometry":{"type":"Polygon","coordinates":[[[-61.5824,16.1192],[-61.5831,16.1209],[-61.5832,16.1185],[-61.5824,16.1192]]]}},{"type":"Feature","properties":{"landuse":"orchard"},"geometry":{"type":"Polygon","coordinates":[[[-61.5825,16.1195],[-61.5807,16.1226],[-61.5829,16.1214],[-61.5825,16.1195]]]}},{"type":"Feature","properties":{"landuse":"orchard"},"geometry":{"type":"Polygon","coordinates":[[[-61.5834,16.1209],[-61.5821,16.1219],[-61.583,16.1225],[-61.5834,16.1209]]]}},{"type":"Feature","properties":{"landuse":"farmland"},"geometry":{"type":"Polygon","coordinates":[[[-61.5738,16.2747],[-61.5683,16.2768],[-61.5679,16.2799],[-61.5739,16.2803],[-61.5738,16.2747]]]}},{"type":"Feature","properties":{"landuse":"farmland"},"geometry":{"type":"Polygon","coordinates":[[[-61.5659,16.2712],[-61.564,16.2692],[-61.5636,16.2722],[-61.5659,16.2712]]]}},{"type":"Feature","properties":{"landuse":"farmland"},"geometry":{"type":"Polygon","coordinates":[[[-61.5647,16.2732],[-61.5671,16.272],[-61.5662,16.2715],[-61.5647,16.2732]]]}},{"type":"Feature","properties":{"landuse":"farmland"},"geometry":{"type":"Polygon","coordinates":[[[-61.5691,16.2726],[-61.5664,16.274],[-61.5683,16.2748],[-61.5691,16.2726]]]}},{"type":"Feature","properties":{"landuse":"farmland"},"geometry":{"type":"Polygon","coordinates":[[[-61.5646,16.269],[-61.5649,16.2673],[-61.5622,16.2667],[-61.5646,16.269]]]}},{"type":"Feature","properties":{"landuse":"farmland"},"geometry":{"type":"Polygon","coordinates":[[[-61.5677,16.283],[-61.5616,16.2825],[-61.5645,16.2858],[-61.5677,16.283]]]}},{"type":"Feature","properties":{"landuse":"farmland"},"geometry":{"type":"Polygon","coordinates":[[[-61.572,16.2747],[-61.5683,16.2766],[-61.5715,16.2769],[-61.572,16.2747]]]}},{"type":"Feature","properties":{"landuse":"orchard"},"geometry":{"type":"Polygon","coordinates":[[[-61.5857,16.1197],[-61.5894,16.1161],[-61.5842,16.1203],[-61.5857,16.1197]]]}},{"type":"Feature","properties":{"landuse":"orchard"},"geometry":{"type":"Polygon","coordinates":[[[-61.5905,16.1097],[-61.5872,16.1115],[-61.5889,16.1119],[-61.5905,16.1097]]]}},{"type":"Feature","properties":{"landuse":"orchard"},"geometry":{"type":"Polygon","coordinates":[[[-61.5911,16.1104],[-61.5895,16.1112],[-61.5914,16.113],[-61.5911,16.1104]]]}},{"type":"Feature","properties":{"landuse":"orchard"},"geometry":{"type":"Polygon","coordinates":[[[-61.59,16.1117],[-61.5864,16.1143],[-61.5873,16.1157],[-61.59,16.1117]]]}},{"type":"Feature","properties":{"landuse":"orchard"},"geometry":{"type":"Polygon","coordinates":[[[-61.5876,16.1141],[-61.5836,16.1171],[-61.5867,16.1171],[-61.5876,16.1141]]]}},{"type":"Feature","properties":{"landuse":"farmland"},"geometry":{"type":"Polygon","coordinates":[[[-61.5898,16.1133],[-61.5879,16.1149],[-61.5895,16.1151],[-61.5898,16.1133]]]}},{"type":"Feature","properties":{"landuse":"orchard"},"geometry":{"type":"Polygon","coordinates":[[[-61.5818,16.118],[-61.5773,16.1196],[-61.5792,16.1199],[-61.5818,16.118]]]}},{"type":"Feature","properties":{"landuse":"farmland"},"geometry":{"type":"Polygon","coordinates":[[[-61.6205,16.1775],[-61.6188,16.1773],[-61.6182,16.1781],[-61.6205,16.1775]]]}},{"type":"Feature","properties":{"landuse":"farmland"},"geometry":{"type":"Polygon","coordinates":[[[-61.6111,16.1797],[-61.6112,16.1777],[-61.6097,16.1785],[-61.6111,16.1797]]]}},{"type":"Feature","properties":{"landuse":"farmland"},"geometry":{"type":"Polygon","coordinates":[[[-61.6169,16.1896],[-61.6189,16.1875],[-61.6163,16.1902],[-61.6169,16.1896]]]}},{"type":"Feature","properties":{"landuse":"farmland"},"geometry":{"type":"Polygon","coordinates":[[[-61.6124,16.1963],[-61.6122,16.1947],[-61.6114,16.1963],[-61.6124,16.1963]]]}},{"type":"Feature","properties":{"landuse":"farmland"},"geometry":{"type":"Polygon","coordinates":[[[-61.5684,16.2755],[-61.5668,16.276],[-61.5683,16.2768],[-61.5684,16.2755]]]}},{"type":"Feature","properties":{"landuse":"farmland"},"geometry":{"type":"Polygon","coordinates":[[[-61.566,16.282],[-61.5639,16.2764],[-61.5635,16.2803],[-61.566,16.282]]]}},{"type":"Feature","properties":{"landuse":"farmland"},"geometry":{"type":"Polygon","coordinates":[[[-61.568,16.279],[-61.5654,16.2776],[-61.5654,16.2791],[-61.568,16.279]]]}},{"type":"Feature","properties":{"landuse":"farmland"},"geometry":{"type":"Polygon","coordinates":[[[-61.5679,16.2803],[-61.566,16.282],[-61.5678,16.2822],[-61.5679,16.2803]]]}},{"type":"Feature","properties":{"landuse":"orchard"},"geometry":{"type":"Polygon","coordinates":[[[-61.5812,16.125],[-61.5804,16.1244],[-61.579,16.1258],[-61.5812,16.125]]]}},{"type":"Feature","properties":{"landuse":"farmland"},"geometry":{"type":"Polygon","coordinates":[[[-61.5568,16.268],[-61.5595,16.2654],[-61.5556,16.2635],[-61.5531,16.2677],[-61.5568,16.268]]]}},{"type":"Feature","properties":{"landuse":"orchard"},"geometry":{"type":"Polygon","coordinates":[[[-61.5875,16.1425],[-61.5865,16.1432],[-61.5872,16.1442],[-61.5875,16.1425]]]}},{"type":"Feature","properties":{"landuse":"orchard"},"geometry":{"type":"Polygon","coordinates":[[[-61.5963,16.1324],[-61.5977,16.1348],[-61.5982,16.1332],[-61.5963,16.1324]]]}},{"type":"Feature","properties":{"landuse":"orchard"},"geometry":{"type":"Polygon","coordinates":[[[-61.5971,16.1344],[-61.5957,16.1333],[-61.5948,16.1345],[-61.5971,16.1344]]]}},{"type":"Feature","properties":{"landuse":"orchard"},"geometry":{"type":"Polygon","coordinates":[[[-61.5839,16.1268],[-61.5818,16.1263],[-61.5826,16.1282],[-61.5839,16.1268]]]}},{"type":"Feature","properties":{"landuse":"farmland"},"geometry":{"type":"Polygon","coordinates":[[[-61.59,16.1083],[-61.5881,16.1075],[-61.5854,16.1099],[-61.59,16.1083]]]}},{"type":"Feature","properties":{"landuse":"orchard"},"geometry":{"type":"Polygon","coordinates":[[[-61.5809,16.11],[-61.5792,16.1091],[-61.5787,16.1106],[-61.5809,16.11]]]}},{"type":"Feature","properties":{"landuse":"orchard"},"geometry":{"type":"Polygon","coordinates":[[[-61.5791,16.1093],[-61.582,16.109],[-61.5796,16.1077],[-61.5791,16.1093]]]}},{"type":"Feature","properties":{"landuse":"farmland"},"geometry":{"type":"Polygon","coordinates":[[[-61.6056,16.1668],[-61.6065,16.1686],[-61.6078,16.1668],[-61.6056,16.1668]]]}},{"type":"Feature","properties":{"landuse":"orchard"},"geometry":{"type":"Polygon","coordinates":[[[-61.5665,16.107],[-61.5691,16.1106],[-61.5697,16.1086],[-61.5665,16.107]]]}},{"type":"Feature","properties":{"landuse":"orchard"},"geometry":{"type":"Polygon","coordinates":[[[-61.5675,16.1029],[-61.5659,16.1064],[-61.5676,16.1065],[-61.5675,16.1029]]]}},{"type":"Feature","properties":{"landuse":"orchard"},"geometry":{"type":"Polygon","coordinates":[[[-61.5675,16.1029],[-61.5679,16.1062],[-61.5687,16.1031],[-61.5675,16.1029]]]}},{"type":"Feature","properties":{"landuse":"orchard"},"geometry":{"type":"Polygon","coordinates":[[[-61.5707,16.1045],[-61.5687,16.1031],[-61.5686,16.1059],[-61.5707,16.1045]]]}},{"type":"Feature","properties":{"landuse":"orchard"},"geometry":{"type":"Polygon","coordinates":[[[-61.5713,16.1045],[-61.5715,16.1055],[-61.5741,16.1041],[-61.5713,16.1045]]]}},{"type":"Feature","properties":{"landuse":"orchard"},"geometry":{"type":"Polygon","coordinates":[[[-61.5736,16.1037],[-61.5706,16.1038],[-61.5707,16.1045],[-61.5736,16.1037]]]}},{"type":"Feature","properties":{"landuse":"orchard"},"geometry":{"type":"Polygon","coordinates":[[[-61.5705,16.1032],[-61.5716,16.1012],[-61.5687,16.1015],[-61.5705,16.1032]]]}},{"type":"Feature","properties":{"landuse":"orchard"},"geometry":{"type":"Polygon","coordinates":[[[-61.5749,16.1041],[-61.5751,16.1013],[-61.574,16.1017],[-61.5749,16.1041]]]}},{"type":"Feature","properties":{"landuse":"farmland"},"geometry":{"type":"Polygon","coordinates":[[[-61.5782,16.1032],[-61.5794,16.1019],[-61.576,16.1016],[-61.5782,16.1032]]]}},{"type":"Feature","properties":{"landuse":"farmland"},"geometry":{"type":"Polygon","coordinates":[[[-61.7196,16.32],[-61.7165,16.3243],[-61.7184,16.3246],[-61.7196,16.32]]]}},{"type":"Feature","properties":{"landuse":"farmland"},"geometry":{"type":"Polygon","coordinates":[[[-61.7131,16.3206],[-61.7117,16.3195],[-61.7095,16.3217],[-61.7131,16.3206]]]}},{"type":"Feature","properties":{"landuse":"orchard"},"geometry":{"type":"Polygon","coordinates":[[[-61.5903,16.1216],[-61.5925,16.1203],[-61.5895,16.1182],[-61.5903,16.1216]]]}},{"type":"Feature","properties":{"landuse":"orchard"},"geometry":{"type":"Polygon","coordinates":[[[-61.5747,16.108],[-61.5733,16.1091],[-61.5739,16.1112],[-61.5747,16.108]]]}},{"type":"Feature","properties":{"landuse":"farmland"},"geometry":{"type":"Polygon","coordinates":[[[-61.7251,16.3217],[-61.7242,16.3209],[-61.7228,16.3228],[-61.7251,16.3217]]]}},{"type":"Feature","properties":{"landuse":"farmland"},"geometry":{"type":"Polygon","coordinates":[[[-61.5796,16.1052],[-61.5805,16.103],[-61.5769,16.1041],[-61.5796,16.1052]]]}},{"type":"Feature","properties":{"landuse":"farmland"},"geometry":{"type":"Polygon","coordinates":[[[-61.353,16.2515],[-61.3513,16.2466],[-61.3489,16.2468],[-61.353,16.2515]]]}},{"type":"Feature","properties":{"landuse":"orchard"},"geometry":{"type":"Polygon","coordinates":[[[-61.5749,16.0552],[-61.5796,16.054],[-61.574,16.0535],[-61.5749,16.0552]]]}},{"type":"Feature","properties":{"landuse":"farmland"},"geometry":{"type":"Polygon","coordinates":[[[-61.5803,16.0521],[-61.5808,16.0488],[-61.5762,16.0473],[-61.5697,16.0526],[-61.5803,16.0521]]]}},{"type":"Feature","properties":{"landuse":"farmland"},"geometry":{"type":"Polygon","coordinates":[[[-61.5785,16.0524],[-61.5764,16.0526],[-61.5786,16.0536],[-61.5785,16.0524]]]}},{"type":"Feature","properties":{"landuse":"orchard"},"geometry":{"type":"Polygon","coordinates":[[[-61.5764,16.045],[-61.5755,16.0469],[-61.5781,16.047],[-61.5764,16.045]]]}},{"type":"Feature","properties":{"landuse":"orchard"},"geometry":{"type":"Polygon","coordinates":[[[-61.5791,16.046],[-61.5845,16.0478],[-61.5853,16.0454],[-61.5791,16.046]]]}},{"type":"Feature","properties":{"landuse":"orchard"},"geometry":{"type":"Polygon","coordinates":[[[-61.5858,16.0475],[-61.59,16.0476],[-61.5901,16.0451],[-61.5858,16.0475]]]}},{"type":"Feature","properties":{"landuse":"orchard"},"geometry":{"type":"Polygon","coordinates":[[[-61.5857,16.0497],[-61.5827,16.0476],[-61.5833,16.05],[-61.5857,16.0497]]]}},{"type":"Feature","properties":{"landuse":"orchard"},"geometry":{"type":"Polygon","coordinates":[[[-61.5858,16.0475],[-61.5864,16.0499],[-61.59,16.0476],[-61.5858,16.0475]]]}},{"type":"Feature","properties":{"landuse":"farmland"},"geometry":{"type":"Polygon","coordinates":[[[-61.5695,16.0456],[-61.5701,16.0433],[-61.568,16.0442],[-61.5695,16.0456]]]}}]}