{"type":"FeatureCollection","features":[{"type":"Feature","properties":{"landuse":"green_public_spaces"},"geometry":{"type":"Polygon","coordinates":[[[-52.3196,4.939],[-52.321,4.941],[-52.3208,4.9387],[-52.3196,4.939]]]}},{"type":"Feature","properties":{"landuse":"farmland"},"geometry":{"type":"Polygon","coordinates":[[[-53.8172,5.6852],[-53.8277,5.6774],[-53.8318,5.6678],[-53.8201,5.6631],[-53.8253,5.6572],[-53.8255,5.6524],[-53.7985,5.6524],[-53.7776,5.6627],[-53.7784,5.6663],[-53.8023,5.6772],[-53.8053,5.6758],[-53.8085,5.6809],[-53.8172,5.6852]],[[-53.8116,5.6725],[-53.8106,5.6698],[-53.8186,5.6726],[-53.8146,5.6745],[-53.8116,5.6725]]]}},{"type":"Feature","properties":{"landuse":"green_public_spaces"},"geometry":{"type":"Polygon","coordinates":[[[-52.6391,5.1648],[-52.6387,5.164],[-52.638,5.1646],[-52.6391,5.1648]]]}},{"type":"Feature","properties":{"landuse":"greenhouse_horticulture"},"geometry":{"type":"Polygon","coordinates":[[[-52.6392,5.159],[-52.6373,5.1587],[-52.6382,5.16],[-52.6392,5.159]]]}},{"type":"Feature","properties":{"landuse":"green_public_spaces"},"geometry":{"type":"Polygon","coordinates":[[[-52.9558,5.3793],[-52.9546,5.3791],[-52.9557,5.3804],[-52.9558,5.3793]]]}},{"type":"Feature","properties":{"landuse":"farmland"},"geometry":{"type":"Polygon","coordinates":[[[-51.81,3.8715],[-51.8105,3.8692],[-51.8084,3.8693],[-51.81,3.8715]]]}},{"type":"Feature","properties":{"landuse":"farmland"},"geometry":{"type":"Polygon","coordinates":[[[-51.8139,3.8699],[-51.8144,3.8687],[-51.8128,3.8672],[-51.8139,3.8699]]]}},{"type":"Feature","properties":{"landuse":"farmland"},"geometry":{"type":"Polygon","coordinates":[[[-51.8279,3.8942],[-51.8295,3.8912],[-51.827,3.891],[-51.8279,3.8942]]]}},{"type":"Feature","properties":{"landuse":"farmland"},"geometry":{"type":"Polygon","coordinates":[[[-51.8301,3.8905],[-51.832,3.8875],[-51.8291,3.891],[-51.8301,3.8905]]]}},{"type":"Feature","properties":{"landuse":"green_public_spaces"},"geometry":{"type":"Polygon","coordinates":[[[-52.3346,4.9407],[-52.3341,4.9383],[-52.333,4.9386],[-52.3346,4.9407]]]}},{"type":"Feature","properties":{"landuse":"farmland"},"geometry":{"type":"Polygon","coordinates":[[[-53.2066,3.5938],[-53.208,3.5939],[-53.2067,3.5926],[-53.2066,3.5938]]]}},{"type":"Feature","properties":{"landuse":"farmland"},"geometry":{"type":"Polygon","coordinates":[[[-54.0111,5.4703],[-54.0138,5.4748],[-54.0182,5.4704],[-54.0252,5.4717],[-54.0267,5.4695],[-54.0141,5.4627],[-54.0111,5.4703]]]}},{"type":"Feature","properties":{"landuse":"orchard"},"geometry":{"type":"Polygon","coordinates":[[[-53.2131,3.6221],[-53.2133,3.6212],[-53.2118,3.6212],[-53.2131,3.6221]]]}},{"type":"Feature","properties":{"landuse":"orchard"},"geometry":{"type":"Polygon","coordinates":[[[-53.2116,3.6118],[-53.2114,3.6102],[-53.2084,3.6109],[-53.2116,3.6118]]]}},{"type":"Feature","properties":{"landuse":"farmland"},"geometry":{"type":"Polygon","coordinates":[[[-54.0441,3.6825],[-54.0434,3.6832],[-54.044,3.684],[-54.0441,3.6825]]]}},{"type":"Feature","properties":{"landuse":"farmland"},"geometry":{"type":"Polygon","coordinates":[[[-54.048,3.6792],[-54.0504,3.6787],[-54.049,3.6778],[-54.048,3.6792]]]}},{"type":"Feature","properties":{"landuse":"farmland"},"geometry":{"type":"Polygon","coordinates":[[[-54.0353,3.6828],[-54.0335,3.6805],[-54.0344,3.683],[-54.0353,3.6828]]]}},{"type":"Feature","properties":{"landuse":"farmland"},"geometry":{"type":"Polygon","coordinates":[[[-54.0353,3.6798],[-54.0349,3.6781],[-54.0341,3.6798],[-54.0353,3.6798]]]}},{"type":"Feature","properties":{"landuse":"farmland"},"geometry":{"type":"Polygon","coordinates":[[[-54.0243,3.6647],[-54.0245,3.6627],[-54.0231,3.6631],[-54.0243,3.6647]]]}},{"type":"Feature","properties":{"landuse":"farmland"},"geometry":{"type":"Polygon","coordinates":[[[-54.0232,3.6671],[-54.0239,3.666],[-54.0216,3.6661],[-54.0232,3.6671]]]}},{"type":"Feature","properties":{"landuse":"farmland"},"geometry":{"type":"Polygon","coordinates":[[[-54.0528,3.6721],[-54.0554,3.6706],[-54.0543,3.6698],[-54.0528,3.6721]]]}},{"type":"Feature","properties":{"landuse":"farmland"},"geometry":{"type":"Polygon","coordinates":[[[-54.0562,3.6717],[-54.0576,3.6699],[-54.0568,3.6696],[-54.0562,3.6717]]]}},{"type":"Feature","properties":{"landuse":"farmland"},"geometry":{"type":"Polygon","coordinates":[[[-54.0471,3.6768],[-54.0465,3.6748],[-54.046,3.6769],[-54.0471,3.6768]]]}},{"type":"Feature","properties":{"landuse":"farmland"},"geometry":{"type":"Polygon","coordinates":[[[-54.0335,3.6758],[-54.0303,3.6734],[-54.0302,3.6751],[-54.0335,3.6758]]]}},{"type":"Feature","properties":{"landuse":"farmland"},"geometry":{"type":"Polygon","coordinates":[[[-54.0329,3.6704],[-54.0308,3.6723],[-54.0339,3.6716],[-54.0329,3.6704]]]}},{"type":"Feature","properties":{"landuse":"farmland"},"geometry":{"type":"Polygon","coordinates":[[[-54.029,3.663],[-54.0286,3.6617],[-54.0279,3.6618],[-54.029,3.663]]]}},{"type":"Feature","properties":{"landuse":"green_public_spaces"},"geometry":{"type":"Polygon","coordinates":[[[-52.268,4.9147],[-52.2674,4.914],[-52.2667,4.9146],[-52.268,4.9147]]]}}]}