{"type":"FeatureCollection","features":[{"type":"Feature","properties":{"landuse":"green_public_spaces"},"geometry":{"type":"MultiPolygon","coordinates":[[[[0.8191,45.8217],[0.8178,45.8198],[0.8216,45.8205],[0.8191,45.8217]]],[[[0.7487,45.789],[0.7493,45.7887],[0.7492,45.7893],[0.7487,45.789]]],[[[0.8163,45.82],[0.8134,45.8207],[0.8166,45.8181],[0.8163,45.82]]],[[[0.8316,45.8553],[0.8318,45.8562],[0.8305,45.8558],[0.8316,45.8553]]],[[[0.8324,45.8571],[0.832,45.8567],[0.8323,45.8557],[0.8324,45.8571]]],[[[0.7696,45.8416],[0.7716,45.8426],[0.7695,45.8435],[0.7696,45.8416]]],[[[0.7716,45.8369],[0.7704,45.8354],[0.7718,45.8357],[0.7716,45.8369]]],[[[0.7739,45.8223],[0.7736,45.8228],[0.7733,45.8216],[0.7739,45.8223]]],[[[0.772,45.8122],[0.768,45.8142],[0.7669,45.8114],[0.772,45.8122]]],[[[0.7435,45.8182],[0.7439,45.8186],[0.743,45.8185],[0.7435,45.8182]]],[[[0.7444,45.8218],[0.7439,45.8222],[0.7438,45.8217],[0.7444,45.8218]]],[[[0.7818,45.8035],[0.782,45.8018],[0.7846,45.8044],[0.7828,45.8056],[0.7818,45.8035]]],[[[0.7746,45.7751],[0.7753,45.7751],[0.7751,45.7756],[0.7746,45.7751]]],[[[0.7508,45.8318],[0.7543,45.8354],[0.7503,45.838],[0.7508,45.8318]]]]}},{"type":"Feature","properties":{"landuse":"farmland"},"geometry":{"type":"Polygon","coordinates":[[[2.4681,46.2045],[2.47,46.2053],[2.4692,46.206],[2.4681,46.2045]]]}},{"type":"Feature","properties":{"landuse":"green_public_spaces"},"geometry":{"type":"Polygon","coordinates":[[[1.4817,46.2337],[1.4783,46.2341],[1.478,46.2331],[1.4817,46.2337]],[[1.4789,46.2332],[1.4791,46.2331],[1.479,46.2331],[1.4789,46.2332]],[[1.4783,46.233],[1.4787,46.2332],[1.4788,46.233],[1.4783,46.233]],[[1.4789,46.2332],[1.479,46.2332],[1.4789,46.2332],[1.4789,46.2332]],[[1.4792,46.2334],[1.4793,46.2333],[1.4792,46.2333],[1.4792,46.2334]]]}},{"type":"Feature","properties":{"landuse":"farmland"},"geometry":{"type":"Polygon","coordinates":[[[0.8558,45.8906],[0.8577,45.9041],[0.8506,45.9022],[0.8541,45.8996],[0.8504,45.8964],[0.8514,45.8923],[0.8558,45.8906]]]}},{"type":"Feature","properties":{"landuse":"farmland"},"geometry":{"type":"Polygon","coordinates":[[[0.8151,45.8306],[0.8196,45.8324],[0.8133,45.8346],[0.8151,45.8306]]]}},{"type":"Feature","properties":{"landuse":"orchard"},"geometry":{"type":"MultiPolygon","coordinates":[[[[1.3926,45.3914],[1.3907,45.3927],[1.3907,45.3902],[1.3926,45.3914]]],[[[1.3939,45.3911],[1.3966,45.3895],[1.3964,45.3912],[1.3939,45.3911]]],[[[1.3931,45.3916],[1.395,45.3944],[1.3925,45.3947],[1.3931,45.3916]]]]}},{"type":"Feature","properties":{"landuse":"orchard"},"geometry":{"type":"MultiPolygon","coordinates":[[[[1.6783,45.0176],[1.684,45.0177],[1.6802,45.0224],[1.6835,45.0238],[1.6749,45.0238],[1.6774,45.0216],[1.6719,45.0198],[1.6783,45.0176]]],[[[1.682,45.009],[1.682,45.0069],[1.683,45.0081],[1.682,45.009]]],[[[1.6762,45.0125],[1.6761,45.0139],[1.6747,45.0141],[1.6762,45.0125]]],[[[1.6776,45.0149],[1.6758,45.0156],[1.6758,45.0152],[1.6776,45.0149]]],[[[1.6786,45.0154],[1.6754,45.0066],[1.6837,45.0097],[1.6786,45.0154]]]]}},{"type":"Feature","properties":{"landuse":"orchard"},"geometry":{"type":"MultiPolygon","coordinates":[[[[1.6576,45.0215],[1.657,45.0196],[1.6585,45.0204],[1.6576,45.0215]]],[[[1.6583,45.0288],[1.6581,45.0258],[1.6603,45.0265],[1.6583,45.0288]]],[[[1.6514,45.0282],[1.6494,45.0285],[1.6497,45.0274],[1.6514,45.0282]]],[[[1.6484,45.0311],[1.6445,45.0334],[1.6461,45.0291],[1.6484,45.0311]]],[[[1.6495,45.0451],[1.6452,45.0449],[1.6486,45.0427],[1.6495,45.0451]]],[[[1.6476,45.0481],[1.6452,45.0497],[1.646,45.0482],[1.6476,45.0481]]],[[[1.6471,45.0511],[1.6568,45.0429],[1.6497,45.0351],[1.6594,45.0366],[1.658,45.0396],[1.6615,45.0428],[1.658,45.048],[1.6537,45.0518],[1.6471,45.0511]]]]}},{"type":"Feature","properties":{"landuse":"vineyard"},"geometry":{"type":"Polygon","coordinates":[[[1.1282,45.8372],[1.1307,45.8353],[1.1325,45.8369],[1.1282,45.8372]]]}},{"type":"Feature","properties":{"landuse":"green_public_spaces"},"geometry":{"type":"Polygon","coordinates":[[[1.262,45.8355],[1.2657,45.8352],[1.2652,45.8363],[1.262,45.8355]]]}},{"type":"Feature","properties":{"landuse":"green_public_spaces"},"geometry":{"type":"Polygon","coordinates":[[[1.2748,45.8228],[1.2836,45.8213],[1.279,45.823],[1.2748,45.8228]]]}},{"type":"Feature","properties":{"landuse":"farmland"},"geometry":{"type":"Polygon","coordinates":[[[1.4403,45.955],[1.4316,45.9549],[1.4331,45.9506],[1.4304,45.9502],[1.4367,45.9476],[1.4338,45.9493],[1.4398,45.9519],[1.4403,45.955]]]}},{"type":"Feature","properties":{"landuse":"orchard"},"geometry":{"type":"Polygon","coordinates":[[[1.4146,45.4068],[1.4099,45.4087],[1.413,45.4112],[1.4102,45.4121],[1.4077,45.4068],[1.4005,45.4063],[1.4015,45.4039],[1.4146,45.4068]]]}},{"type":"Feature","properties":{"landuse":"farmland"},"geometry":{"type":"Polygon","coordinates":[[[1.4582,45.2587],[1.4573,45.2696],[1.4484,45.2699],[1.4539,45.2659],[1.4538,45.2577],[1.4576,45.256],[1.4582,45.2587]]]}},{"type":"Feature","properties":{"landuse":"farmland"},"geometry":{"type":"Polygon","coordinates":[[[2.5011,46.1653],[2.5051,46.1543],[2.5148,46.1564],[2.5123,46.1601],[2.514,46.1622],[2.4972,46.1722],[2.5011,46.1653]]]}},{"type":"Feature","properties":{"landuse":"farmland"},"geometry":{"type":"Polygon","coordinates":[[[1.3681,45.4393],[1.3629,45.4348],[1.3721,45.4324],[1.3743,45.4364],[1.3681,45.4393]]]}},{"type":"Feature","properties":{"landuse":"farmland"},"geometry":{"type":"Polygon","coordinates":[[[2.5165,46.1902],[2.5166,46.1961],[2.5127,46.1977],[2.5089,46.1889],[2.5165,46.1902]]]}},{"type":"Feature","properties":{"landuse":"farmland"},"geometry":{"type":"Polygon","coordinates":[[[0.8144,45.8435],[0.8063,45.8451],[0.8102,45.8423],[0.7986,45.8328],[0.8052,45.83],[0.8117,45.8391],[0.8166,45.8359],[0.8186,45.838],[0.8144,45.8396],[0.8144,45.8435]]]}},{"type":"Feature","properties":{"landuse":"farmland"},"geometry":{"type":"Polygon","coordinates":[[[1.2631,45.7954],[1.2531,45.7971],[1.2505,45.7941],[1.2549,45.7923],[1.2631,45.7954]]]}},{"type":"Feature","properties":{"landuse":"green_public_spaces"},"geometry":{"type":"Polygon","coordinates":[[[1.9365,45.0791],[1.9368,45.0863],[1.9329,45.0892],[1.9287,45.088],[1.9365,45.0791]]]}},{"type":"Feature","properties":{"landuse":"orchard"},"geometry":{"type":"Polygon","coordinates":[[[1.6747,45.0613],[1.6763,45.065],[1.6679,45.0647],[1.6673,45.0597],[1.6723,45.0579],[1.6747,45.0613]]]}},{"type":"Feature","properties":{"landuse":"farmland"},"geometry":{"type":"Polygon","coordinates":[[[2.2481,46.3529],[2.2487,46.3558],[2.2391,46.3559],[2.237,46.3551],[2.2427,46.3549],[2.2446,46.3518],[2.2412,46.3512],[2.2417,46.3467],[2.2367,46.3504],[2.2335,46.3493],[2.2379,46.3465],[2.2364,46.3441],[2.2403,46.3435],[2.2438,46.3474],[2.2536,46.3472],[2.2481,46.3529]]]}},{"type":"Feature","properties":{"landuse":"farmland"},"geometry":{"type":"Polygon","coordinates":[[[1.5174,46.2555],[1.5197,46.26],[1.5171,46.2606],[1.5169,46.257],[1.51,46.2581],[1.5128,46.2546],[1.5174,46.2555]]]}},{"type":"Feature","properties":{"landuse":"farmland"},"geometry":{"type":"Polygon","coordinates":[[[1.3391,45.7745],[1.3353,45.771],[1.3421,45.7696],[1.346,45.7777],[1.3406,45.7786],[1.3333,45.775],[1.3391,45.7745]]]}},{"type":"Feature","properties":{"landuse":"farmland"},"geometry":{"type":"Polygon","coordinates":[[[2.1962,46.3489],[2.1986,46.3449],[2.2037,46.3512],[2.1962,46.3489]]]}},{"type":"Feature","properties":{"landuse":"farmland"},"geometry":{"type":"Polygon","coordinates":[[[1.9033,46.1737],[1.894,46.1698],[1.9017,46.1669],[1.9097,46.1688],[1.9099,46.1735],[1.9033,46.1737]]]}},{"type":"Feature","properties":{"landuse":"farmland"},"geometry":{"type":"Polygon","coordinates":[[[1.1656,46.191],[1.1649,46.1938],[1.1586,46.1922],[1.1603,46.1863],[1.1658,46.1855],[1.162,46.1898],[1.1656,46.191]]]}},{"type":"Feature","properties":{"landuse":"farmland"},"geometry":{"type":"Polygon","coordinates":[[[0.8094,45.8226],[0.804,45.8226],[0.8039,45.8253],[0.7999,45.8203],[0.8042,45.8188],[0.8094,45.8226]]]}},{"type":"Feature","properties":{"landuse":"farmland"},"geometry":{"type":"Polygon","coordinates":[[[1.1284,45.8084],[1.1317,45.8079],[1.1262,45.8064],[1.1277,45.8046],[1.1389,45.8076],[1.1303,45.8136],[1.1329,45.8193],[1.1296,45.8221],[1.1207,45.8089],[1.1228,45.8096],[1.1224,45.8066],[1.1284,45.8084]]]}},{"type":"Feature","properties":{"landuse":"farmland"},"geometry":{"type":"Polygon","coordinates":[[[0.7964,45.8173],[0.7933,45.8145],[0.7979,45.8095],[0.8001,45.8125],[0.7965,45.8152],[0.801,45.8135],[0.7964,45.8173]]]}},{"type":"Feature","properties":{"landuse":"farmland"},"geometry":{"type":"Polygon","coordinates":[[[1.4615,45.1799],[1.4632,45.1779],[1.4667,45.1817],[1.4559,45.1905],[1.4634,45.1835],[1.4615,45.1799]]]}},{"type":"Feature","properties":{"landuse":"farmland"},"geometry":{"type":"Polygon","coordinates":[[[2.1669,45.9883],[2.1522,45.9853],[2.1574,45.9821],[2.1669,45.9883]]]}},{"type":"Feature","properties":{"landuse":"green_public_spaces"},"geometry":{"type":"Polygon","coordinates":[[[1.2664,45.8287],[1.2657,45.8276],[1.2675,45.8267],[1.2664,45.8287]]]}},{"type":"Feature","properties":{"landuse":"orchard"},"geometry":{"type":"Polygon","coordinates":[[[1.5673,45.402],[1.5674,45.4036],[1.5651,45.4042],[1.5673,45.402]]]}},{"type":"Feature","properties":{"landuse":"green_public_spaces"},"geometry":{"type":"Polygon","coordinates":[[[1.5576,45.3984],[1.5592,45.3958],[1.5593,45.3982],[1.5576,45.3984]]]}},{"type":"Feature","properties":{"landuse":"green_public_spaces"},"geometry":{"type":"Polygon","coordinates":[[[1.3016,45.7606],[1.2974,45.7591],[1.3012,45.7556],[1.3078,45.7596],[1.3074,45.7627],[1.3016,45.7606]]]}},{"type":"Feature","properties":{"landuse":"green_public_spaces"},"geometry":{"type":"Polygon","coordinates":[[[1.48,45.8315],[1.4787,45.8311],[1.4801,45.8296],[1.48,45.8315]]]}},{"type":"Feature","properties":{"landuse":"green_public_spaces"},"geometry":{"type":"Polygon","coordinates":[[[0.8962,45.8937],[0.8991,45.8929],[0.899,45.8946],[0.8962,45.8937]]]}},{"type":"Feature","properties":{"landuse":"green_public_spaces"},"geometry":{"type":"Polygon","coordinates":[[[1.3819,45.3969],[1.3837,45.3969],[1.382,45.3976],[1.3829,45.3971],[1.3819,45.3969]]]}},{"type":"Feature","properties":{"landuse":"greenhouse_horticulture"},"geometry":{"type":"Polygon","coordinates":[[[1.4999,46.2498],[1.499,46.2481],[1.5016,46.2487],[1.4999,46.2498]]]}},{"type":"Feature","properties":{"landuse":"green_public_spaces"},"geometry":{"type":"Polygon","coordinates":[[[1.2835,45.8364],[1.2802,45.8349],[1.2811,45.8336],[1.2835,45.8364]]]}},{"type":"Feature","properties":{"landuse":"green_public_spaces"},"geometry":{"type":"Polygon","coordinates":[[[1.2905,45.8201],[1.2869,45.8228],[1.2818,45.8225],[1.2905,45.8201]]]}},{"type":"Feature","properties":{"landuse":"green_public_spaces"},"geometry":{"type":"Polygon","coordinates":[[[1.2745,45.8228],[1.2731,45.8243],[1.27,45.8235],[1.2745,45.8228]]]}},{"type":"Feature","properties":{"landuse":"orchard"},"geometry":{"type":"Polygon","coordinates":[[[1.3792,45.3855],[1.3807,45.383],[1.3829,45.3853],[1.3792,45.3855]]]}},{"type":"Feature","properties":{"landuse":"orchard"},"geometry":{"type":"Polygon","coordinates":[[[1.3946,45.4002],[1.3972,45.3984],[1.3962,45.4005],[1.3946,45.4002]]]}},{"type":"Feature","properties":{"landuse":"farmland"},"geometry":{"type":"Polygon","coordinates":[[[1.5032,45.8191],[1.5028,45.8161],[1.5039,45.8157],[1.5032,45.8191]]]}},{"type":"Feature","properties":{"landuse":"green_public_spaces"},"geometry":{"type":"Polygon","coordinates":[[[1.4851,45.8316],[1.487,45.8309],[1.4904,45.8325],[1.4851,45.8316]]]}},{"type":"Feature","properties":{"landuse":"green_public_spaces"},"geometry":{"type":"Polygon","coordinates":[[[1.4893,45.8391],[1.4903,45.8417],[1.4886,45.842],[1.4893,45.8391]]]}},{"type":"Feature","properties":{"landuse":"farmland"},"geometry":{"type":"Polygon","coordinates":[[[1.4666,45.8529],[1.4664,45.8544],[1.465,45.8543],[1.4666,45.8529]]]}},{"type":"Feature","properties":{"landuse":"farmland"},"geometry":{"type":"Polygon","coordinates":[[[2.1891,46.348],[2.193,46.3508],[2.1906,46.3516],[2.1891,46.348]]]}},{"type":"Feature","properties":{"landuse":"farmland"},"geometry":{"type":"Polygon","coordinates":[[[2.1943,46.3501],[2.1918,46.3485],[2.1954,46.3489],[2.1943,46.3501]]]}},{"type":"Feature","properties":{"landuse":"farmland"},"geometry":{"type":"Polygon","coordinates":[[[2.1956,46.3489],[2.2015,46.3487],[2.2021,46.3524],[2.1947,46.3514],[2.1956,46.3489]]]}},{"type":"Feature","properties":{"landuse":"farmland"},"geometry":{"type":"Polygon","coordinates":[[[2.1867,46.3454],[2.1863,46.3479],[2.176,46.3485],[2.1775,46.3447],[2.1867,46.3454]]]}},{"type":"Feature","properties":{"landuse":"farmland"},"geometry":{"type":"Polygon","coordinates":[[[2.1866,46.3466],[2.1888,46.345],[2.1868,46.3442],[2.1929,46.3446],[2.1915,46.348],[2.1866,46.3466]]]}},{"type":"Feature","properties":{"landuse":"farmland"},"geometry":{"type":"Polygon","coordinates":[[[2.1866,46.3533],[2.1844,46.3521],[2.1857,46.3512],[2.1866,46.3533]]]}},{"type":"Feature","properties":{"landuse":"farmland"},"geometry":{"type":"Polygon","coordinates":[[[2.1844,46.3521],[2.1828,46.3513],[2.1842,46.3501],[2.1844,46.3521]]]}},{"type":"Feature","properties":{"landuse":"farmland"},"geometry":{"type":"Polygon","coordinates":[[[2.1828,46.3513],[2.1814,46.3506],[2.1829,46.3492],[2.1828,46.3513]]]}},{"type":"Feature","properties":{"landuse":"farmland"},"geometry":{"type":"Polygon","coordinates":[[[2.1943,46.3501],[2.1931,46.3508],[2.1922,46.3494],[2.1943,46.3501]]]}},{"type":"Feature","properties":{"landuse":"farmland"},"geometry":{"type":"Polygon","coordinates":[[[2.1814,46.3506],[2.1803,46.3488],[2.1831,46.3486],[2.1814,46.3506]]]}},{"type":"Feature","properties":{"landuse":"farmland"},"geometry":{"type":"Polygon","coordinates":[[[2.1699,46.3468],[2.1681,46.3452],[2.1715,46.3459],[2.1699,46.3468]]]}},{"type":"Feature","properties":{"landuse":"farmland"},"geometry":{"type":"Polygon","coordinates":[[[2.1783,46.3488],[2.1875,46.3538],[2.1777,46.3544],[2.1694,46.3476],[2.1783,46.3488]]]}},{"type":"Feature","properties":{"landuse":"farmland"},"geometry":{"type":"Polygon","coordinates":[[[2.1717,46.3453],[2.169,46.3442],[2.1706,46.3441],[2.1717,46.3453]]]}},{"type":"Feature","properties":{"landuse":"farmland"},"geometry":{"type":"Polygon","coordinates":[[[2.1923,46.3471],[2.1963,46.3477],[2.1934,46.3486],[2.1923,46.3471]]]}},{"type":"Feature","properties":{"landuse":"farmland"},"geometry":{"type":"Polygon","coordinates":[[[2.1734,46.3587],[2.1739,46.3561],[2.1759,46.3577],[2.1734,46.3587]]]}},{"type":"Feature","properties":{"landuse":"farmland"},"geometry":{"type":"Polygon","coordinates":[[[2.1748,46.3526],[2.1726,46.3521],[2.1767,46.3549],[2.1717,46.3544],[2.1736,46.3595],[2.1692,46.3604],[2.1695,46.3542],[2.1748,46.3526]]]}},{"type":"Feature","properties":{"landuse":"green_public_spaces"},"geometry":{"type":"Polygon","coordinates":[[[1.05,46.1167],[1.0481,46.1158],[1.0515,46.1147],[1.05,46.1167]]]}},{"type":"Feature","properties":{"landuse":"farmland"},"geometry":{"type":"Polygon","coordinates":[[[1.1024,45.818],[1.1046,45.8181],[1.1037,45.8207],[1.1024,45.818]]]}},{"type":"Feature","properties":{"landuse":"farmland"},"geometry":{"type":"Polygon","coordinates":[[[1.0895,45.8112],[1.0891,45.8133],[1.0876,45.8126],[1.0895,45.8112]]]}},{"type":"Feature","properties":{"landuse":"farmland"},"geometry":{"type":"Polygon","coordinates":[[[1.091,45.8184],[1.0928,45.8191],[1.0901,45.8191],[1.091,45.8184]]]}},{"type":"Feature","properties":{"landuse":"farmland"},"geometry":{"type":"Polygon","coordinates":[[[1.1678,45.8409],[1.166,45.842],[1.1665,45.8392],[1.1678,45.8409]]]}},{"type":"Feature","properties":{"landuse":"orchard"},"geometry":{"type":"Polygon","coordinates":[[[1.6975,45.034],[1.6958,45.0325],[1.6985,45.0327],[1.6975,45.034]]]}},{"type":"Feature","properties":{"landuse":"farmland"},"geometry":{"type":"Polygon","coordinates":[[[1.6003,45.7032],[1.599,45.7001],[1.6017,45.7018],[1.6003,45.7032]]]}},{"type":"Feature","properties":{"landuse":"green_public_spaces"},"geometry":{"type":"Polygon","coordinates":[[[1.6043,45.7129],[1.6062,45.7137],[1.6057,45.7146],[1.6043,45.7129]]]}},{"type":"Feature","properties":{"landuse":"green_public_spaces"},"geometry":{"type":"Polygon","coordinates":[[[1.599,45.7098],[1.6018,45.7097],[1.6027,45.7122],[1.599,45.7098]]]}},{"type":"Feature","properties":{"landuse":"farmland"},"geometry":{"type":"Polygon","coordinates":[[[1.4393,45.1401],[1.4405,45.1396],[1.4412,45.1402],[1.4393,45.1401]]]}},{"type":"Feature","properties":{"landuse":"green_public_spaces"},"geometry":{"type":"Polygon","coordinates":[[[1.4954,45.8278],[1.4985,45.8271],[1.4989,45.8281],[1.4954,45.8278]]]}},{"type":"Feature","properties":{"landuse":"farmland"},"geometry":{"type":"Polygon","coordinates":[[[1.3387,46.1056],[1.3374,46.108],[1.3366,46.1067],[1.3387,46.1056]]]}},{"type":"Feature","properties":{"landuse":"farmland"},"geometry":{"type":"Polygon","coordinates":[[[1.4635,45.8347],[1.4617,45.8357],[1.4604,45.8335],[1.4635,45.8347]]]}},{"type":"Feature","properties":{"landuse":"farmland"},"geometry":{"type":"Polygon","coordinates":[[[1.4637,45.835],[1.4618,45.832],[1.4642,45.8324],[1.4637,45.835]]]}},{"type":"Feature","properties":{"landuse":"farmland"},"geometry":{"type":"Polygon","coordinates":[[[1.449,45.8318],[1.4473,45.832],[1.4502,45.8298],[1.449,45.8318]]]}},{"type":"Feature","properties":{"landuse":"farmland"},"geometry":{"type":"Polygon","coordinates":[[[1.4851,45.8182],[1.4828,45.8177],[1.4852,45.8163],[1.4851,45.8182]]]}},{"type":"Feature","properties":{"landuse":"farmland"},"geometry":{"type":"Polygon","coordinates":[[[1.4711,45.8504],[1.4664,45.8492],[1.4698,45.8478],[1.4711,45.8504]]]}},{"type":"Feature","properties":{"landuse":"farmland"},"geometry":{"type":"Polygon","coordinates":[[[1.5089,45.8388],[1.5047,45.8404],[1.5073,45.8378],[1.5089,45.8388]]]}},{"type":"Feature","properties":{"landuse":"farmland"},"geometry":{"type":"Polygon","coordinates":[[[1.5062,45.8376],[1.5054,45.8354],[1.5087,45.8356],[1.5062,45.8376]]]}},{"type":"Feature","properties":{"landuse":"farmland"},"geometry":{"type":"Polygon","coordinates":[[[0.7762,45.8246],[0.7795,45.8239],[0.778,45.8256],[0.7762,45.8246]]]}},{"type":"Feature","properties":{"landuse":"farmland"},"geometry":{"type":"Polygon","coordinates":[[[1.4644,45.8127],[1.4639,45.8105],[1.4664,45.8123],[1.4644,45.8127]]]}},{"type":"Feature","properties":{"landuse":"farmland"},"geometry":{"type":"Polygon","coordinates":[[[1.0697,46.1052],[1.0653,46.1056],[1.0749,46.1026],[1.0741,46.1055],[1.0697,46.1052]]]}},{"type":"Feature","properties":{"landuse":"farmland"},"geometry":{"type":"Polygon","coordinates":[[[1.0746,46.1276],[1.0787,46.1289],[1.0773,46.1293],[1.0746,46.1276]]]}},{"type":"Feature","properties":{"landuse":"green_public_spaces"},"geometry":{"type":"Polygon","coordinates":[[[1.2803,45.8327],[1.2808,45.8344],[1.2791,45.8331],[1.2803,45.8327]]]}},{"type":"Feature","properties":{"landuse":"farmland"},"geometry":{"type":"Polygon","coordinates":[[[1.472,45.8648],[1.4698,45.8621],[1.474,45.8633],[1.472,45.8648]]]}},{"type":"Feature","properties":{"landuse":"green_public_spaces"},"geometry":{"type":"Polygon","coordinates":[[[1.0447,46.1191],[1.0432,46.1187],[1.0482,46.1189],[1.0447,46.1191]]]}},{"type":"Feature","properties":{"landuse":"green_public_spaces"},"geometry":{"type":"Polygon","coordinates":[[[1.9367,45.0799],[1.937,45.0829],[1.9326,45.0829],[1.9367,45.0799]]]}},{"type":"Feature","properties":{"landuse":"green_public_spaces"},"geometry":{"type":"Polygon","coordinates":[[[1.2752,45.8329],[1.2765,45.8322],[1.2797,45.8356],[1.2752,45.8329]]]}},{"type":"Feature","properties":{"landuse":"farmland"},"geometry":{"type":"Polygon","coordinates":[[[1.4135,45.9664],[1.4145,45.968],[1.4123,45.9692],[1.4135,45.9664]]]}},{"type":"Feature","properties":{"landuse":"farmland"},"geometry":{"type":"Polygon","coordinates":[[[1.4126,45.9692],[1.4141,45.9683],[1.4154,45.9694],[1.4126,45.9692]]]}},{"type":"Feature","properties":{"landuse":"farmland"},"geometry":{"type":"Polygon","coordinates":[[[1.4198,45.9718],[1.4173,45.9714],[1.4225,45.9691],[1.4198,45.9718]]]}},{"type":"Feature","properties":{"landuse":"farmland"},"geometry":{"type":"Polygon","coordinates":[[[1.4885,45.1357],[1.4914,45.1367],[1.4894,45.1389],[1.4885,45.1357]]]}},{"type":"Feature","properties":{"landuse":"farmland"},"geometry":{"type":"Polygon","coordinates":[[[1.4771,45.1609],[1.4786,45.1633],[1.4752,45.1636],[1.4771,45.1609]]]}},{"type":"Feature","properties":{"landuse":"farmland"},"geometry":{"type":"Polygon","coordinates":[[[1.4526,46.2425],[1.4513,46.2417],[1.4543,46.2419],[1.4526,46.2425]]]}},{"type":"Feature","properties":{"landuse":"farmland"},"geometry":{"type":"Polygon","coordinates":[[[1.4683,46.245],[1.4671,46.2437],[1.4705,46.2427],[1.4683,46.245]]]}},{"type":"Feature","properties":{"landuse":"farmland"},"geometry":{"type":"Polygon","coordinates":[[[1.6711,45.0448],[1.6706,45.043],[1.6716,45.0424],[1.6711,45.0448]]]}},{"type":"Feature","properties":{"landuse":"orchard"},"geometry":{"type":"Polygon","coordinates":[[[1.6632,45.0542],[1.6608,45.0524],[1.6661,45.0521],[1.6632,45.0542]]]}},{"type":"Feature","properties":{"landuse":"farmland"},"geometry":{"type":"Polygon","coordinates":[[[1.4664,46.2466],[1.4608,46.248],[1.4654,46.2434],[1.4664,46.2466]]]}},{"type":"Feature","properties":{"landuse":"farmland"},"geometry":{"type":"Polygon","coordinates":[[[1.4653,46.2506],[1.4632,46.2497],[1.4657,46.2474],[1.4653,46.2506]]]}},{"type":"Feature","properties":{"landuse":"farmland"},"geometry":{"type":"Polygon","coordinates":[[[1.4567,46.2502],[1.4576,46.2487],[1.4615,46.2506],[1.4567,46.2502]]]}},{"type":"Feature","properties":{"landuse":"farmland"},"geometry":{"type":"Polygon","coordinates":[[[1.4557,46.2563],[1.4577,46.2548],[1.4624,46.2568],[1.4557,46.2563]]]}},{"type":"Feature","properties":{"landuse":"farmland"},"geometry":{"type":"Polygon","coordinates":[[[1.4658,46.2425],[1.468,46.2407],[1.4678,46.2418],[1.4658,46.2425]]]}},{"type":"Feature","properties":{"landuse":"farmland"},"geometry":{"type":"Polygon","coordinates":[[[1.4638,46.2551],[1.4599,46.2535],[1.4644,46.2526],[1.4638,46.2551]]]}},{"type":"Feature","properties":{"landuse":"farmland"},"geometry":{"type":"Polygon","coordinates":[[[1.4961,46.2608],[1.4977,46.2584],[1.5004,46.2594],[1.4961,46.2608]]]}},{"type":"Feature","properties":{"landuse":"farmland"},"geometry":{"type":"Polygon","coordinates":[[[1.4826,46.2648],[1.4841,46.2615],[1.4858,46.2634],[1.4826,46.2648]]]}},{"type":"Feature","properties":{"landuse":"farmland"},"geometry":{"type":"Polygon","coordinates":[[[1.4979,46.2571],[1.5012,46.2554],[1.5005,46.257],[1.4979,46.2571]]]}},{"type":"Feature","properties":{"landuse":"farmland"},"geometry":{"type":"Polygon","coordinates":[[[1.4648,46.2664],[1.4654,46.2615],[1.4688,46.2605],[1.4648,46.2664]]]}},{"type":"Feature","properties":{"landuse":"farmland"},"geometry":{"type":"Polygon","coordinates":[[[1.4736,46.2583],[1.4691,46.2564],[1.4703,46.2542],[1.4746,46.2562],[1.4736,46.2583]]]}},{"type":"Feature","properties":{"landuse":"farmland"},"geometry":{"type":"Polygon","coordinates":[[[1.4676,46.2645],[1.4705,46.2639],[1.4685,46.271],[1.4634,46.2698],[1.4676,46.2645]]]}},{"type":"Feature","properties":{"landuse":"farmland"},"geometry":{"type":"Polygon","coordinates":[[[1.4901,46.2506],[1.4915,46.2494],[1.4928,46.2499],[1.4901,46.2506]]]}},{"type":"Feature","properties":{"landuse":"farmland"},"geometry":{"type":"Polygon","coordinates":[[[1.5031,46.2538],[1.5027,46.25],[1.5086,46.2522],[1.5031,46.2538]]]}},{"type":"Feature","properties":{"landuse":"farmland"},"geometry":{"type":"Polygon","coordinates":[[[1.5217,46.2515],[1.5197,46.2518],[1.5228,46.2487],[1.5217,46.2515]]]}},{"type":"Feature","properties":{"landuse":"farmland"},"geometry":{"type":"Polygon","coordinates":[[[1.4265,45.94],[1.4278,45.9375],[1.4295,45.9381],[1.4265,45.94]]]}},{"type":"Feature","properties":{"landuse":"farmland"},"geometry":{"type":"Polygon","coordinates":[[[1.4359,45.9358],[1.4318,45.938],[1.4316,45.9366],[1.4359,45.9358]]]}},{"type":"Feature","properties":{"landuse":"farmland"},"geometry":{"type":"Polygon","coordinates":[[[1.4352,45.9382],[1.432,45.9382],[1.4359,45.9358],[1.4352,45.9382]]]}},{"type":"Feature","properties":{"landuse":"farmland"},"geometry":{"type":"Polygon","coordinates":[[[1.4332,45.9404],[1.4314,45.9427],[1.429,45.94],[1.4332,45.9404]]]}},{"type":"Feature","properties":{"landuse":"farmland"},"geometry":{"type":"Polygon","coordinates":[[[1.4427,45.9391],[1.4406,45.9384],[1.442,45.9378],[1.4427,45.9391]]]}},{"type":"Feature","properties":{"landuse":"farmland"},"geometry":{"type":"Polygon","coordinates":[[[1.5209,46.2567],[1.5215,46.2552],[1.5252,46.2558],[1.5209,46.2567]]]}},{"type":"Feature","properties":{"landuse":"green_public_spaces"},"geometry":{"type":"Polygon","coordinates":[[[1.4585,45.1821],[1.4553,45.1834],[1.4582,45.1805],[1.4585,45.1821]]]}},{"type":"Feature","properties":{"landuse":"green_public_spaces"},"geometry":{"type":"Polygon","coordinates":[[[1.7109,45.3666],[1.71,45.3661],[1.7128,45.3656],[1.7109,45.3666]]]}},{"type":"Feature","properties":{"landuse":"farmland"},"geometry":{"type":"Polygon","coordinates":[[[1.4176,45.9402],[1.4156,45.939],[1.4189,45.9398],[1.4176,45.9402]]]}},{"type":"Feature","properties":{"landuse":"farmland"},"geometry":{"type":"Polygon","coordinates":[[[1.4278,45.9491],[1.4292,45.9481],[1.4292,45.9492],[1.4278,45.9491]]]}},{"type":"Feature","properties":{"landuse":"farmland"},"geometry":{"type":"Polygon","coordinates":[[[1.3569,46.109],[1.3595,46.1102],[1.3573,46.1102],[1.3569,46.109]]]}},{"type":"Feature","properties":{"landuse":"farmland"},"geometry":{"type":"Polygon","coordinates":[[[1.5391,45.5111],[1.5417,45.5094],[1.5421,45.5107],[1.5391,45.5111]]]}},{"type":"Feature","properties":{"landuse":"farmland"},"geometry":{"type":"Polygon","coordinates":[[[1.5391,45.5111],[1.5421,45.5107],[1.5423,45.5132],[1.5391,45.5111]]]}},{"type":"Feature","properties":{"landuse":"farmland"},"geometry":{"type":"Polygon","coordinates":[[[1.5404,45.512],[1.5373,45.5142],[1.5378,45.5119],[1.5404,45.512]]]}},{"type":"Feature","properties":{"landuse":"farmland"},"geometry":{"type":"Polygon","coordinates":[[[1.5358,45.512],[1.5376,45.5114],[1.5372,45.5135],[1.5358,45.512]]]}},{"type":"Feature","properties":{"landuse":"farmland"},"geometry":{"type":"Polygon","coordinates":[[[1.5406,45.5136],[1.5407,45.516],[1.5375,45.5145],[1.5406,45.5136]]]}},{"type":"Feature","properties":{"landuse":"farmland"},"geometry":{"type":"Polygon","coordinates":[[[1.1198,45.7904],[1.12,45.7887],[1.1225,45.7901],[1.1198,45.7904]]]}},{"type":"Feature","properties":{"landuse":"green_public_spaces"},"geometry":{"type":"Polygon","coordinates":[[[1.1283,45.7938],[1.1285,45.7927],[1.1296,45.7927],[1.1283,45.7938]]]}},{"type":"Feature","properties":{"landuse":"green_public_spaces"},"geometry":{"type":"Polygon","coordinates":[[[1.12,45.8042],[1.1239,45.8002],[1.1184,45.8066],[1.12,45.8042]]]}},{"type":"Feature","properties":{"landuse":"green_public_spaces"},"geometry":{"type":"Polygon","coordinates":[[[1.1551,45.7995],[1.1525,45.7993],[1.1543,45.7981],[1.1551,45.7995]]]}},{"type":"Feature","properties":{"landuse":"green_public_spaces"},"geometry":{"type":"Polygon","coordinates":[[[1.1535,45.8042],[1.1533,45.8],[1.1549,45.8021],[1.1535,45.8042]]]}},{"type":"Feature","properties":{"landuse":"farmland"},"geometry":{"type":"Polygon","coordinates":[[[1.1191,45.7848],[1.123,45.7866],[1.1214,45.7888],[1.1191,45.7848]]]}},{"type":"Feature","properties":{"landuse":"farmland"},"geometry":{"type":"Polygon","coordinates":[[[1.1218,45.7923],[1.1194,45.794],[1.1191,45.7916],[1.1218,45.7923]]]}},{"type":"Feature","properties":{"landuse":"farmland"},"geometry":{"type":"Polygon","coordinates":[[[1.118,45.7925],[1.1153,45.7943],[1.1137,45.7929],[1.118,45.7925]]]}},{"type":"Feature","properties":{"landuse":"farmland"},"geometry":{"type":"Polygon","coordinates":[[[1.1136,45.7833],[1.1162,45.7826],[1.1152,45.7878],[1.1114,45.7848],[1.1136,45.7833]]]}},{"type":"Feature","properties":{"landuse":"farmland"},"geometry":{"type":"Polygon","coordinates":[[[1.1031,45.7877],[1.0988,45.7847],[1.0987,45.7794],[1.1073,45.7858],[1.1031,45.7877]]]}},{"type":"Feature","properties":{"landuse":"farmland"},"geometry":{"type":"Polygon","coordinates":[[[1.1033,45.7968],[1.1001,45.7963],[1.1062,45.7914],[1.1033,45.7968]]]}},{"type":"Feature","properties":{"landuse":"farmland"},"geometry":{"type":"Polygon","coordinates":[[[1.122,45.7991],[1.1244,45.8],[1.1213,45.8021],[1.122,45.7991]]]}},{"type":"Feature","properties":{"landuse":"farmland"},"geometry":{"type":"Polygon","coordinates":[[[1.1438,45.8042],[1.1384,45.803],[1.1454,45.7997],[1.1438,45.8042]]]}},{"type":"Feature","properties":{"landuse":"farmland"},"geometry":{"type":"Polygon","coordinates":[[[1.1487,45.8055],[1.1472,45.8091],[1.1446,45.8069],[1.1467,45.8029],[1.1505,45.8046],[1.1487,45.8055]]]}},{"type":"Feature","properties":{"landuse":"farmland"},"geometry":{"type":"Polygon","coordinates":[[[1.1281,45.7921],[1.1276,45.7899],[1.1301,45.7918],[1.1281,45.7921]]]}},{"type":"Feature","properties":{"landuse":"farmland"},"geometry":{"type":"Polygon","coordinates":[[[1.1315,45.8149],[1.1353,45.8155],[1.1324,45.8167],[1.1315,45.8149]]]}},{"type":"Feature","properties":{"landuse":"farmland"},"geometry":{"type":"Polygon","coordinates":[[[1.1519,45.8023],[1.1536,45.8012],[1.1526,45.8035],[1.1519,45.8023]]]}},{"type":"Feature","properties":{"landuse":"farmland"},"geometry":{"type":"Polygon","coordinates":[[[1.1239,45.8282],[1.1291,45.823],[1.1315,45.8254],[1.1239,45.8282]]]}},{"type":"Feature","properties":{"landuse":"orchard"},"geometry":{"type":"Polygon","coordinates":[[[1.6669,45.0269],[1.6662,45.0262],[1.6678,45.0258],[1.6669,45.0269]]]}},{"type":"Feature","properties":{"landuse":"farmland"},"geometry":{"type":"Polygon","coordinates":[[[1.9209,45.0745],[1.9217,45.0755],[1.9203,45.0761],[1.9209,45.0745]]]}},{"type":"Feature","properties":{"landuse":"farmland"},"geometry":{"type":"Polygon","coordinates":[[[1.5798,45.7361],[1.5797,45.7348],[1.581,45.7351],[1.5798,45.7361]]]}},{"type":"Feature","properties":{"landuse":"farmland"},"geometry":{"type":"Polygon","coordinates":[[[1.3655,45.4027],[1.3652,45.402],[1.3672,45.4015],[1.3655,45.4027]]]}},{"type":"Feature","properties":{"landuse":"farmland"},"geometry":{"type":"Polygon","coordinates":[[[1.0828,45.8543],[1.0785,45.8516],[1.0808,45.851],[1.0828,45.8543]]]}},{"type":"Feature","properties":{"landuse":"farmland"},"geometry":{"type":"Polygon","coordinates":[[[1.083,45.8544],[1.0838,45.8572],[1.0821,45.8563],[1.083,45.8544]]]}},{"type":"Feature","properties":{"landuse":"orchard"},"geometry":{"type":"Polygon","coordinates":[[[1.6543,45.0223],[1.6518,45.0209],[1.6544,45.0207],[1.6543,45.0223]]]}},{"type":"Feature","properties":{"landuse":"orchard"},"geometry":{"type":"Polygon","coordinates":[[[1.6528,45.0202],[1.6527,45.0194],[1.6557,45.0192],[1.6528,45.0202]]]}},{"type":"Feature","properties":{"landuse":"farmland"},"geometry":{"type":"Polygon","coordinates":[[[1.1285,45.8239],[1.1219,45.8278],[1.1228,45.8226],[1.1285,45.8239]]]}},{"type":"Feature","properties":{"landuse":"green_public_spaces"},"geometry":{"type":"Polygon","coordinates":[[[1.1195,45.8226],[1.1172,45.8217],[1.1183,45.8204],[1.1195,45.8226]]]}},{"type":"Feature","properties":{"landuse":"farmland"},"geometry":{"type":"Polygon","coordinates":[[[1.1187,45.8128],[1.118,45.8115],[1.1214,45.8108],[1.1187,45.8128]]]}},{"type":"Feature","properties":{"landuse":"farmland"},"geometry":{"type":"Polygon","coordinates":[[[2.1898,46.352],[2.1946,46.3501],[2.2021,46.3524],[2.1928,46.3551],[2.1876,46.3538],[2.1898,46.352]]]}},{"type":"Feature","properties":{"landuse":"farmland"},"geometry":{"type":"Polygon","coordinates":[[[2.1899,46.3661],[2.1856,46.3632],[2.1903,46.364],[2.1899,46.3661]]]}},{"type":"Feature","properties":{"landuse":"farmland"},"geometry":{"type":"Polygon","coordinates":[[[1.1046,45.8602],[1.1035,45.861],[1.1038,45.8578],[1.1046,45.8602]]]}},{"type":"Feature","properties":{"landuse":"farmland"},"geometry":{"type":"Polygon","coordinates":[[[1.0946,45.8534],[1.0929,45.8551],[1.0932,45.853],[1.0946,45.8534]]]}},{"type":"Feature","properties":{"landuse":"farmland"},"geometry":{"type":"Polygon","coordinates":[[[1.0984,45.8517],[1.0946,45.855],[1.0946,45.8513],[1.0984,45.8517]]]}},{"type":"Feature","properties":{"landuse":"green_public_spaces"},"geometry":{"type":"Polygon","coordinates":[[[1.4987,45.1619],[1.4935,45.1628],[1.4867,45.1582],[1.4987,45.1619]]]}},{"type":"Feature","properties":{"landuse":"farmland"},"geometry":{"type":"Polygon","coordinates":[[[1.1302,45.8563],[1.1315,45.8545],[1.1333,45.8556],[1.1302,45.8563]]]}},{"type":"Feature","properties":{"landuse":"orchard"},"geometry":{"type":"Polygon","coordinates":[[[1.1713,45.4812],[1.1702,45.479],[1.1749,45.4806],[1.1713,45.4812]]]}},{"type":"Feature","properties":{"landuse":"orchard"},"geometry":{"type":"Polygon","coordinates":[[[1.1757,45.48],[1.1735,45.4777],[1.1759,45.4765],[1.1791,45.4791],[1.1757,45.48]]]}},{"type":"Feature","properties":{"landuse":"orchard"},"geometry":{"type":"Polygon","coordinates":[[[1.1784,45.4874],[1.1812,45.4853],[1.1828,45.4873],[1.1784,45.4874]]]}},{"type":"Feature","properties":{"landuse":"orchard"},"geometry":{"type":"Polygon","coordinates":[[[1.1847,45.4836],[1.1903,45.4854],[1.1852,45.4881],[1.1874,45.4859],[1.1847,45.4836]]]}},{"type":"Feature","properties":{"landuse":"green_public_spaces"},"geometry":{"type":"Polygon","coordinates":[[[1.4614,45.1453],[1.4635,45.1462],[1.4608,45.1465],[1.4614,45.1453]]]}},{"type":"Feature","properties":{"landuse":"greenhouse_horticulture"},"geometry":{"type":"Polygon","coordinates":[[[1.1531,45.8129],[1.1541,45.8113],[1.1544,45.8124],[1.1531,45.8129]]]}},{"type":"Feature","properties":{"landuse":"farmland"},"geometry":{"type":"Polygon","coordinates":[[[1.17,45.851],[1.1733,45.8487],[1.1738,45.8511],[1.17,45.851]]]}},{"type":"Feature","properties":{"landuse":"farmland"},"geometry":{"type":"Polygon","coordinates":[[[1.1811,45.8516],[1.1814,45.8544],[1.1778,45.853],[1.1811,45.8516]]]}},{"type":"Feature","properties":{"landuse":"farmland"},"geometry":{"type":"Polygon","coordinates":[[[1.1825,45.8551],[1.1839,45.8525],[1.1842,45.8541],[1.1825,45.8551]]]}},{"type":"Feature","properties":{"landuse":"farmland"},"geometry":{"type":"Polygon","coordinates":[[[1.185,45.8511],[1.1882,45.8508],[1.1851,45.8536],[1.185,45.8511]]]}},{"type":"Feature","properties":{"landuse":"green_public_spaces"},"geometry":{"type":"Polygon","coordinates":[[[1.509,45.1609],[1.508,45.1621],[1.5056,45.162],[1.509,45.1609]]]}},{"type":"Feature","properties":{"landuse":"farmland"},"geometry":{"type":"Polygon","coordinates":[[[1.2431,45.7933],[1.2444,45.791],[1.2453,45.7925],[1.2431,45.7933]]]}},{"type":"Feature","properties":{"landuse":"farmland"},"geometry":{"type":"Polygon","coordinates":[[[1.9519,45.1029],[1.9456,45.0992],[1.9527,45.0983],[1.9501,45.0996],[1.9519,45.1029]]]}},{"type":"Feature","properties":{"landuse":"farmland"},"geometry":{"type":"Polygon","coordinates":[[[1.1423,45.7857],[1.1405,45.7879],[1.1428,45.7892],[1.1367,45.7889],[1.1423,45.7857]]]}},{"type":"Feature","properties":{"landuse":"orchard"},"geometry":{"type":"Polygon","coordinates":[[[1.4969,45.2464],[1.4989,45.2448],[1.5004,45.2454],[1.4969,45.2464]]]}},{"type":"Feature","properties":{"landuse":"orchard"},"geometry":{"type":"Polygon","coordinates":[[[1.4944,45.2468],[1.4953,45.2451],[1.4965,45.2473],[1.4944,45.2468]]]}},{"type":"Feature","properties":{"landuse":"green_public_spaces"},"geometry":{"type":"Polygon","coordinates":[[[1.2668,45.8221],[1.2656,45.8212],[1.2683,45.8233],[1.2668,45.8221]]]}},{"type":"Feature","properties":{"landuse":"farmland"},"geometry":{"type":"Polygon","coordinates":[[[1.5879,45.4365],[1.5879,45.4324],[1.5928,45.4322],[1.5879,45.4365]]]}},{"type":"Feature","properties":{"landuse":"green_public_spaces"},"geometry":{"type":"Polygon","coordinates":[[[1.3686,46.1113],[1.3644,46.1124],[1.365,46.1096],[1.3686,46.1113]]]}},{"type":"Feature","properties":{"landuse":"green_public_spaces"},"geometry":{"type":"Polygon","coordinates":[[[2.2714,45.3837],[2.2738,45.3841],[2.2742,45.3865],[2.2714,45.3837]]]}},{"type":"Feature","properties":{"landuse":"green_public_spaces"},"geometry":{"type":"Polygon","coordinates":[[[1.2568,45.815],[1.2557,45.817],[1.2533,45.8164],[1.2568,45.815]]]}},{"type":"Feature","properties":{"landuse":"green_public_spaces"},"geometry":{"type":"Polygon","coordinates":[[[1.4493,45.1398],[1.4545,45.1443],[1.4509,45.1444],[1.4493,45.1398]]]}},{"type":"Feature","properties":{"landuse":"farmland"},"geometry":{"type":"Polygon","coordinates":[[[2.4728,46.2084],[2.4751,46.2113],[2.4719,46.2122],[2.4728,46.2084]]]}},{"type":"Feature","properties":{"landuse":"farmland"},"geometry":{"type":"Polygon","coordinates":[[[1.5246,46.2463],[1.5253,46.2454],[1.5276,46.2473],[1.5246,46.2463]]]}},{"type":"Feature","properties":{"landuse":"greenhouse_horticulture"},"geometry":{"type":"Polygon","coordinates":[[[1.4598,45.2589],[1.4577,45.2567],[1.4604,45.2568],[1.4598,45.2589]]]}},{"type":"Feature","properties":{"landuse":"farmland"},"geometry":{"type":"Polygon","coordinates":[[[1.2844,45.799],[1.286,45.8011],[1.2839,45.8007],[1.2844,45.799]]]}},{"type":"Feature","properties":{"landuse":"farmland"},"geometry":{"type":"Polygon","coordinates":[[[1.4694,45.0384],[1.4683,45.0384],[1.4713,45.0376],[1.4694,45.0384]]]}},{"type":"Feature","properties":{"landuse":"farmland"},"geometry":{"type":"Polygon","coordinates":[[[1.4714,45.0364],[1.4699,45.0361],[1.4705,45.0343],[1.4714,45.0364]]]}},{"type":"Feature","properties":{"landuse":"farmland"},"geometry":{"type":"Polygon","coordinates":[[[1.4732,45.0354],[1.4708,45.0342],[1.4723,45.0329],[1.4732,45.0354]]]}},{"type":"Feature","properties":{"landuse":"farmland"},"geometry":{"type":"Polygon","coordinates":[[[1.4762,45.0374],[1.4737,45.0379],[1.4728,45.0364],[1.4762,45.0374]]]}},{"type":"Feature","properties":{"landuse":"farmland"},"geometry":{"type":"Polygon","coordinates":[[[1.4963,45.0317],[1.4937,45.0327],[1.4935,45.0321],[1.4963,45.0317]]]}},{"type":"Feature","properties":{"landuse":"farmland"},"geometry":{"type":"Polygon","coordinates":[[[1.4981,45.0331],[1.4945,45.0336],[1.4965,45.0322],[1.4981,45.0331]]]}},{"type":"Feature","properties":{"landuse":"farmland"},"geometry":{"type":"Polygon","coordinates":[[[1.4866,45.0317],[1.4873,45.0308],[1.4881,45.0317],[1.4866,45.0317]]]}},{"type":"Feature","properties":{"landuse":"farmland"},"geometry":{"type":"Polygon","coordinates":[[[1.4873,45.0329],[1.4841,45.0329],[1.4857,45.0317],[1.4873,45.0329]]]}},{"type":"Feature","properties":{"landuse":"farmland"},"geometry":{"type":"Polygon","coordinates":[[[1.5035,45.0209],[1.501,45.0209],[1.502,45.0201],[1.5035,45.0209]]]}},{"type":"Feature","properties":{"landuse":"farmland"},"geometry":{"type":"Polygon","coordinates":[[[1.4972,45.0228],[1.4957,45.0223],[1.4969,45.0215],[1.4972,45.0228]]]}},{"type":"Feature","properties":{"landuse":"farmland"},"geometry":{"type":"Polygon","coordinates":[[[1.4984,45.0185],[1.4972,45.0179],[1.4989,45.0172],[1.4984,45.0185]]]}},{"type":"Feature","properties":{"landuse":"green_public_spaces"},"geometry":{"type":"Polygon","coordinates":[[[1.0574,46.1245],[1.0615,46.1256],[1.0586,46.1259],[1.0574,46.1245]]]}},{"type":"Feature","properties":{"landuse":"green_public_spaces"},"geometry":{"type":"Polygon","coordinates":[[[1.2705,45.8178],[1.2689,45.8191],[1.2703,45.8155],[1.2705,45.8178]]]}},{"type":"Feature","properties":{"landuse":"farmland"},"geometry":{"type":"Polygon","coordinates":[[[1.1851,45.4885],[1.1837,45.4882],[1.1848,45.487],[1.1851,45.4885]]]}},{"type":"Feature","properties":{"landuse":"farmland"},"geometry":{"type":"Polygon","coordinates":[[[1.1849,45.4936],[1.1891,45.491],[1.1905,45.4937],[1.1849,45.4936]]]}},{"type":"Feature","properties":{"landuse":"farmland"},"geometry":{"type":"Polygon","coordinates":[[[1.1877,45.4953],[1.1916,45.4951],[1.1906,45.4965],[1.1877,45.4953]]]}},{"type":"Feature","properties":{"landuse":"farmland"},"geometry":{"type":"Polygon","coordinates":[[[1.1861,45.5023],[1.1856,45.501],[1.1877,45.5021],[1.1861,45.5023]]]}},{"type":"Feature","properties":{"landuse":"farmland"},"geometry":{"type":"Polygon","coordinates":[[[1.5015,46.2312],[1.5029,46.229],[1.5045,46.2306],[1.5015,46.2312]]]}},{"type":"Feature","properties":{"landuse":"farmland"},"geometry":{"type":"Polygon","coordinates":[[[1.1843,45.8581],[1.1831,45.8589],[1.1821,45.8578],[1.1843,45.8581]]]}},{"type":"Feature","properties":{"landuse":"farmland"},"geometry":{"type":"Polygon","coordinates":[[[1.1442,45.8511],[1.1438,45.8492],[1.1498,45.8503],[1.1442,45.8511]]]}},{"type":"Feature","properties":{"landuse":"farmland"},"geometry":{"type":"Polygon","coordinates":[[[1.1423,45.8546],[1.1446,45.8537],[1.1444,45.8555],[1.1423,45.8546]]]}},{"type":"Feature","properties":{"landuse":"vineyard"},"geometry":{"type":"Polygon","coordinates":[[[1.1284,45.8363],[1.127,45.8354],[1.1292,45.8359],[1.1284,45.8363]]]}},{"type":"Feature","properties":{"landuse":"green_public_spaces"},"geometry":{"type":"Polygon","coordinates":[[[2.2914,45.3898],[2.2914,45.3887],[2.2931,45.3893],[2.2914,45.3898]]]}},{"type":"Feature","properties":{"landuse":"orchard"},"geometry":{"type":"Polygon","coordinates":[[[1.6591,45.0562],[1.6618,45.0549],[1.661,45.0572],[1.6591,45.0562]]]}},{"type":"Feature","properties":{"landuse":"farmland"},"geometry":{"type":"Polygon","coordinates":[[[1.3262,45.7786],[1.3279,45.7771],[1.3282,45.7787],[1.3262,45.7786]]]}},{"type":"Feature","properties":{"landuse":"farmland"},"geometry":{"type":"Polygon","coordinates":[[[1.2888,45.781],[1.2894,45.7729],[1.2936,45.7787],[1.2888,45.781]]]}},{"type":"Feature","properties":{"landuse":"farmland"},"geometry":{"type":"Polygon","coordinates":[[[1.3019,45.7811],[1.2985,45.78],[1.3023,45.7801],[1.3019,45.7811]]]}},{"type":"Feature","properties":{"landuse":"farmland"},"geometry":{"type":"Polygon","coordinates":[[[1.2944,45.7614],[1.2916,45.7581],[1.2942,45.7575],[1.2944,45.7614]]]}},{"type":"Feature","properties":{"landuse":"green_public_spaces"},"geometry":{"type":"Polygon","coordinates":[[[1.3332,45.7775],[1.3299,45.7764],[1.3324,45.7758],[1.3332,45.7775]]]}},{"type":"Feature","properties":{"landuse":"farmland"},"geometry":{"type":"Polygon","coordinates":[[[1.766,45.2559],[1.7664,45.2572],[1.765,45.256],[1.766,45.2559]]]}},{"type":"Feature","properties":{"landuse":"green_public_spaces"},"geometry":{"type":"Polygon","coordinates":[[[1.7566,45.2534],[1.7588,45.2526],[1.7599,45.2532],[1.7566,45.2534]]]}},{"type":"Feature","properties":{"landuse":"farmland"},"geometry":{"type":"Polygon","coordinates":[[[1.7484,45.9367],[1.7511,45.9362],[1.7506,45.9376],[1.7484,45.9367]]]}},{"type":"Feature","properties":{"landuse":"farmland"},"geometry":{"type":"Polygon","coordinates":[[[1.7485,45.9376],[1.7502,45.9377],[1.7489,45.9387],[1.7485,45.9376]]]}},{"type":"Feature","properties":{"landuse":"farmland"},"geometry":{"type":"Polygon","coordinates":[[[1.7269,45.9407],[1.7374,45.9379],[1.7348,45.9428],[1.7269,45.9407]]]}},{"type":"Feature","properties":{"landuse":"orchard"},"geometry":{"type":"Polygon","coordinates":[[[1.7232,45.9392],[1.7214,45.9378],[1.7256,45.9365],[1.7232,45.9392]]]}},{"type":"Feature","properties":{"landuse":"farmland"},"geometry":{"type":"Polygon","coordinates":[[[1.7231,45.9373],[1.7221,45.9362],[1.7242,45.9357],[1.7231,45.9373]]]}},{"type":"Feature","properties":{"landuse":"farmland"},"geometry":{"type":"Polygon","coordinates":[[[2.2094,46.3246],[2.2125,46.3236],[2.2107,46.3253],[2.2094,46.3246]]]}},{"type":"Feature","properties":{"landuse":"farmland"},"geometry":{"type":"Polygon","coordinates":[[[2.523,46.1748],[2.5255,46.1751],[2.5231,46.1768],[2.523,46.1748]]]}},{"type":"Feature","properties":{"landuse":"farmland"},"geometry":{"type":"Polygon","coordinates":[[[2.5217,46.1824],[2.5228,46.1806],[2.5245,46.1816],[2.5217,46.1824]]]}},{"type":"Feature","properties":{"landuse":"farmland"},"geometry":{"type":"Polygon","coordinates":[[[2.5253,46.1812],[2.5289,46.1828],[2.5254,46.1827],[2.5253,46.1812]]]}},{"type":"Feature","properties":{"landuse":"farmland"},"geometry":{"type":"Polygon","coordinates":[[[2.524,46.1842],[2.517,46.1836],[2.5182,46.1821],[2.524,46.1842]]]}},{"type":"Feature","properties":{"landuse":"farmland"},"geometry":{"type":"Polygon","coordinates":[[[2.5074,46.1706],[2.5083,46.1689],[2.5102,46.1693],[2.5074,46.1706]]]}},{"type":"Feature","properties":{"landuse":"farmland"},"geometry":{"type":"Polygon","coordinates":[[[1.1786,46.211],[1.1814,46.2102],[1.1828,46.212],[1.1786,46.211]]]}},{"type":"Feature","properties":{"landuse":"farmland"},"geometry":{"type":"Polygon","coordinates":[[[1.1725,46.2109],[1.1775,46.2098],[1.1731,46.212],[1.1725,46.2109]]]}},{"type":"Feature","properties":{"landuse":"farmland"},"geometry":{"type":"Polygon","coordinates":[[[1.5226,45.5342],[1.5248,45.5325],[1.5258,45.5333],[1.5226,45.5342]]]}},{"type":"Feature","properties":{"landuse":"green_public_spaces"},"geometry":{"type":"Polygon","coordinates":[[[2.3011,45.359],[2.3036,45.36],[2.3026,45.3604],[2.3011,45.359]]]}},{"type":"Feature","properties":{"landuse":"farmland"},"geometry":{"type":"Polygon","coordinates":[[[2.3002,45.3578],[2.2982,45.3585],[2.2992,45.3565],[2.3002,45.3578]]]}},{"type":"Feature","properties":{"landuse":"farmland"},"geometry":{"type":"Polygon","coordinates":[[[2.2955,45.36],[2.301,45.359],[2.3011,45.3607],[2.2955,45.36]]]}},{"type":"Feature","properties":{"landuse":"farmland"},"geometry":{"type":"Polygon","coordinates":[[[2.2065,46.3644],[2.2098,46.3659],[2.2061,46.3666],[2.2065,46.3644]]]}},{"type":"Feature","properties":{"landuse":"farmland"},"geometry":{"type":"Polygon","coordinates":[[[2.215,46.3655],[2.2227,46.3638],[2.2235,46.3664],[2.215,46.3655]]]}},{"type":"Feature","properties":{"landuse":"farmland"},"geometry":{"type":"Polygon","coordinates":[[[2.2161,46.3612],[2.2138,46.3616],[2.2147,46.3593],[2.2161,46.3612]]]}},{"type":"Feature","properties":{"landuse":"farmland"},"geometry":{"type":"Polygon","coordinates":[[[2.2161,46.3633],[2.2134,46.3634],[2.2174,46.3612],[2.222,46.3635],[2.2161,46.3633]]]}},{"type":"Feature","properties":{"landuse":"farmland"},"geometry":{"type":"Polygon","coordinates":[[[2.2233,46.3636],[2.2218,46.3631],[2.2219,46.3605],[2.2233,46.3636]]]}},{"type":"Feature","properties":{"landuse":"farmland"},"geometry":{"type":"Polygon","coordinates":[[[2.2237,46.3629],[2.2218,46.3596],[2.2258,46.3614],[2.2237,46.3629]]]}},{"type":"Feature","properties":{"landuse":"farmland"},"geometry":{"type":"Polygon","coordinates":[[[2.2281,46.3606],[2.231,46.3609],[2.2295,46.3615],[2.2281,46.3606]]]}},{"type":"Feature","properties":{"landuse":"farmland"},"geometry":{"type":"Polygon","coordinates":[[[2.2183,46.3619],[2.2174,46.3596],[2.2202,46.3605],[2.2183,46.3619]]]}},{"type":"Feature","properties":{"landuse":"farmland"},"geometry":{"type":"Polygon","coordinates":[[[2.2212,46.3614],[2.2226,46.3624],[2.2195,46.3616],[2.2212,46.3614]]]}},{"type":"Feature","properties":{"landuse":"orchard"},"geometry":{"type":"Polygon","coordinates":[[[2.2133,46.3588],[2.2125,46.3577],[2.2156,46.3571],[2.2133,46.3588]]]}},{"type":"Feature","properties":{"landuse":"farmland"},"geometry":{"type":"Polygon","coordinates":[[[2.2165,46.3599],[2.2148,46.3593],[2.2159,46.3575],[2.2165,46.3599]]]}},{"type":"Feature","properties":{"landuse":"vineyard"},"geometry":{"type":"Polygon","coordinates":[[[2.2173,46.3593],[2.2163,46.3578],[2.218,46.3588],[2.2173,46.3593]]]}},{"type":"Feature","properties":{"landuse":"farmland"},"geometry":{"type":"Polygon","coordinates":[[[2.2077,46.3674],[2.2103,46.3703],[2.205,46.3727],[2.2077,46.3674]]]}},{"type":"Feature","properties":{"landuse":"farmland"},"geometry":{"type":"Polygon","coordinates":[[[2.2276,46.3689],[2.2234,46.3701],[2.2243,46.3651],[2.2276,46.3689]]]}},{"type":"Feature","properties":{"landuse":"farmland"},"geometry":{"type":"Polygon","coordinates":[[[2.2216,46.3698],[2.2158,46.3689],[2.223,46.3666],[2.2216,46.3698]]]}},{"type":"Feature","properties":{"landuse":"farmland"},"geometry":{"type":"Polygon","coordinates":[[[2.2204,46.3696],[2.2153,46.3701],[2.2119,46.3667],[2.213,46.3648],[2.2204,46.3696]]]}},{"type":"Feature","properties":{"landuse":"farmland"},"geometry":{"type":"Polygon","coordinates":[[[2.2217,46.3601],[2.2205,46.3606],[2.2191,46.3588],[2.2217,46.3601]]]}},{"type":"Feature","properties":{"landuse":"farmland"},"geometry":{"type":"Polygon","coordinates":[[[2.2342,46.3585],[2.2358,46.3593],[2.2337,46.3602],[2.2342,46.3585]]]}},{"type":"Feature","properties":{"landuse":"farmland"},"geometry":{"type":"Polygon","coordinates":[[[2.2082,46.3539],[2.2065,46.3532],[2.2072,46.3527],[2.2088,46.3535],[2.2082,46.3539]]]}},{"type":"Feature","properties":{"landuse":"farmland"},"geometry":{"type":"Polygon","coordinates":[[[2.2032,46.3559],[2.206,46.3555],[2.2038,46.3575],[2.2032,46.3559]]]}},{"type":"Feature","properties":{"landuse":"farmland"},"geometry":{"type":"Polygon","coordinates":[[[1.1795,45.8404],[1.1772,45.8389],[1.1797,45.8386],[1.1795,45.8404]]]}},{"type":"Feature","properties":{"landuse":"farmland"},"geometry":{"type":"Polygon","coordinates":[[[1.5037,46.2319],[1.5038,46.2339],[1.5016,46.2335],[1.5037,46.2319]]]}},{"type":"Feature","properties":{"landuse":"farmland"},"geometry":{"type":"Polygon","coordinates":[[[1.3596,46.1358],[1.3609,46.134],[1.3616,46.1361],[1.3596,46.1358]]]}},{"type":"Feature","properties":{"landuse":"farmland"},"geometry":{"type":"Polygon","coordinates":[[[1.5272,45.5618],[1.5266,45.5603],[1.5309,45.5604],[1.5272,45.5618]]]}},{"type":"Feature","properties":{"landuse":"farmland"},"geometry":{"type":"Polygon","coordinates":[[[1.1478,45.7881],[1.1463,45.7918],[1.1448,45.7903],[1.1478,45.7881]]]}},{"type":"Feature","properties":{"landuse":"orchard"},"geometry":{"type":"Polygon","coordinates":[[[1.497,45.2495],[1.4999,45.253],[1.4972,45.2543],[1.4996,45.2532],[1.4936,45.2528],[1.497,45.2495]]]}},{"type":"Feature","properties":{"landuse":"orchard"},"geometry":{"type":"Polygon","coordinates":[[[1.1195,45.8226],[1.1172,45.8217],[1.1199,45.8221],[1.1195,45.8226]]]}},{"type":"Feature","properties":{"landuse":"green_public_spaces"},"geometry":{"type":"Polygon","coordinates":[[[1.3701,46.1117],[1.3719,46.1114],[1.3712,46.1124],[1.3701,46.1117]]]}},{"type":"Feature","properties":{"landuse":"green_public_spaces"},"geometry":{"type":"Polygon","coordinates":[[[2.3022,45.3794],[2.3036,45.3782],[2.3036,45.3791],[2.3022,45.3794]]]}},{"type":"Feature","properties":{"landuse":"farmland"},"geometry":{"type":"Polygon","coordinates":[[[2.1884,45.9556],[2.1784,45.9537],[2.1768,45.9508],[2.1908,45.9507],[2.1884,45.9556]]]}},{"type":"Feature","properties":{"landuse":"farmland"},"geometry":{"type":"Polygon","coordinates":[[[2.1726,45.9448],[2.1733,45.9436],[2.1741,45.944],[2.1726,45.9448]]]}},{"type":"Feature","properties":{"landuse":"farmland"},"geometry":{"type":"Polygon","coordinates":[[[1.4847,46.2231],[1.4865,46.2201],[1.4883,46.2212],[1.4847,46.2231]]]}},{"type":"Feature","properties":{"landuse":"farmland"},"geometry":{"type":"Polygon","coordinates":[[[1.4809,46.2249],[1.4837,46.2238],[1.4837,46.2271],[1.4809,46.2249]]]}},{"type":"Feature","properties":{"landuse":"farmland"},"geometry":{"type":"Polygon","coordinates":[[[1.4843,46.2237],[1.4864,46.2233],[1.488,46.2268],[1.4843,46.2237]]]}},{"type":"Feature","properties":{"landuse":"farmland"},"geometry":{"type":"Polygon","coordinates":[[[1.5031,46.2181],[1.4997,46.2238],[1.4889,46.2211],[1.4929,46.2157],[1.5031,46.2181]]]}},{"type":"Feature","properties":{"landuse":"farmland"},"geometry":{"type":"Polygon","coordinates":[[[1.5037,46.2273],[1.5123,46.2283],[1.5108,46.2298],[1.5037,46.2273]]]}},{"type":"Feature","properties":{"landuse":"farmland"},"geometry":{"type":"Polygon","coordinates":[[[1.5136,46.229],[1.5071,46.2254],[1.5166,46.2248],[1.5136,46.229]]]}},{"type":"Feature","properties":{"landuse":"farmland"},"geometry":{"type":"Polygon","coordinates":[[[1.5114,46.2303],[1.5154,46.2331],[1.5095,46.2308],[1.5114,46.2303]]]}},{"type":"Feature","properties":{"landuse":"farmland"},"geometry":{"type":"Polygon","coordinates":[[[1.5125,46.234],[1.5097,46.2343],[1.5104,46.2321],[1.5125,46.234]]]}},{"type":"Feature","properties":{"landuse":"vineyard"},"geometry":{"type":"Polygon","coordinates":[[[1.1292,45.8359],[1.1283,45.8353],[1.1305,45.8352],[1.1292,45.8359]]]}},{"type":"Feature","properties":{"landuse":"vineyard"},"geometry":{"type":"Polygon","coordinates":[[[1.4732,45.2742],[1.4734,45.2708],[1.4754,45.2723],[1.4732,45.2742]]]}},{"type":"Feature","properties":{"landuse":"vineyard"},"geometry":{"type":"Polygon","coordinates":[[[1.4718,45.272],[1.4697,45.2709],[1.4728,45.271],[1.4718,45.272]]]}},{"type":"Feature","properties":{"landuse":"vineyard"},"geometry":{"type":"Polygon","coordinates":[[[1.47,45.2705],[1.4712,45.273],[1.4683,45.2716],[1.47,45.2705]]]}},{"type":"Feature","properties":{"landuse":"orchard"},"geometry":{"type":"Polygon","coordinates":[[[1.4678,45.2707],[1.4683,45.2712],[1.4668,45.2724],[1.4678,45.2707]]]}},{"type":"Feature","properties":{"landuse":"orchard"},"geometry":{"type":"Polygon","coordinates":[[[1.4607,45.2666],[1.4621,45.2672],[1.4605,45.2672],[1.4607,45.2666]]]}},{"type":"Feature","properties":{"landuse":"orchard"},"geometry":{"type":"Polygon","coordinates":[[[1.4621,45.2667],[1.4635,45.2671],[1.4636,45.268],[1.4621,45.2667]]]}},{"type":"Feature","properties":{"landuse":"orchard"},"geometry":{"type":"Polygon","coordinates":[[[1.4604,45.2656],[1.4626,45.2654],[1.4621,45.2664],[1.4604,45.2656]]]}},{"type":"Feature","properties":{"landuse":"orchard"},"geometry":{"type":"Polygon","coordinates":[[[1.4631,45.2642],[1.4645,45.2639],[1.4638,45.2651],[1.4631,45.2642]]]}},{"type":"Feature","properties":{"landuse":"farmland"},"geometry":{"type":"Polygon","coordinates":[[[0.8848,45.8831],[0.8855,45.8852],[0.8814,45.8843],[0.8848,45.8831]]]}},{"type":"Feature","properties":{"landuse":"farmland"},"geometry":{"type":"Polygon","coordinates":[[[0.8868,45.8832],[0.8844,45.8801],[0.8902,45.8787],[0.8868,45.8832]]]}},{"type":"Feature","properties":{"landuse":"farmland"},"geometry":{"type":"Polygon","coordinates":[[[0.8773,45.8817],[0.8783,45.8795],[0.8823,45.8804],[0.8773,45.8817]]]}},{"type":"Feature","properties":{"landuse":"farmland"},"geometry":{"type":"Polygon","coordinates":[[[0.8824,45.8805],[0.8841,45.8807],[0.8845,45.8822],[0.8824,45.8805]]]}},{"type":"Feature","properties":{"landuse":"farmland"},"geometry":{"type":"Polygon","coordinates":[[[0.8909,45.8777],[0.8933,45.8686],[0.8964,45.8775],[0.8909,45.8777]]]}},{"type":"Feature","properties":{"landuse":"farmland"},"geometry":{"type":"Polygon","coordinates":[[[1.2128,45.8504],[1.2154,45.8465],[1.2155,45.8505],[1.2128,45.8504]]]}},{"type":"Feature","properties":{"landuse":"farmland"},"geometry":{"type":"Polygon","coordinates":[[[1.1787,45.8438],[1.1838,45.8437],[1.176,45.8469],[1.1787,45.8438]]]}},{"type":"Feature","properties":{"landuse":"farmland"},"geometry":{"type":"Polygon","coordinates":[[[1.1821,45.8478],[1.1854,45.8482],[1.1828,45.85],[1.1821,45.8478]]]}},{"type":"Feature","properties":{"landuse":"farmland"},"geometry":{"type":"Polygon","coordinates":[[[1.1677,45.8485],[1.1702,45.8475],[1.1713,45.8492],[1.1677,45.8485]]]}},{"type":"Feature","properties":{"landuse":"farmland"},"geometry":{"type":"Polygon","coordinates":[[[1.1681,45.8433],[1.1736,45.8417],[1.1759,45.8441],[1.1687,45.8478],[1.1709,45.8457],[1.1681,45.8433]]]}},{"type":"Feature","properties":{"landuse":"green_public_spaces"},"geometry":{"type":"Polygon","coordinates":[[[1.2019,45.8477],[1.2038,45.8476],[1.2029,45.8489],[1.2019,45.8477]]]}},{"type":"Feature","properties":{"landuse":"farmland"},"geometry":{"type":"Polygon","coordinates":[[[1.1863,46.1928],[1.1897,46.1902],[1.1899,46.1921],[1.1863,46.1928]]]}},{"type":"Feature","properties":{"landuse":"green_public_spaces"},"geometry":{"type":"Polygon","coordinates":[[[1.2622,45.8193],[1.259,45.8186],[1.2555,45.8171],[1.2622,45.8193]]]}},{"type":"Feature","properties":{"landuse":"farmland"},"geometry":{"type":"Polygon","coordinates":[[[1.1917,45.8522],[1.1925,45.8504],[1.1959,45.8526],[1.1917,45.8522]]]}},{"type":"Feature","properties":{"landuse":"farmland"},"geometry":{"type":"Polygon","coordinates":[[[1.2078,45.8555],[1.2093,45.8547],[1.2085,45.8567],[1.2078,45.8555]]]}},{"type":"Feature","properties":{"landuse":"farmland"},"geometry":{"type":"Polygon","coordinates":[[[1.2087,45.8574],[1.2136,45.8558],[1.2092,45.8591],[1.2087,45.8574]]]}},{"type":"Feature","properties":{"landuse":"farmland"},"geometry":{"type":"Polygon","coordinates":[[[1.1959,45.8597],[1.1974,45.8582],[1.1951,45.8581],[1.1989,45.8572],[1.1959,45.8597]]]}},{"type":"Feature","properties":{"landuse":"farmland"},"geometry":{"type":"Polygon","coordinates":[[[1.2048,45.8597],[1.2062,45.859],[1.2069,45.8601],[1.2048,45.8597]]]}},{"type":"Feature","properties":{"landuse":"farmland"},"geometry":{"type":"Polygon","coordinates":[[[1.2159,45.8539],[1.2176,45.8546],[1.2158,45.8558],[1.2159,45.8539]]]}},{"type":"Feature","properties":{"landuse":"farmland"},"geometry":{"type":"Polygon","coordinates":[[[1.369,46.1375],[1.371,46.1355],[1.3699,46.138],[1.369,46.1375]]]}},{"type":"Feature","properties":{"landuse":"farmland"},"geometry":{"type":"Polygon","coordinates":[[[1.1871,45.8597],[1.1888,45.859],[1.1852,45.8601],[1.1871,45.8597]]]}},{"type":"Feature","properties":{"landuse":"farmland"},"geometry":{"type":"Polygon","coordinates":[[[1.191,45.8605],[1.1913,45.8581],[1.1937,45.8596],[1.191,45.8605]]]}},{"type":"Feature","properties":{"landuse":"farmland"},"geometry":{"type":"Polygon","coordinates":[[[1.1174,45.7955],[1.1184,45.7926],[1.1215,45.7938],[1.1174,45.7955]]]}},{"type":"Feature","properties":{"landuse":"farmland"},"geometry":{"type":"Polygon","coordinates":[[[1.3677,46.1367],[1.3688,46.1374],[1.3677,46.1388],[1.3677,46.1367]]]}},{"type":"Feature","properties":{"landuse":"farmland"},"geometry":{"type":"Polygon","coordinates":[[[1.3684,46.1414],[1.3694,46.1393],[1.3707,46.1392],[1.3696,46.1414],[1.3684,46.1414]]]}},{"type":"Feature","properties":{"landuse":"farmland"},"geometry":{"type":"Polygon","coordinates":[[[1.0679,46.1332],[1.0692,46.1317],[1.0695,46.1338],[1.0679,46.1332]]]}},{"type":"Feature","properties":{"landuse":"farmland"},"geometry":{"type":"Polygon","coordinates":[[[1.0679,46.1332],[1.0731,46.1327],[1.0702,46.1346],[1.0679,46.1332]]]}},{"type":"Feature","properties":{"landuse":"farmland"},"geometry":{"type":"Polygon","coordinates":[[[1.074,46.1072],[1.0758,46.1053],[1.0764,46.1073],[1.074,46.1072]]]}},{"type":"Feature","properties":{"landuse":"green_public_spaces"},"geometry":{"type":"Polygon","coordinates":[[[1.368,46.1103],[1.3674,46.1114],[1.3656,46.1101],[1.368,46.1103]]]}},{"type":"Feature","properties":{"landuse":"farmland"},"geometry":{"type":"Polygon","coordinates":[[[1.9034,46.1946],[1.9058,46.1955],[1.9041,46.1958],[1.9034,46.1946]]]}},{"type":"Feature","properties":{"landuse":"farmland"},"geometry":{"type":"Polygon","coordinates":[[[1.9026,46.1987],[1.904,46.198],[1.9042,46.1988],[1.9026,46.1987]]]}},{"type":"Feature","properties":{"landuse":"farmland"},"geometry":{"type":"Polygon","coordinates":[[[1.908,46.1938],[1.9068,46.1909],[1.9118,46.1928],[1.908,46.1938]]]}},{"type":"Feature","properties":{"landuse":"farmland"},"geometry":{"type":"Polygon","coordinates":[[[1.8928,46.1884],[1.8935,46.1895],[1.8913,46.189],[1.8928,46.1884]]]}},{"type":"Feature","properties":{"landuse":"farmland"},"geometry":{"type":"Polygon","coordinates":[[[1.8937,46.1919],[1.8923,46.1873],[1.8956,46.1889],[1.8937,46.1919]]]}},{"type":"Feature","properties":{"landuse":"farmland"},"geometry":{"type":"Polygon","coordinates":[[[1.8894,46.1736],[1.8902,46.172],[1.8914,46.1723],[1.8894,46.1736]]]}},{"type":"Feature","properties":{"landuse":"farmland"},"geometry":{"type":"Polygon","coordinates":[[[1.8919,46.1739],[1.8916,46.1748],[1.8898,46.1749],[1.8919,46.1739]]]}},{"type":"Feature","properties":{"landuse":"farmland"},"geometry":{"type":"Polygon","coordinates":[[[1.8964,46.1719],[1.8923,46.1733],[1.8947,46.1711],[1.8964,46.1719]]]}},{"type":"Feature","properties":{"landuse":"green_public_spaces"},"geometry":{"type":"Polygon","coordinates":[[[1.8818,46.1762],[1.8825,46.1753],[1.8832,46.1766],[1.8818,46.1762]]]}},{"type":"Feature","properties":{"landuse":"farmland"},"geometry":{"type":"Polygon","coordinates":[[[1.1208,45.7802],[1.1236,45.7794],[1.1221,45.7836],[1.1208,45.7802]]]}},{"type":"Feature","properties":{"landuse":"green_public_spaces"},"geometry":{"type":"Polygon","coordinates":[[[1.6708,45.0541],[1.6698,45.0543],[1.669,45.0525],[1.6708,45.0541]]]}},{"type":"Feature","properties":{"landuse":"green_public_spaces"},"geometry":{"type":"Polygon","coordinates":[[[1.1718,45.8387],[1.1713,45.8378],[1.1723,45.8375],[1.1718,45.8387]]]}},{"type":"Feature","properties":{"landuse":"green_public_spaces"},"geometry":{"type":"Polygon","coordinates":[[[2.297,45.3982],[2.2979,45.397],[2.298,45.3979],[2.297,45.3982]]]}},{"type":"Feature","properties":{"landuse":"green_public_spaces"},"geometry":{"type":"Polygon","coordinates":[[[2.3044,45.396],[2.301,45.3952],[2.3042,45.3952],[2.3044,45.396]]]}},{"type":"Feature","properties":{"landuse":"green_public_spaces"},"geometry":{"type":"Polygon","coordinates":[[[2.3074,45.3963],[2.3068,45.394],[2.3079,45.3943],[2.3074,45.3963]]]}},{"type":"Feature","properties":{"landuse":"green_public_spaces"},"geometry":{"type":"Polygon","coordinates":[[[2.3059,45.3985],[2.3051,45.3966],[2.307,45.396],[2.3059,45.3985]]]}},{"type":"Feature","properties":{"landuse":"green_public_spaces"},"geometry":{"type":"Polygon","coordinates":[[[2.3038,45.3967],[2.3018,45.3959],[2.3039,45.3961],[2.3038,45.3967]]]}},{"type":"Feature","properties":{"landuse":"green_public_spaces"},"geometry":{"type":"Polygon","coordinates":[[[2.3051,45.3963],[2.3049,45.3981],[2.3038,45.3967],[2.3051,45.3963]]]}},{"type":"Feature","properties":{"landuse":"farmland"},"geometry":{"type":"Polygon","coordinates":[[[1.4088,45.4405],[1.4065,45.442],[1.4047,45.4377],[1.4088,45.4405]]]}},{"type":"Feature","properties":{"landuse":"farmland"},"geometry":{"type":"Polygon","coordinates":[[[1.9048,45.0798],[1.9029,45.0797],[1.9037,45.0788],[1.9048,45.0798]]]}},{"type":"Feature","properties":{"landuse":"farmland"},"geometry":{"type":"Polygon","coordinates":[[[1.9088,45.0718],[1.9065,45.0688],[1.91,45.0693],[1.9088,45.0718]]]}},{"type":"Feature","properties":{"landuse":"farmland"},"geometry":{"type":"Polygon","coordinates":[[[1.9076,45.0728],[1.9065,45.0735],[1.9054,45.0726],[1.9076,45.0728]]]}},{"type":"Feature","properties":{"landuse":"green_public_spaces"},"geometry":{"type":"Polygon","coordinates":[[[0.8883,45.8922],[0.8874,45.8904],[0.8894,45.8898],[0.8883,45.8922]]]}},{"type":"Feature","properties":{"landuse":"farmland"},"geometry":{"type":"Polygon","coordinates":[[[1.9184,45.071],[1.9172,45.0695],[1.9207,45.0677],[1.9184,45.071]]]}},{"type":"Feature","properties":{"landuse":"farmland"},"geometry":{"type":"Polygon","coordinates":[[[1.9225,45.0765],[1.9264,45.0746],[1.9263,45.0766],[1.9225,45.0765]]]}},{"type":"Feature","properties":{"landuse":"farmland"},"geometry":{"type":"Polygon","coordinates":[[[1.9348,45.0774],[1.9353,45.076],[1.9365,45.0777],[1.9348,45.0774]]]}},{"type":"Feature","properties":{"landuse":"farmland"},"geometry":{"type":"Polygon","coordinates":[[[1.9363,45.0877],[1.9364,45.0889],[1.9352,45.088],[1.9363,45.0877]]]}},{"type":"Feature","properties":{"landuse":"farmland"},"geometry":{"type":"Polygon","coordinates":[[[1.9364,45.0877],[1.9385,45.0861],[1.94,45.0873],[1.9364,45.0877]]]}},{"type":"Feature","properties":{"landuse":"green_public_spaces"},"geometry":{"type":"Polygon","coordinates":[[[1.2198,45.484],[1.2176,45.4837],[1.2199,45.4832],[1.2198,45.484]]]}},{"type":"Feature","properties":{"landuse":"farmland"},"geometry":{"type":"Polygon","coordinates":[[[1.9401,45.0827],[1.9413,45.0839],[1.9383,45.0849],[1.9401,45.0827]]]}},{"type":"Feature","properties":{"landuse":"farmland"},"geometry":{"type":"Polygon","coordinates":[[[1.9358,45.0768],[1.936,45.0745],[1.937,45.0758],[1.9358,45.0768]]]}},{"type":"Feature","properties":{"landuse":"farmland"},"geometry":{"type":"Polygon","coordinates":[[[1.9356,45.0731],[1.9355,45.0748],[1.9331,45.0741],[1.9356,45.0731]]]}},{"type":"Feature","properties":{"landuse":"farmland"},"geometry":{"type":"Polygon","coordinates":[[[1.9307,45.0717],[1.9326,45.0705],[1.9325,45.0722],[1.9307,45.0717]]]}},{"type":"Feature","properties":{"landuse":"green_public_spaces"},"geometry":{"type":"Polygon","coordinates":[[[1.454,45.2498],[1.4548,45.2485],[1.4562,45.249],[1.454,45.2498]]]}},{"type":"Feature","properties":{"landuse":"orchard"},"geometry":{"type":"Polygon","coordinates":[[[1.6604,45.0177],[1.6593,45.0148],[1.6615,45.0137],[1.6604,45.0177]]]}},{"type":"Feature","properties":{"landuse":"farmland"},"geometry":{"type":"Polygon","coordinates":[[[1.933,45.0741],[1.9306,45.0734],[1.9339,45.0727],[1.933,45.0741]]]}},{"type":"Feature","properties":{"landuse":"farmland"},"geometry":{"type":"Polygon","coordinates":[[[1.9345,45.0746],[1.9354,45.0759],[1.9338,45.0756],[1.9345,45.0746]]]}},{"type":"Feature","properties":{"landuse":"orchard"},"geometry":{"type":"Polygon","coordinates":[[[1.5738,45.4102],[1.5692,45.4122],[1.5704,45.4088],[1.5738,45.4102]]]}},{"type":"Feature","properties":{"landuse":"orchard"},"geometry":{"type":"Polygon","coordinates":[[[1.5533,45.4083],[1.5506,45.4101],[1.5506,45.4088],[1.5533,45.4083]]]}},{"type":"Feature","properties":{"landuse":"orchard"},"geometry":{"type":"Polygon","coordinates":[[[1.5672,45.4068],[1.5704,45.4082],[1.569,45.409],[1.5672,45.4068]]]}},{"type":"Feature","properties":{"landuse":"farmland"},"geometry":{"type":"Polygon","coordinates":[[[1.5725,45.4105],[1.5719,45.41],[1.5732,45.4092],[1.5725,45.4105]]]}},{"type":"Feature","properties":{"landuse":"orchard"},"geometry":{"type":"Polygon","coordinates":[[[1.5735,45.3949],[1.5714,45.3944],[1.5713,45.3933],[1.5735,45.3949]]]}},{"type":"Feature","properties":{"landuse":"orchard"},"geometry":{"type":"Polygon","coordinates":[[[1.4224,45.4433],[1.4196,45.4418],[1.4226,45.4419],[1.4224,45.4433]]]}},{"type":"Feature","properties":{"landuse":"farmland"},"geometry":{"type":"Polygon","coordinates":[[[1.4194,45.4512],[1.4178,45.4521],[1.4184,45.4498],[1.4194,45.4512]]]}},{"type":"Feature","properties":{"landuse":"orchard"},"geometry":{"type":"Polygon","coordinates":[[[1.397,45.3915],[1.3979,45.3905],[1.3991,45.3914],[1.397,45.3915]]]}},{"type":"Feature","properties":{"landuse":"farmland"},"geometry":{"type":"Polygon","coordinates":[[[1.4177,45.2527],[1.4172,45.2512],[1.4183,45.2515],[1.4177,45.2527]]]}},{"type":"Feature","properties":{"landuse":"farmland"},"geometry":{"type":"Polygon","coordinates":[[[1.4616,45.1663],[1.4648,45.1633],[1.4637,45.167],[1.4616,45.1663]]]}},{"type":"Feature","properties":{"landuse":"farmland"},"geometry":{"type":"Polygon","coordinates":[[[1.4636,45.1685],[1.4667,45.171],[1.4631,45.1698],[1.4636,45.1685]]]}},{"type":"Feature","properties":{"landuse":"farmland"},"geometry":{"type":"Polygon","coordinates":[[[1.4721,45.1825],[1.47,45.1783],[1.4739,45.181],[1.4721,45.1825]]]}},{"type":"Feature","properties":{"landuse":"green_public_spaces"},"geometry":{"type":"Polygon","coordinates":[[[1.458,45.1878],[1.4554,45.1889],[1.4551,45.1863],[1.4582,45.1855],[1.458,45.1878]]]}},{"type":"Feature","properties":{"landuse":"farmland"},"geometry":{"type":"Polygon","coordinates":[[[0.8761,45.8884],[0.8817,45.8887],[0.8811,45.8915],[0.8727,45.8902],[0.8761,45.8884]]]}},{"type":"Feature","properties":{"landuse":"farmland"},"geometry":{"type":"Polygon","coordinates":[[[1.1053,45.8146],[1.1102,45.8162],[1.1057,45.8173],[1.1053,45.8146]]]}},{"type":"Feature","properties":{"landuse":"farmland"},"geometry":{"type":"Polygon","coordinates":[[[1.106,45.8224],[1.1087,45.822],[1.1092,45.8248],[1.106,45.8224]]]}},{"type":"Feature","properties":{"landuse":"farmland"},"geometry":{"type":"Polygon","coordinates":[[[1.1768,45.8655],[1.1794,45.8638],[1.179,45.8661],[1.1768,45.8655]]]}},{"type":"Feature","properties":{"landuse":"farmland"},"geometry":{"type":"Polygon","coordinates":[[[1.1747,45.8678],[1.1764,45.8691],[1.1693,45.8706],[1.1747,45.8678]]]}},{"type":"Feature","properties":{"landuse":"farmland"},"geometry":{"type":"Polygon","coordinates":[[[1.1741,45.8732],[1.1734,45.872],[1.1761,45.8716],[1.1741,45.8732]]]}},{"type":"Feature","properties":{"landuse":"farmland"},"geometry":{"type":"Polygon","coordinates":[[[1.1572,45.8633],[1.1568,45.8611],[1.1619,45.8615],[1.1572,45.8633]]]}},{"type":"Feature","properties":{"landuse":"farmland"},"geometry":{"type":"Polygon","coordinates":[[[1.1561,45.8619],[1.1549,45.8639],[1.1528,45.8632],[1.1561,45.8619]]]}},{"type":"Feature","properties":{"landuse":"farmland"},"geometry":{"type":"Polygon","coordinates":[[[1.1558,45.8648],[1.1616,45.8638],[1.1623,45.8643],[1.1558,45.8648]]]}},{"type":"Feature","properties":{"landuse":"farmland"},"geometry":{"type":"Polygon","coordinates":[[[2.4692,45.6525],[2.4706,45.6532],[2.4686,45.6552],[2.4692,45.6525]]]}},{"type":"Feature","properties":{"landuse":"farmland"},"geometry":{"type":"Polygon","coordinates":[[[2.4675,45.6548],[2.4678,45.6558],[2.4654,45.6564],[2.4675,45.6548]]]}},{"type":"Feature","properties":{"landuse":"farmland"},"geometry":{"type":"Polygon","coordinates":[[[1.1315,45.7849],[1.1279,45.7853],[1.1291,45.7833],[1.1315,45.7849]]]}},{"type":"Feature","properties":{"landuse":"green_public_spaces"},"geometry":{"type":"Polygon","coordinates":[[[2.1383,45.5305],[2.1372,45.5297],[2.1394,45.5293],[2.1383,45.5305]]]}},{"type":"Feature","properties":{"landuse":"farmland"},"geometry":{"type":"Polygon","coordinates":[[[2.2582,45.3924],[2.2571,45.3937],[2.2567,45.3915],[2.2582,45.3924]]]}},{"type":"Feature","properties":{"landuse":"farmland"},"geometry":{"type":"Polygon","coordinates":[[[2.0461,45.4194],[2.0509,45.4195],[2.0465,45.4212],[2.0461,45.4194]]]}},{"type":"Feature","properties":{"landuse":"farmland"},"geometry":{"type":"Polygon","coordinates":[[[1.6534,45.062],[1.6518,45.0607],[1.6539,45.0612],[1.6534,45.062]]]}},{"type":"Feature","properties":{"landuse":"orchard"},"geometry":{"type":"Polygon","coordinates":[[[1.6445,45.0398],[1.6458,45.0412],[1.6443,45.0419],[1.6445,45.0398]]]}},{"type":"Feature","properties":{"landuse":"orchard"},"geometry":{"type":"Polygon","coordinates":[[[1.6506,45.0397],[1.6527,45.0402],[1.6493,45.0415],[1.6506,45.0397]]]}},{"type":"Feature","properties":{"landuse":"orchard"},"geometry":{"type":"Polygon","coordinates":[[[1.6452,45.045],[1.6427,45.0456],[1.6414,45.0435],[1.6452,45.045]]]}},{"type":"Feature","properties":{"landuse":"orchard"},"geometry":{"type":"Polygon","coordinates":[[[1.6467,45.0393],[1.6483,45.0386],[1.6482,45.0396],[1.6504,45.0398],[1.6467,45.0393]]]}},{"type":"Feature","properties":{"landuse":"farmland"},"geometry":{"type":"Polygon","coordinates":[[[1.1322,45.7917],[1.1327,45.7898],[1.1338,45.7907],[1.1322,45.7917]]]}},{"type":"Feature","properties":{"landuse":"farmland"},"geometry":{"type":"Polygon","coordinates":[[[1.1484,45.8105],[1.1504,45.8096],[1.1527,45.8121],[1.1484,45.8105]]]}},{"type":"Feature","properties":{"landuse":"farmland"},"geometry":{"type":"Polygon","coordinates":[[[1.1527,45.8121],[1.1503,45.8136],[1.1501,45.8112],[1.1527,45.8121]]]}},{"type":"Feature","properties":{"landuse":"farmland"},"geometry":{"type":"Polygon","coordinates":[[[1.1544,45.8124],[1.1522,45.8081],[1.1562,45.8108],[1.1544,45.8124]]]}},{"type":"Feature","properties":{"landuse":"farmland"},"geometry":{"type":"Polygon","coordinates":[[[2.4546,46.1718],[2.4528,46.1704],[2.4583,46.1683],[2.4646,46.1717],[2.4596,46.1756],[2.4546,46.1718]]]}},{"type":"Feature","properties":{"landuse":"farmland"},"geometry":{"type":"Polygon","coordinates":[[[2.4572,46.1774],[2.4634,46.1761],[2.4631,46.1787],[2.4572,46.1774]]]}},{"type":"Feature","properties":{"landuse":"farmland"},"geometry":{"type":"Polygon","coordinates":[[[2.5036,46.1853],[2.5011,46.1857],[2.5003,46.1834],[2.5036,46.1853]]]}},{"type":"Feature","properties":{"landuse":"farmland"},"geometry":{"type":"Polygon","coordinates":[[[2.5071,46.1695],[2.5141,46.1715],[2.5151,46.1764],[2.5094,46.1752],[2.5071,46.1695]]]}},{"type":"Feature","properties":{"landuse":"farmland"},"geometry":{"type":"Polygon","coordinates":[[[2.495,46.1677],[2.4957,46.172],[2.493,46.1706],[2.495,46.1677]]]}},{"type":"Feature","properties":{"landuse":"orchard"},"geometry":{"type":"Polygon","coordinates":[[[1.6441,45.0232],[1.6473,45.0232],[1.6464,45.0238],[1.6441,45.0232]]]}},{"type":"Feature","properties":{"landuse":"farmland"},"geometry":{"type":"Polygon","coordinates":[[[1.6432,45.0264],[1.6425,45.0234],[1.6433,45.0222],[1.6432,45.0264]]]}},{"type":"Feature","properties":{"landuse":"farmland"},"geometry":{"type":"Polygon","coordinates":[[[1.64,45.0218],[1.6424,45.0197],[1.64,45.0246],[1.64,45.0218]]]}},{"type":"Feature","properties":{"landuse":"farmland"},"geometry":{"type":"Polygon","coordinates":[[[1.6309,45.0395],[1.6307,45.0371],[1.6323,45.0374],[1.6309,45.0395]]]}},{"type":"Feature","properties":{"landuse":"orchard"},"geometry":{"type":"Polygon","coordinates":[[[1.6406,45.0328],[1.6413,45.0312],[1.6416,45.033],[1.6406,45.0328]]]}},{"type":"Feature","properties":{"landuse":"orchard"},"geometry":{"type":"Polygon","coordinates":[[[1.6409,45.0338],[1.6412,45.0351],[1.64,45.0346],[1.6409,45.0338]]]}},{"type":"Feature","properties":{"landuse":"orchard"},"geometry":{"type":"Polygon","coordinates":[[[1.6467,45.0334],[1.6477,45.0348],[1.646,45.0353],[1.6467,45.0334]]]}},{"type":"Feature","properties":{"landuse":"farmland"},"geometry":{"type":"Polygon","coordinates":[[[1.2451,45.8067],[1.2426,45.8085],[1.2409,45.807],[1.2451,45.8067]]]}}]}