{"type":"FeatureCollection","features":[{"type":"Feature","properties":{"landuse":"green_public_spaces"},"geometry":{"type":"Polygon","coordinates":[[[55.2807,-21.0083],[55.2835,-21.0103],[55.2994,-21.0062],[55.309,-20.9933],[55.3003,-20.9921],[55.2969,-20.988],[55.2896,-20.9899],[55.2815,-20.9852],[55.2806,-20.9904],[55.2836,-20.9884],[55.288,-20.991],[55.273,-21.0142],[55.2827,-21.0109],[55.2807,-21.0083]]]}},{"type":"Feature","properties":{"landuse":"farmland"},"geometry":{"type":"MultiPolygon","coordinates":[[[[55.3041,-20.9962],[55.3065,-20.9935],[55.3039,-20.9923],[55.3041,-20.9962]]],[[[55.2989,-21.0064],[55.2997,-21.0041],[55.292,-21.0064],[55.2989,-21.0064]]],[[[55.2811,-21.008],[55.2797,-21.0069],[55.2795,-21.009],[55.2811,-21.008]]],[[[55.2752,-21.0128],[55.2743,-21.013],[55.2746,-21.0136],[55.2752,-21.0128]]]]}},{"type":"Feature","properties":{"landuse":"farmland"},"geometry":{"type":"Polygon","coordinates":[[[55.3023,-20.9904],[55.3086,-20.9907],[55.31,-20.9837],[55.315,-20.9809],[55.2953,-20.9802],[55.3023,-20.9904]]]}},{"type":"Feature","properties":{"landuse":"green_public_spaces"},"geometry":{"type":"Polygon","coordinates":[[[55.2875,-20.9906],[55.2868,-20.9891],[55.2852,-20.9891],[55.2875,-20.9906]]]}},{"type":"Feature","properties":{"landuse":"farmland"},"geometry":{"type":"Polygon","coordinates":[[[55.2967,-20.9785],[55.2983,-20.9785],[55.2971,-20.977],[55.2967,-20.9785]]]}},{"type":"Feature","properties":{"landuse":"farmland"},"geometry":{"type":"Polygon","coordinates":[[[55.301,-20.9774],[55.2999,-20.9794],[55.3052,-20.98],[55.301,-20.9774]]]}},{"type":"Feature","properties":{"landuse":"green_public_spaces"},"geometry":{"type":"Polygon","coordinates":[[[55.4722,-21.3437],[55.472,-21.3443],[55.4737,-21.3443],[55.4722,-21.3437]],[[55.4724,-21.3439],[55.4726,-21.3439],[55.4724,-21.3441],[55.4724,-21.3439]]]}},{"type":"Feature","properties":{"landuse":"green_public_spaces"},"geometry":{"type":"Polygon","coordinates":[[[55.4609,-21.3412],[55.4578,-21.3378],[55.4571,-21.3385],[55.4609,-21.3412]]]}},{"type":"Feature","properties":{"landuse":"farmland"},"geometry":{"type":"MultiPolygon","coordinates":[[[[55.5709,-20.9364],[55.57,-20.9341],[55.5692,-20.9416],[55.5709,-20.9364]]],[[[55.5728,-20.9249],[55.5712,-20.9401],[55.565,-20.9478],[55.5687,-20.9439],[55.5689,-20.935],[55.5647,-20.9391],[55.57,-20.9322],[55.5718,-20.9216],[55.5717,-20.9118],[55.5677,-20.9104],[55.5675,-20.9132],[55.5657,-20.909],[55.5728,-20.9078],[55.5763,-20.9018],[55.5715,-20.8984],[55.5672,-20.9036],[55.5673,-20.8983],[55.5626,-20.8985],[55.5596,-20.9051],[55.5558,-20.9033],[55.5594,-20.9112],[55.5565,-20.9232],[55.5617,-20.927],[55.5585,-20.9307],[55.5622,-20.9451],[55.5601,-20.9445],[55.5602,-20.9512],[55.5648,-20.9484],[55.5612,-20.9542],[55.5664,-20.954],[55.568,-20.9574],[55.5786,-20.9507],[55.5772,-20.9557],[55.5744,-20.9585],[55.5759,-20.9553],[55.5719,-20.9567],[55.5683,-20.9634],[55.5768,-20.9607],[55.5843,-20.9477],[55.5809,-20.9591],[55.5839,-20.9556],[55.5874,-20.9602],[55.5819,-20.9715],[55.5928,-20.9567],[55.5894,-20.9597],[55.5912,-20.9547],[55.5887,-20.9546],[55.5928,-20.9499],[55.6012,-20.9453],[55.5982,-20.95],[55.6156,-20.9496],[55.6254,-20.9442],[55.6137,-20.9451],[55.6218,-20.9371],[55.6177,-20.9412],[55.6152,-20.9415],[55.6198,-20.9365],[55.6122,-20.9383],[55.6234,-20.9315],[55.6219,-20.9356],[55.6277,-20.9375],[55.6257,-20.9405],[55.633,-20.9367],[55.6284,-20.9378],[55.6336,-20.9338],[55.6323,-20.9316],[55.6357,-20.934],[55.6298,-20.9262],[55.6337,-20.9249],[55.6397,-20.93],[55.6499,-20.9277],[55.6518,-20.9302],[55.6527,-20.9256],[55.6578,-20.9248],[55.652,-20.9191],[55.6452,-20.9201],[55.6422,-20.9165],[55.6302,-20.9172],[55.6298,-20.915],[55.6259,-20.9174],[55.6172,-20.9152],[55.617,-20.9109],[55.6151,-20.9147],[55.6084,-20.9075],[55.604,-20.9108],[55.6058,-20.9083],[55.6017,-20.9082],[55.6053,-20.9125],[55.5994,-20.9066],[55.5964,-20.9131],[55.5931,-20.9124],[55.5957,-20.9065],[55.5992,-20.9065],[55.5957,-20.9028],[55.597,-20.8985],[55.5903,-20.896],[55.587,-20.8992],[55.5744,-20.8941],[55.5723,-20.8975],[55.5749,-20.8957],[55.5779,-20.9017],[55.5725,-20.9167],[55.579,-20.9292],[55.5746,-20.929],[55.5728,-20.9249]],[[55.5852,-20.9235],[55.5888,-20.9219],[55.5905,-20.9252],[55.5862,-20.9273],[55.5829,-20.9372],[55.578,-20.9248],[55.5817,-20.925],[55.5813,-20.9188],[55.5852,-20.9235]],[[55.6519,-20.9241],[55.6506,-20.9239],[55.6524,-20.9233],[55.6519,-20.9241]],[[55.5893,-20.9491],[55.601,-20.9428],[55.5855,-20.9541],[55.5893,-20.9491]],[[55.5632,-20.917],[55.5665,-20.9278],[55.5636,-20.943],[55.566,-20.9324],[55.5632,-20.9206],[55.5607,-20.9224],[55.5632,-20.917]],[[55.611,-20.9222],[55.6135,-20.9186],[55.6199,-20.9191],[55.6188,-20.9222],[55.6145,-20.9196],[55.6031,-20.9392],[55.6037,-20.9341],[55.6086,-20.9298],[55.6,-20.9334],[55.5999,-20.9286],[55.6052,-20.9229],[55.611,-20.9222]],[[55.5756,-20.931],[55.5798,-20.9307],[55.5757,-20.9326],[55.5756,-20.931]],[[55.579,-20.9096],[55.5794,-20.9176],[55.5775,-20.9156],[55.579,-20.9096]],[[55.6031,-20.9134],[55.6077,-20.915],[55.6006,-20.9178],[55.6003,-20.914],[55.6031,-20.9134]],[[55.5873,-20.9083],[55.5886,-20.9065],[55.5862,-20.9122],[55.5817,-20.9115],[55.5821,-20.9082],[55.5873,-20.9083]],[[55.5942,-20.9152],[55.5972,-20.9166],[55.5952,-20.9176],[55.5942,-20.9152]],[[55.5911,-20.929],[55.5935,-20.93],[55.5992,-20.9192],[55.6065,-20.9193],[55.6033,-20.9195],[55.6033,-20.9239],[55.5979,-20.9254],[55.5902,-20.9395],[55.5894,-20.9376],[55.5887,-20.9479],[55.5851,-20.9471],[55.5851,-20.9356],[55.5911,-20.929]]]]}},{"type":"Feature","properties":{"landuse":"farmland"},"geometry":{"type":"Polygon","coordinates":[[[55.8258,-21.182],[55.8322,-21.1771],[55.8218,-21.1748],[55.8257,-21.1723],[55.8238,-21.1637],[55.8282,-21.1647],[55.8267,-21.1748],[55.8312,-21.1744],[55.8309,-21.1658],[55.8251,-21.1627],[55.8303,-21.1609],[55.8301,-21.1569],[55.8241,-21.1576],[55.8268,-21.1613],[55.8162,-21.16],[55.8072,-21.1645],[55.8121,-21.1621],[55.8043,-21.1714],[55.8137,-21.1706],[55.8058,-21.1727],[55.8187,-21.1749],[55.8101,-21.1766],[55.8097,-21.1829],[55.8052,-21.1843],[55.8075,-21.1896],[55.8118,-21.1854],[55.8195,-21.1885],[55.8123,-21.1895],[55.8149,-21.1925],[55.8213,-21.1926],[55.8258,-21.182]],[[55.8177,-21.1794],[55.8219,-21.1791],[55.8222,-21.1818],[55.8156,-21.1814],[55.8177,-21.1794]]]}},{"type":"Feature","properties":{"landuse":"farmland"},"geometry":{"type":"Polygon","coordinates":[[[55.4404,-21.2945],[55.4214,-21.2975],[55.4358,-21.2992],[55.4346,-21.3036],[55.43,-21.3041],[55.4399,-21.3111],[55.4446,-21.3096],[55.4409,-21.315],[55.4468,-21.3131],[55.4454,-21.3087],[55.4507,-21.303],[55.4475,-21.2999],[55.4498,-21.2971],[55.4449,-21.301],[55.4432,-21.2988],[55.4461,-21.2958],[55.4418,-21.2976],[55.4404,-21.2945]]]}},{"type":"Feature","properties":{"landuse":"farmland"},"geometry":{"type":"Polygon","coordinates":[[[55.3821,-21.2804],[55.3867,-21.2856],[55.3934,-21.2842],[55.3968,-21.2816],[55.3939,-21.2794],[55.3994,-21.2735],[55.4002,-21.2675],[55.4071,-21.2702],[55.4095,-21.2682],[55.4052,-21.2292],[55.3991,-21.2234],[55.4027,-21.2297],[55.3992,-21.23],[55.3995,-21.2409],[55.394,-21.2376],[55.3967,-21.2428],[55.3925,-21.2604],[55.3888,-21.2669],[55.3771,-21.2638],[55.3746,-21.2677],[55.3869,-21.2755],[55.3855,-21.2804],[55.3821,-21.2804]],[[55.4024,-21.2494],[55.407,-21.2516],[55.4032,-21.2545],[55.4024,-21.2494]]]}},{"type":"Feature","properties":{"landuse":"farmland"},"geometry":{"type":"Polygon","coordinates":[[[55.6058,-21.3673],[55.6055,-21.3746],[55.6138,-21.3751],[55.6157,-21.3661],[55.6085,-21.3642],[55.6058,-21.3673]],[[55.6091,-21.3723],[55.6099,-21.3689],[55.6127,-21.3672],[55.6091,-21.3723]]]}},{"type":"Feature","properties":{"landuse":"farmland"},"geometry":{"type":"Polygon","coordinates":[[[55.8177,-21.159],[55.8224,-21.1557],[55.8167,-21.1444],[55.8136,-21.1475],[55.8149,-21.1422],[55.8269,-21.1511],[55.8257,-21.1444],[55.8168,-21.1418],[55.8199,-21.1409],[55.8169,-21.1388],[55.8103,-21.1428],[55.8114,-21.1394],[55.8074,-21.1351],[55.8094,-21.1397],[55.8028,-21.1405],[55.8049,-21.1352],[55.802,-21.1317],[55.7857,-21.1282],[55.7775,-21.1373],[55.7748,-21.1448],[55.7765,-21.1489],[55.7907,-21.1429],[55.7841,-21.1462],[55.78,-21.1529],[55.7813,-21.1572],[55.7939,-21.155],[55.7971,-21.1624],[55.8078,-21.1594],[55.8036,-21.1625],[55.8055,-21.1658],[55.811,-21.1596],[55.8177,-21.159]],[[55.786,-21.1514],[55.7841,-21.1492],[55.7892,-21.1474],[55.786,-21.1514]],[[55.7909,-21.1494],[55.7898,-21.1517],[55.7934,-21.1506],[55.7891,-21.1545],[55.7909,-21.1494]]]}},{"type":"Feature","properties":{"landuse":"orchard"},"geometry":{"type":"Polygon","coordinates":[[[55.3119,-20.9479],[55.3095,-20.9471],[55.3103,-20.9494],[55.3119,-20.9479]]]}},{"type":"Feature","properties":{"landuse":"farmland"},"geometry":{"type":"Polygon","coordinates":[[[55.6973,-21.0539],[55.7007,-21.0533],[55.7,-21.051],[55.6965,-21.0514],[55.6973,-21.0539]]]}},{"type":"Feature","properties":{"landuse":"farmland"},"geometry":{"type":"Polygon","coordinates":[[[55.7117,-21.0446],[55.7038,-21.0487],[55.7061,-21.0493],[55.7117,-21.0446]]]}},{"type":"Feature","properties":{"landuse":"farmland"},"geometry":{"type":"Polygon","coordinates":[[[55.6113,-21.3863],[55.6025,-21.3835],[55.6037,-21.3773],[55.6022,-21.3811],[55.6028,-21.3778],[55.5898,-21.376],[55.6113,-21.3863]]]}},{"type":"Feature","properties":{"landuse":"farmland"},"geometry":{"type":"Polygon","coordinates":[[[55.588,-21.3633],[55.5833,-21.3668],[55.5923,-21.3705],[55.5879,-21.3711],[55.59,-21.3735],[55.5927,-21.3679],[55.5976,-21.3739],[55.5963,-21.376],[55.6023,-21.3736],[55.6044,-21.3773],[55.6049,-21.3675],[55.5911,-21.3662],[55.5961,-21.3641],[55.5896,-21.3614],[55.588,-21.3633]]]}},{"type":"Feature","properties":{"landuse":"farmland"},"geometry":{"type":"Polygon","coordinates":[[[55.2489,-21.0546],[55.2397,-21.0546],[55.2342,-21.0611],[55.2363,-21.0679],[55.2327,-21.0675],[55.2333,-21.0704],[55.2384,-21.0751],[55.2471,-21.0692],[55.2419,-21.0767],[55.2477,-21.0853],[55.2458,-21.088],[55.2498,-21.0855],[55.2541,-21.0888],[55.2524,-21.0917],[55.262,-21.098],[55.2552,-21.0891],[55.255,-21.081],[55.2469,-21.0653],[55.2489,-21.0546]]]}},{"type":"Feature","properties":{"landuse":"farmland"},"geometry":{"type":"Polygon","coordinates":[[[55.5092,-20.9257],[55.5068,-20.925],[55.5104,-20.9244],[55.5107,-20.9194],[55.5017,-20.9205],[55.5008,-20.9273],[55.5092,-20.9257]]]}},{"type":"Feature","properties":{"landuse":"farmland"},"geometry":{"type":"Polygon","coordinates":[[[55.2514,-21.0736],[55.2588,-21.0926],[55.261,-21.0946],[55.2653,-21.0923],[55.2611,-21.0912],[55.2666,-21.0888],[55.2629,-21.0852],[55.2667,-21.0799],[55.2607,-21.0783],[55.2616,-21.073],[55.2514,-21.0736]]]}},{"type":"Feature","properties":{"landuse":"farmland"},"geometry":{"type":"Polygon","coordinates":[[[55.3279,-21.2284],[55.3318,-21.2268],[55.3342,-21.2178],[55.3279,-21.2284]]]}},{"type":"Feature","properties":{"landuse":"farmland"},"geometry":{"type":"Polygon","coordinates":[[[55.3227,-21.2327],[55.3179,-21.2359],[55.3218,-21.2428],[55.3248,-21.2371],[55.3227,-21.2327]]]}},{"type":"Feature","properties":{"landuse":"farmland"},"geometry":{"type":"Polygon","coordinates":[[[55.3317,-21.2307],[55.3359,-21.233],[55.3406,-21.231],[55.3406,-21.2231],[55.3448,-21.2191],[55.3418,-21.2158],[55.35,-21.2098],[55.3411,-21.2128],[55.341,-21.2182],[55.3383,-21.2184],[55.3317,-21.2307]]]}},{"type":"Feature","properties":{"landuse":"farmland"},"geometry":{"type":"Polygon","coordinates":[[[55.3002,-21.2245],[55.3024,-21.2231],[55.2961,-21.2173],[55.2915,-21.2058],[55.2865,-21.2071],[55.2942,-21.229],[55.3002,-21.2245]]]}},{"type":"Feature","properties":{"landuse":"farmland"},"geometry":{"type":"Polygon","coordinates":[[[55.52,-20.9027],[55.5146,-20.902],[55.5172,-20.8981],[55.5097,-20.8984],[55.5086,-20.9066],[55.512,-20.9121],[55.5174,-20.9137],[55.5159,-20.9071],[55.5126,-20.9069],[55.5195,-20.9063],[55.52,-20.9027]]]}},{"type":"Feature","properties":{"landuse":"farmland"},"geometry":{"type":"Polygon","coordinates":[[[55.5427,-20.8968],[55.537,-20.895],[55.5371,-20.9025],[55.5427,-20.9023],[55.5427,-20.8968]]]}},{"type":"Feature","properties":{"landuse":"farmland"},"geometry":{"type":"Polygon","coordinates":[[[55.5363,-20.9142],[55.5365,-20.9028],[55.5282,-20.9008],[55.5259,-20.9031],[55.5259,-20.9002],[55.525,-20.9059],[55.5188,-20.9115],[55.5237,-20.9155],[55.5363,-20.9142]]]}},{"type":"Feature","properties":{"landuse":"orchard"},"geometry":{"type":"Polygon","coordinates":[[[55.284,-21.0078],[55.2835,-21.0103],[55.2868,-21.0087],[55.284,-21.0078]]]}},{"type":"Feature","properties":{"landuse":"orchard"},"geometry":{"type":"Polygon","coordinates":[[[55.2993,-21.0034],[55.2989,-21.006],[55.3005,-21.0019],[55.2993,-21.0034]]]}},{"type":"Feature","properties":{"landuse":"orchard"},"geometry":{"type":"Polygon","coordinates":[[[55.307,-20.9926],[55.3049,-20.9972],[55.3089,-20.9943],[55.307,-20.9926]]]}},{"type":"Feature","properties":{"landuse":"green_public_spaces"},"geometry":{"type":"Polygon","coordinates":[[[55.302,-20.9384],[55.3019,-20.9363],[55.3001,-20.937],[55.302,-20.9384]]]}},{"type":"Feature","properties":{"landuse":"green_public_spaces"},"geometry":{"type":"Polygon","coordinates":[[[55.3008,-20.942],[55.3037,-20.9459],[55.3018,-20.9495],[55.3073,-20.9408],[55.3048,-20.9434],[55.3008,-20.942]]]}},{"type":"Feature","properties":{"landuse":"farmland"},"geometry":{"type":"Polygon","coordinates":[[[55.6637,-20.9313],[55.659,-20.9268],[55.6551,-20.9327],[55.658,-20.9315],[55.6573,-20.9336],[55.6538,-20.9334],[55.6487,-20.9406],[55.6562,-20.9346],[55.6498,-20.9431],[55.6558,-20.9408],[55.654,-20.9455],[55.6595,-20.9458],[55.6559,-20.9507],[55.6535,-20.949],[55.6561,-20.9529],[55.6614,-20.9483],[55.6564,-20.9404],[55.662,-20.9361],[55.6573,-20.9365],[55.6596,-20.9318],[55.6658,-20.9332],[55.6618,-20.9382],[55.6646,-20.9422],[55.6738,-20.9376],[55.6681,-20.9304],[55.6658,-20.933],[55.6637,-20.9313]]]}},{"type":"Feature","properties":{"landuse":"farmland"},"geometry":{"type":"Polygon","coordinates":[[[55.5435,-21.2608],[55.5374,-21.2603],[55.5317,-21.2642],[55.5316,-21.2717],[55.5272,-21.2785],[55.5295,-21.2832],[55.5562,-21.2637],[55.5393,-21.2628],[55.5533,-21.2615],[55.5435,-21.2608]]]}},{"type":"Feature","properties":{"landuse":"farmland"},"geometry":{"type":"Polygon","coordinates":[[[55.3843,-21.2607],[55.3875,-21.2611],[55.3874,-21.2579],[55.3836,-21.2573],[55.3814,-21.2608],[55.3843,-21.2607]]]}},{"type":"Feature","properties":{"landuse":"farmland"},"geometry":{"type":"Polygon","coordinates":[[[55.4857,-21.33],[55.4834,-21.3335],[55.4859,-21.3344],[55.4894,-21.3314],[55.4857,-21.33]]]}},{"type":"Feature","properties":{"landuse":"farmland"},"geometry":{"type":"Polygon","coordinates":[[[55.2929,-21.2071],[55.2938,-21.2095],[55.2935,-21.2026],[55.2929,-21.2071]]]}},{"type":"Feature","properties":{"landuse":"farmland"},"geometry":{"type":"Polygon","coordinates":[[[55.5229,-21.298],[55.524,-21.2954],[55.514,-21.299],[55.5229,-21.298]]]}},{"type":"Feature","properties":{"landuse":"farmland"},"geometry":{"type":"Polygon","coordinates":[[[55.6942,-20.9772],[55.6927,-20.9734],[55.684,-20.9774],[55.6942,-20.9772]]]}},{"type":"Feature","properties":{"landuse":"farmland"},"geometry":{"type":"Polygon","coordinates":[[[55.6787,-20.9441],[55.6782,-20.9406],[55.6736,-20.9401],[55.6705,-20.9414],[55.6731,-20.9439],[55.6724,-20.9413],[55.6775,-20.9428],[55.6705,-20.9486],[55.6665,-20.9448],[55.6616,-20.9514],[55.6672,-20.9483],[55.6714,-20.9531],[55.6787,-20.9441]]]}},{"type":"Feature","properties":{"landuse":"farmland"},"geometry":{"type":"Polygon","coordinates":[[[55.5467,-21.2866],[55.5498,-21.2797],[55.5414,-21.2831],[55.5403,-21.2806],[55.527,-21.2897],[55.5282,-21.2952],[55.5334,-21.289],[55.5467,-21.2866]]]}},{"type":"Feature","properties":{"landuse":"farmland"},"geometry":{"type":"Polygon","coordinates":[[[55.3021,-21.2277],[55.3006,-21.2312],[55.3059,-21.2276],[55.3021,-21.2277]]]}},{"type":"Feature","properties":{"landuse":"green_public_spaces"},"geometry":{"type":"Polygon","coordinates":[[[55.333,-20.9467],[55.3313,-20.9482],[55.3307,-20.951],[55.333,-20.9467]]]}},{"type":"Feature","properties":{"landuse":"green_public_spaces"},"geometry":{"type":"Polygon","coordinates":[[[55.3083,-20.93],[55.3095,-20.9298],[55.2939,-20.9271],[55.3015,-20.9299],[55.3083,-20.93]]]}},{"type":"Feature","properties":{"landuse":"farmland"},"geometry":{"type":"Polygon","coordinates":[[[55.4434,-21.3241],[55.4444,-21.3274],[55.4461,-21.325],[55.4434,-21.3241]]]}},{"type":"Feature","properties":{"landuse":"green_public_spaces"},"geometry":{"type":"Polygon","coordinates":[[[55.4977,-21.2528],[55.4975,-21.25],[55.492,-21.2534],[55.4942,-21.2555],[55.4977,-21.2528]]]}},{"type":"Feature","properties":{"landuse":"farmland"},"geometry":{"type":"Polygon","coordinates":[[[55.4364,-21.2968],[55.4348,-21.2978],[55.4359,-21.2992],[55.4364,-21.2968]]]}},{"type":"Feature","properties":{"landuse":"green_public_spaces"},"geometry":{"type":"Polygon","coordinates":[[[55.4246,-21.307],[55.4233,-21.3051],[55.4216,-21.3061],[55.4246,-21.307]]]}},{"type":"Feature","properties":{"landuse":"farmland"},"geometry":{"type":"Polygon","coordinates":[[[55.4859,-21.3344],[55.4872,-21.3348],[55.4865,-21.3336],[55.4859,-21.3344]]]}},{"type":"Feature","properties":{"landuse":"farmland"},"geometry":{"type":"Polygon","coordinates":[[[55.3195,-20.9738],[55.32,-20.9742],[55.323,-20.9741],[55.3195,-20.9738]]]}},{"type":"Feature","properties":{"landuse":"orchard"},"geometry":{"type":"Polygon","coordinates":[[[55.4406,-21.3153],[55.4398,-21.3167],[55.4417,-21.3182],[55.4406,-21.3153]]]}},{"type":"Feature","properties":{"landuse":"farmland"},"geometry":{"type":"Polygon","coordinates":[[[55.4369,-21.3205],[55.4377,-21.323],[55.4389,-21.3183],[55.4369,-21.3205]]]}},{"type":"Feature","properties":{"landuse":"farmland"},"geometry":{"type":"Polygon","coordinates":[[[55.5099,-21.2953],[55.5101,-21.297],[55.5127,-21.2968],[55.5099,-21.2953]]]}},{"type":"Feature","properties":{"landuse":"farmland"},"geometry":{"type":"Polygon","coordinates":[[[55.5122,-21.2934],[55.5159,-21.2937],[55.5145,-21.2904],[55.5122,-21.2934]]]}},{"type":"Feature","properties":{"landuse":"orchard"},"geometry":{"type":"Polygon","coordinates":[[[55.3098,-20.9672],[55.3125,-20.9669],[55.3073,-20.9647],[55.3098,-20.9672]]]}},{"type":"Feature","properties":{"landuse":"green_public_spaces"},"geometry":{"type":"Polygon","coordinates":[[[55.2327,-21.0847],[55.2349,-21.0903],[55.237,-21.0891],[55.2327,-21.0847]]]}},{"type":"Feature","properties":{"landuse":"farmland"},"geometry":{"type":"Polygon","coordinates":[[[55.233,-21.081],[55.2326,-21.0822],[55.2335,-21.0815],[55.233,-21.081]]]}},{"type":"Feature","properties":{"landuse":"farmland"},"geometry":{"type":"Polygon","coordinates":[[[55.2318,-21.0811],[55.2322,-21.0845],[55.2345,-21.0838],[55.2318,-21.0811]]]}},{"type":"Feature","properties":{"landuse":"farmland"},"geometry":{"type":"Polygon","coordinates":[[[55.2338,-21.0802],[55.2331,-21.0809],[55.2353,-21.0825],[55.2338,-21.0802]]]}},{"type":"Feature","properties":{"landuse":"green_public_spaces"},"geometry":{"type":"Polygon","coordinates":[[[55.2267,-21.0606],[55.2259,-21.0629],[55.2272,-21.0627],[55.2267,-21.0606]]]}},{"type":"Feature","properties":{"landuse":"orchard"},"geometry":{"type":"Polygon","coordinates":[[[55.4627,-21.3176],[55.4607,-21.3186],[55.4622,-21.3191],[55.4627,-21.3176]]]}},{"type":"Feature","properties":{"landuse":"farmland"},"geometry":{"type":"Polygon","coordinates":[[[55.4651,-21.1364],[55.4641,-21.1353],[55.4639,-21.1377],[55.4651,-21.1364]]]}},{"type":"Feature","properties":{"landuse":"farmland"},"geometry":{"type":"Polygon","coordinates":[[[55.4595,-21.145],[55.4647,-21.1436],[55.4604,-21.1424],[55.4595,-21.145]]]}},{"type":"Feature","properties":{"landuse":"farmland"},"geometry":{"type":"Polygon","coordinates":[[[55.4634,-21.1495],[55.4604,-21.1521],[55.4614,-21.1527],[55.4634,-21.1495]]]}},{"type":"Feature","properties":{"landuse":"green_public_spaces"},"geometry":{"type":"Polygon","coordinates":[[[55.4829,-21.34],[55.4853,-21.3382],[55.4849,-21.3377],[55.4829,-21.34]]]}},{"type":"Feature","properties":{"landuse":"farmland"},"geometry":{"type":"Polygon","coordinates":[[[55.3948,-21.2826],[55.3937,-21.2842],[55.3955,-21.2834],[55.3948,-21.2826]]]}},{"type":"Feature","properties":{"landuse":"farmland"},"geometry":{"type":"Polygon","coordinates":[[[55.4893,-21.3204],[55.4886,-21.3244],[55.4925,-21.3236],[55.4893,-21.3204]]]}},{"type":"Feature","properties":{"landuse":"farmland"},"geometry":{"type":"Polygon","coordinates":[[[55.4689,-21.1694],[55.4681,-21.174],[55.4702,-21.1698],[55.4689,-21.1694]]]}},{"type":"Feature","properties":{"landuse":"farmland"},"geometry":{"type":"Polygon","coordinates":[[[55.4748,-21.157],[55.4749,-21.1586],[55.4782,-21.1571],[55.4748,-21.157]]]}},{"type":"Feature","properties":{"landuse":"farmland"},"geometry":{"type":"Polygon","coordinates":[[[55.4606,-21.1575],[55.459,-21.1594],[55.4617,-21.1589],[55.4606,-21.1575]]]}},{"type":"Feature","properties":{"landuse":"farmland"},"geometry":{"type":"Polygon","coordinates":[[[55.4893,-21.146],[55.4886,-21.1481],[55.4896,-21.1487],[55.4893,-21.146]]]}},{"type":"Feature","properties":{"landuse":"green_public_spaces"},"geometry":{"type":"Polygon","coordinates":[[[55.6266,-21.3727],[55.626,-21.3739],[55.6268,-21.3746],[55.6266,-21.3727]]]}},{"type":"Feature","properties":{"landuse":"green_public_spaces"},"geometry":{"type":"Polygon","coordinates":[[[55.7069,-21.0532],[55.7078,-21.0522],[55.7067,-21.0517],[55.7069,-21.0532]]]}},{"type":"Feature","properties":{"landuse":"green_public_spaces"},"geometry":{"type":"Polygon","coordinates":[[[55.4861,-21.3362],[55.4851,-21.3374],[55.486,-21.3381],[55.4861,-21.3362]]]}},{"type":"Feature","properties":{"landuse":"farmland"},"geometry":{"type":"Polygon","coordinates":[[[55.4476,-21.2407],[55.4462,-21.2419],[55.4478,-21.2443],[55.4476,-21.2407]]]}},{"type":"Feature","properties":{"landuse":"green_public_spaces"},"geometry":{"type":"Polygon","coordinates":[[[55.4861,-20.8867],[55.4899,-20.8888],[55.4894,-20.887],[55.4861,-20.8867]]]}},{"type":"Feature","properties":{"landuse":"farmland"},"geometry":{"type":"Polygon","coordinates":[[[55.5259,-21.2598],[55.5279,-21.2595],[55.5283,-21.2568],[55.5259,-21.2598]]]}},{"type":"Feature","properties":{"landuse":"farmland"},"geometry":{"type":"Polygon","coordinates":[[[55.5311,-21.2558],[55.5344,-21.2533],[55.534,-21.2508],[55.5311,-21.2558]]]}},{"type":"Feature","properties":{"landuse":"farmland"},"geometry":{"type":"Polygon","coordinates":[[[55.5284,-21.2569],[55.5307,-21.2582],[55.5309,-21.2561],[55.5284,-21.2569]]]}},{"type":"Feature","properties":{"landuse":"farmland"},"geometry":{"type":"Polygon","coordinates":[[[55.4434,-21.3222],[55.4418,-21.32],[55.4411,-21.3226],[55.4434,-21.3222]]]}},{"type":"Feature","properties":{"landuse":"green_public_spaces"},"geometry":{"type":"Polygon","coordinates":[[[55.4671,-21.3313],[55.4681,-21.3321],[55.4693,-21.3307],[55.4671,-21.3313]]]}},{"type":"Feature","properties":{"landuse":"orchard"},"geometry":{"type":"Polygon","coordinates":[[[55.2527,-21.087],[55.2497,-21.0901],[55.2529,-21.0876],[55.2527,-21.087]]]}},{"type":"Feature","properties":{"landuse":"orchard"},"geometry":{"type":"Polygon","coordinates":[[[55.5149,-20.9057],[55.5171,-20.9037],[55.5147,-20.9033],[55.5149,-20.9057]]]}},{"type":"Feature","properties":{"landuse":"farmland"},"geometry":{"type":"Polygon","coordinates":[[[55.6883,-21.0123],[55.6885,-21.0116],[55.6866,-21.0096],[55.6883,-21.0123]]]}},{"type":"Feature","properties":{"landuse":"farmland"},"geometry":{"type":"Polygon","coordinates":[[[55.6876,-21.0093],[55.6896,-21.0119],[55.6946,-21.0088],[55.6876,-21.0093]]]}},{"type":"Feature","properties":{"landuse":"farmland"},"geometry":{"type":"Polygon","coordinates":[[[55.6863,-21.0096],[55.6855,-21.0119],[55.6871,-21.0119],[55.6863,-21.0096]]]}},{"type":"Feature","properties":{"landuse":"farmland"},"geometry":{"type":"Polygon","coordinates":[[[55.6847,-21.0114],[55.6828,-21.0141],[55.6857,-21.0139],[55.6847,-21.0114]]]}},{"type":"Feature","properties":{"landuse":"farmland"},"geometry":{"type":"Polygon","coordinates":[[[55.6857,-21.0087],[55.6776,-21.0042],[55.6749,-21.0099],[55.6686,-21.0121],[55.6762,-21.0124],[55.6755,-21.0084],[55.6857,-21.0087]]]}},{"type":"Feature","properties":{"landuse":"farmland"},"geometry":{"type":"Polygon","coordinates":[[[55.6893,-21.0134],[55.688,-21.0141],[55.691,-21.0142],[55.6893,-21.0134]]]}},{"type":"Feature","properties":{"landuse":"farmland"},"geometry":{"type":"Polygon","coordinates":[[[55.6942,-21.0139],[55.6949,-21.0149],[55.696,-21.0135],[55.6942,-21.0139]]]}},{"type":"Feature","properties":{"landuse":"farmland"},"geometry":{"type":"Polygon","coordinates":[[[55.6932,-21.0145],[55.6954,-21.0161],[55.6957,-21.015],[55.6932,-21.0145]]]}},{"type":"Feature","properties":{"landuse":"farmland"},"geometry":{"type":"Polygon","coordinates":[[[55.6963,-21.0168],[55.6981,-21.0187],[55.6994,-21.0133],[55.6963,-21.0168]]]}},{"type":"Feature","properties":{"landuse":"farmland"},"geometry":{"type":"Polygon","coordinates":[[[55.6971,-21.0124],[55.6976,-21.0162],[55.6996,-21.0149],[55.6971,-21.0124]]]}},{"type":"Feature","properties":{"landuse":"green_public_spaces"},"geometry":{"type":"Polygon","coordinates":[[[55.5422,-20.8966],[55.5424,-20.8954],[55.5377,-20.8947],[55.5422,-20.8966]]]}},{"type":"Feature","properties":{"landuse":"orchard"},"geometry":{"type":"Polygon","coordinates":[[[55.3226,-20.9503],[55.3237,-20.9518],[55.3245,-20.9511],[55.3226,-20.9503]]]}},{"type":"Feature","properties":{"landuse":"orchard"},"geometry":{"type":"Polygon","coordinates":[[[55.3226,-20.9502],[55.321,-20.9515],[55.3217,-20.9519],[55.3226,-20.9502]]]}},{"type":"Feature","properties":{"landuse":"orchard"},"geometry":{"type":"Polygon","coordinates":[[[55.3211,-20.9496],[55.3192,-20.9515],[55.3212,-20.9511],[55.3211,-20.9496]]]}},{"type":"Feature","properties":{"landuse":"orchard"},"geometry":{"type":"Polygon","coordinates":[[[55.3247,-20.9531],[55.3271,-20.9543],[55.3265,-20.952],[55.3247,-20.9531]]]}},{"type":"Feature","properties":{"landuse":"orchard"},"geometry":{"type":"Polygon","coordinates":[[[55.3029,-20.9675],[55.3027,-20.9694],[55.3044,-20.9687],[55.3029,-20.9675]]]}},{"type":"Feature","properties":{"landuse":"orchard"},"geometry":{"type":"Polygon","coordinates":[[[55.3027,-20.9655],[55.3041,-20.9675],[55.3048,-20.9657],[55.3027,-20.9655]]]}},{"type":"Feature","properties":{"landuse":"farmland"},"geometry":{"type":"Polygon","coordinates":[[[55.3231,-20.9739],[55.32,-20.9742],[55.324,-20.9762],[55.3231,-20.9739]]]}},{"type":"Feature","properties":{"landuse":"orchard"},"geometry":{"type":"Polygon","coordinates":[[[55.3113,-20.9739],[55.311,-20.9746],[55.3124,-20.9754],[55.3113,-20.9739]]]}},{"type":"Feature","properties":{"landuse":"farmland"},"geometry":{"type":"Polygon","coordinates":[[[55.3016,-20.9692],[55.302,-20.9707],[55.3027,-20.9694],[55.3016,-20.9692]]]}},{"type":"Feature","properties":{"landuse":"farmland"},"geometry":{"type":"Polygon","coordinates":[[[55.3039,-20.9691],[55.3023,-20.9704],[55.3033,-20.9707],[55.3039,-20.9691]]]}},{"type":"Feature","properties":{"landuse":"orchard"},"geometry":{"type":"Polygon","coordinates":[[[55.3091,-20.9633],[55.3084,-20.9622],[55.3078,-20.9634],[55.3058,-20.9628],[55.3091,-20.9633]]]}},{"type":"Feature","properties":{"landuse":"farmland"},"geometry":{"type":"Polygon","coordinates":[[[55.3241,-20.9492],[55.3256,-20.9506],[55.3259,-20.9498],[55.3241,-20.9492]]]}},{"type":"Feature","properties":{"landuse":"farmland"},"geometry":{"type":"Polygon","coordinates":[[[55.3241,-20.9492],[55.3216,-20.949],[55.3237,-20.9498],[55.3241,-20.9492]]]}},{"type":"Feature","properties":{"landuse":"farmland"},"geometry":{"type":"Polygon","coordinates":[[[55.3239,-20.9479],[55.3223,-20.9482],[55.3243,-20.949],[55.3239,-20.9479]]]}},{"type":"Feature","properties":{"landuse":"green_public_spaces"},"geometry":{"type":"Polygon","coordinates":[[[55.4909,-20.8923],[55.49,-20.889],[55.4896,-20.8892],[55.4909,-20.8923]]]}},{"type":"Feature","properties":{"landuse":"farmland"},"geometry":{"type":"Polygon","coordinates":[[[55.4735,-21.1416],[55.4764,-21.142],[55.4749,-21.1409],[55.4735,-21.1416]]]}},{"type":"Feature","properties":{"landuse":"farmland"},"geometry":{"type":"Polygon","coordinates":[[[55.4849,-21.1541],[55.4854,-21.1528],[55.484,-21.1535],[55.4849,-21.1541]]]}},{"type":"Feature","properties":{"landuse":"farmland"},"geometry":{"type":"Polygon","coordinates":[[[55.4738,-21.1649],[55.4739,-21.166],[55.4748,-21.1651],[55.4738,-21.1649]]]}},{"type":"Feature","properties":{"landuse":"farmland"},"geometry":{"type":"Polygon","coordinates":[[[55.6994,-20.9986],[55.6974,-20.9876],[55.6902,-20.9909],[55.6863,-20.9866],[55.6855,-20.9984],[55.6884,-20.9938],[55.6936,-20.9947],[55.6942,-20.9977],[55.6886,-20.9956],[55.6938,-20.9989],[55.6994,-20.9986]]]}},{"type":"Feature","properties":{"landuse":"farmland"},"geometry":{"type":"Polygon","coordinates":[[[55.6787,-20.987],[55.669,-20.9923],[55.6653,-20.9912],[55.676,-21.0017],[55.6765,-20.9982],[55.6718,-20.9931],[55.677,-20.991],[55.6757,-20.9892],[55.6819,-20.9899],[55.6787,-20.987]]]}},{"type":"Feature","properties":{"landuse":"green_public_spaces"},"geometry":{"type":"Polygon","coordinates":[[[55.3115,-20.9594],[55.3157,-20.9634],[55.32,-20.9654],[55.3115,-20.9594]]]}},{"type":"Feature","properties":{"landuse":"orchard"},"geometry":{"type":"Polygon","coordinates":[[[55.3024,-20.9647],[55.3011,-20.9644],[55.3012,-20.966],[55.3024,-20.9647]]]}}]}