{"type":"FeatureCollection","features":[{"type":"Feature","properties":{"landuse":"green_public_spaces"},"geometry":{"type":"MultiPolygon","coordinates":[[[[45.1095,-12.7965],[45.102,-12.7974],[45.1002,-12.8035],[45.1055,-12.8124],[45.1148,-12.8074],[45.1157,-12.8012],[45.1095,-12.7965]]],[[[45.1518,-12.7864],[45.1474,-12.7843],[45.1481,-12.7937],[45.1549,-12.7914],[45.16,-12.7936],[45.157,-12.7984],[45.1504,-12.8009],[45.1519,-12.8114],[45.1439,-12.819],[45.159,-12.8262],[45.1628,-12.8244],[45.1548,-12.8196],[45.153,-12.8072],[45.1553,-12.8018],[45.1595,-12.8014],[45.167,-12.7866],[45.1629,-12.7903],[45.1518,-12.7864]]]]}},{"type":"Feature","properties":{"landuse":"green_public_spaces"},"geometry":{"type":"Polygon","coordinates":[[[45.1231,-12.8165],[45.1186,-12.8149],[45.1187,-12.8189],[45.124,-12.8197],[45.1231,-12.8165]],[[45.1206,-12.817],[45.1214,-12.8181],[45.1207,-12.8188],[45.1206,-12.817]]]}},{"type":"Feature","properties":{"landuse":"green_public_spaces"},"geometry":{"type":"MultiPolygon","coordinates":[[[[45.076,-12.7105],[45.0647,-12.7113],[45.0737,-12.7219],[45.0716,-12.7221],[45.0796,-12.7236],[45.0848,-12.721],[45.087,-12.7164],[45.076,-12.7105]]],[[[45.1523,-12.9474],[45.1475,-12.9509],[45.151,-12.9597],[45.1443,-12.9594],[45.1408,-12.9505],[45.1295,-12.957],[45.1291,-12.9605],[45.1388,-12.9642],[45.1431,-12.9696],[45.1464,-12.9796],[45.1526,-12.9632],[45.1509,-12.9612],[45.1565,-12.962],[45.1564,-12.9518],[45.1523,-12.9474]]],[[[45.1487,-12.8636],[45.1481,-12.8612],[45.1454,-12.8656],[45.1365,-12.8684],[45.1314,-12.8615],[45.1257,-12.8624],[45.1312,-12.8698],[45.154,-12.8775],[45.1632,-12.8872],[45.1766,-12.8858],[45.1817,-12.8767],[45.1794,-12.8721],[45.1749,-12.8744],[45.1725,-12.8712],[45.1786,-12.865],[45.1701,-12.8634],[45.166,-12.8656],[45.1584,-12.862],[45.1595,-12.8669],[45.1547,-12.8686],[45.1529,-12.8622],[45.1487,-12.8636]]],[[[45.1095,-12.7965],[45.102,-12.7974],[45.1002,-12.8035],[45.1055,-12.8124],[45.1148,-12.8074],[45.1157,-12.8012],[45.1095,-12.7965]]],[[[45.1821,-12.7536],[45.1766,-12.7575],[45.1724,-12.7533],[45.1695,-12.756],[45.1573,-12.7555],[45.1552,-12.7601],[45.1525,-12.7587],[45.1547,-12.7633],[45.1526,-12.7712],[45.1645,-12.78],[45.1752,-12.7699],[45.1925,-12.7754],[45.1944,-12.7722],[45.1917,-12.7694],[45.1983,-12.7661],[45.194,-12.7558],[45.1903,-12.7604],[45.1821,-12.7536]]],[[[45.165,-12.7902],[45.167,-12.7866],[45.1631,-12.7902],[45.156,-12.7884],[45.1559,-12.7918],[45.16,-12.7936],[45.157,-12.7984],[45.1504,-12.8009],[45.1519,-12.8114],[45.1437,-12.8193],[45.159,-12.8262],[45.1627,-12.8243],[45.1548,-12.8196],[45.1529,-12.8069],[45.1553,-12.8018],[45.1595,-12.8014],[45.165,-12.7902]]]]}},{"type":"Feature","properties":{"landuse":"farmland"},"geometry":{"type":"Polygon","coordinates":[[[45.1045,-12.7859],[45.1073,-12.7848],[45.1073,-12.7806],[45.1021,-12.7806],[45.1055,-12.7815],[45.1045,-12.7859]],[[45.1072,-12.7839],[45.107,-12.7847],[45.1066,-12.7844],[45.1072,-12.7839]]]}},{"type":"Feature","properties":{"landuse":"green_public_spaces"},"geometry":{"type":"Polygon","coordinates":[[[45.135,-12.8338],[45.1338,-12.8337],[45.1344,-12.8356],[45.135,-12.8338]]]}},{"type":"Feature","properties":{"landuse":"green_public_spaces"},"geometry":{"type":"Polygon","coordinates":[[[45.1375,-12.8305],[45.1349,-12.8322],[45.1388,-12.8335],[45.1361,-12.8327],[45.1375,-12.8305]]]}},{"type":"Feature","properties":{"landuse":"farmland"},"geometry":{"type":"Polygon","coordinates":[[[45.1341,-12.8466],[45.135,-12.8478],[45.1353,-12.8474],[45.1341,-12.8466]]]}},{"type":"Feature","properties":{"landuse":"farmland"},"geometry":{"type":"Polygon","coordinates":[[[45.1375,-12.8311],[45.1359,-12.8325],[45.1367,-12.8328],[45.1375,-12.8311]]]}},{"type":"Feature","properties":{"landuse":"farmland"},"geometry":{"type":"Polygon","coordinates":[[[45.2659,-12.7809],[45.2691,-12.7799],[45.2676,-12.7792],[45.2659,-12.7809]]]}},{"type":"Feature","properties":{"landuse":"farmland"},"geometry":{"type":"Polygon","coordinates":[[[45.2325,-12.7526],[45.2328,-12.7537],[45.2335,-12.7527],[45.2325,-12.7526]]]}},{"type":"Feature","properties":{"landuse":"farmland"},"geometry":{"type":"Polygon","coordinates":[[[45.1559,-12.8095],[45.1543,-12.8107],[45.1574,-12.8112],[45.1559,-12.8095]]]}},{"type":"Feature","properties":{"landuse":"farmland"},"geometry":{"type":"Polygon","coordinates":[[[45.1538,-12.8127],[45.155,-12.8138],[45.1552,-12.812],[45.1538,-12.8127]]]}},{"type":"Feature","properties":{"landuse":"farmland"},"geometry":{"type":"Polygon","coordinates":[[[45.1009,-12.7832],[45.1021,-12.7828],[45.1005,-12.7821],[45.1009,-12.7832]]]}},{"type":"Feature","properties":{"landuse":"farmland"},"geometry":{"type":"Polygon","coordinates":[[[45.2748,-12.7922],[45.2756,-12.7913],[45.2742,-12.7908],[45.2748,-12.7922]]]}},{"type":"Feature","properties":{"landuse":"farmland"},"geometry":{"type":"Polygon","coordinates":[[[45.294,-12.7789],[45.2917,-12.7803],[45.2926,-12.7808],[45.294,-12.7789]]]}},{"type":"Feature","properties":{"landuse":"farmland"},"geometry":{"type":"Polygon","coordinates":[[[45.1796,-12.8427],[45.1755,-12.8453],[45.1785,-12.8463],[45.1796,-12.8427]]]}},{"type":"Feature","properties":{"landuse":"green_public_spaces"},"geometry":{"type":"Polygon","coordinates":[[[45.1113,-12.808],[45.1148,-12.8074],[45.1157,-12.8012],[45.1086,-12.7962],[45.1012,-12.798],[45.1022,-12.8095],[45.1055,-12.8124],[45.1113,-12.808]]]}},{"type":"Feature","properties":{"landuse":"green_public_spaces"},"geometry":{"type":"Polygon","coordinates":[[[45.1697,-12.8166],[45.1628,-12.8244],[45.1548,-12.8196],[45.153,-12.8072],[45.1553,-12.8018],[45.1595,-12.8014],[45.167,-12.7866],[45.1629,-12.7903],[45.1528,-12.7821],[45.1477,-12.7843],[45.1481,-12.7937],[45.1549,-12.7914],[45.16,-12.7936],[45.157,-12.7984],[45.1504,-12.8009],[45.1519,-12.8114],[45.1437,-12.8193],[45.1518,-12.8242],[45.162,-12.8249],[45.162,-12.8307],[45.1645,-12.8309],[45.1653,-12.8253],[45.1803,-12.8224],[45.1785,-12.8215],[45.1876,-12.8107],[45.1697,-12.8166]]]}},{"type":"Feature","properties":{"landuse":"green_public_spaces"},"geometry":{"type":"Polygon","coordinates":[[[45.1542,-12.7725],[45.1645,-12.78],[45.1752,-12.7699],[45.192,-12.7755],[45.1933,-12.7698],[45.1982,-12.7678],[45.194,-12.7558],[45.204,-12.7533],[45.1938,-12.746],[45.1945,-12.7393],[45.186,-12.7519],[45.1789,-12.7505],[45.175,-12.744],[45.1672,-12.7543],[45.1591,-12.7514],[45.1552,-12.7601],[45.1525,-12.7587],[45.1542,-12.7725]]]}},{"type":"Feature","properties":{"landuse":"farmland"},"geometry":{"type":"Polygon","coordinates":[[[45.1421,-12.7843],[45.1427,-12.7861],[45.1444,-12.7857],[45.1421,-12.7843]]]}},{"type":"Feature","properties":{"landuse":"farmland"},"geometry":{"type":"Polygon","coordinates":[[[45.1415,-12.7814],[45.1396,-12.7835],[45.1415,-12.7828],[45.1415,-12.7814]]]}},{"type":"Feature","properties":{"landuse":"farmland"},"geometry":{"type":"Polygon","coordinates":[[[45.1379,-12.783],[45.1414,-12.7811],[45.1403,-12.7791],[45.1379,-12.783]]]}},{"type":"Feature","properties":{"landuse":"farmland"},"geometry":{"type":"Polygon","coordinates":[[[45.2893,-12.774],[45.2898,-12.7752],[45.2925,-12.7732],[45.2893,-12.7726],[45.2893,-12.774]]]}},{"type":"Feature","properties":{"landuse":"farmland"},"geometry":{"type":"Polygon","coordinates":[[[45.2841,-12.7727],[45.2843,-12.7742],[45.2855,-12.7731],[45.2841,-12.7727]]]}},{"type":"Feature","properties":{"landuse":"green_public_spaces"},"geometry":{"type":"Polygon","coordinates":[[[45.2357,-12.7816],[45.2362,-12.7863],[45.2382,-12.7819],[45.2357,-12.7816]]]}},{"type":"Feature","properties":{"landuse":"orchard"},"geometry":{"type":"Polygon","coordinates":[[[45.181,-12.8383],[45.184,-12.8405],[45.1835,-12.8394],[45.181,-12.8383]]]}},{"type":"Feature","properties":{"landuse":"orchard"},"geometry":{"type":"Polygon","coordinates":[[[45.1811,-12.8359],[45.1795,-12.8357],[45.1829,-12.837],[45.1811,-12.8359]]]}},{"type":"Feature","properties":{"landuse":"farmland"},"geometry":{"type":"Polygon","coordinates":[[[45.1779,-12.8372],[45.1762,-12.8381],[45.1782,-12.8385],[45.1779,-12.8372]]]}},{"type":"Feature","properties":{"landuse":"orchard"},"geometry":{"type":"Polygon","coordinates":[[[45.1855,-12.8372],[45.1843,-12.8382],[45.1866,-12.8381],[45.1855,-12.8372]]]}},{"type":"Feature","properties":{"landuse":"green_public_spaces"},"geometry":{"type":"Polygon","coordinates":[[[45.1184,-12.7953],[45.1198,-12.7972],[45.1225,-12.7972],[45.1211,-12.7953],[45.1184,-12.7953]]]}},{"type":"Feature","properties":{"landuse":"farmland"},"geometry":{"type":"Polygon","coordinates":[[[45.1327,-12.8377],[45.1342,-12.8389],[45.1347,-12.8381],[45.1327,-12.8377]]]}},{"type":"Feature","properties":{"landuse":"farmland"},"geometry":{"type":"Polygon","coordinates":[[[45.1249,-12.7929],[45.123,-12.7937],[45.1236,-12.7949],[45.1249,-12.7929]]]}},{"type":"Feature","properties":{"landuse":"farmland"},"geometry":{"type":"Polygon","coordinates":[[[45.1173,-12.8455],[45.1188,-12.847],[45.1189,-12.8455],[45.1173,-12.8455]]]}},{"type":"Feature","properties":{"landuse":"farmland"},"geometry":{"type":"Polygon","coordinates":[[[45.1186,-12.8431],[45.1206,-12.8453],[45.1217,-12.8454],[45.1186,-12.8431]]]}},{"type":"Feature","properties":{"landuse":"farmland"},"geometry":{"type":"Polygon","coordinates":[[[45.1212,-12.8457],[45.1188,-12.8441],[45.1198,-12.8462],[45.1212,-12.8457]]]}},{"type":"Feature","properties":{"landuse":"farmland"},"geometry":{"type":"Polygon","coordinates":[[[45.1146,-12.8469],[45.1134,-12.8483],[45.1154,-12.8484],[45.1146,-12.8469]]]}},{"type":"Feature","properties":{"landuse":"farmland"},"geometry":{"type":"Polygon","coordinates":[[[45.1204,-12.8434],[45.1218,-12.8454],[45.1232,-12.8452],[45.1204,-12.8434]]]}},{"type":"Feature","properties":{"landuse":"green_public_spaces"},"geometry":{"type":"Polygon","coordinates":[[[45.2041,-12.8086],[45.208,-12.8069],[45.2048,-12.8078],[45.2041,-12.8086]]]}},{"type":"Feature","properties":{"landuse":"farmland"},"geometry":{"type":"Polygon","coordinates":[[[45.0979,-12.7871],[45.098,-12.788],[45.099,-12.7882],[45.0979,-12.7871]]]}},{"type":"Feature","properties":{"landuse":"farmland"},"geometry":{"type":"Polygon","coordinates":[[[45.2027,-12.8109],[45.2012,-12.8088],[45.1991,-12.8098],[45.2027,-12.8109]]]}},{"type":"Feature","properties":{"landuse":"farmland"},"geometry":{"type":"Polygon","coordinates":[[[45.1245,-12.8327],[45.1298,-12.8318],[45.126,-12.8305],[45.1245,-12.8327]]]}},{"type":"Feature","properties":{"landuse":"farmland"},"geometry":{"type":"Polygon","coordinates":[[[45.124,-12.8328],[45.1266,-12.8351],[45.126,-12.8331],[45.124,-12.8328]]]}},{"type":"Feature","properties":{"landuse":"farmland"},"geometry":{"type":"Polygon","coordinates":[[[45.1269,-12.83],[45.1273,-12.8309],[45.1278,-12.8298],[45.1269,-12.83]]]}},{"type":"Feature","properties":{"landuse":"orchard"},"geometry":{"type":"Polygon","coordinates":[[[45.14,-12.8389],[45.1403,-12.8405],[45.1409,-12.8387],[45.14,-12.8389]]]}},{"type":"Feature","properties":{"landuse":"farmland"},"geometry":{"type":"Polygon","coordinates":[[[45.1415,-12.8386],[45.1407,-12.8409],[45.1427,-12.8388],[45.1415,-12.8386]]]}},{"type":"Feature","properties":{"landuse":"farmland"},"geometry":{"type":"Polygon","coordinates":[[[45.1414,-12.8347],[45.1403,-12.8331],[45.1389,-12.834],[45.1414,-12.8347]]]}},{"type":"Feature","properties":{"landuse":"farmland"},"geometry":{"type":"Polygon","coordinates":[[[45.1367,-12.8339],[45.1387,-12.8339],[45.1367,-12.8332],[45.1367,-12.8339]]]}},{"type":"Feature","properties":{"landuse":"farmland"},"geometry":{"type":"Polygon","coordinates":[[[45.1251,-12.8122],[45.1253,-12.8134],[45.1266,-12.8123],[45.1251,-12.8122]]]}},{"type":"Feature","properties":{"landuse":"orchard"},"geometry":{"type":"Polygon","coordinates":[[[45.1272,-12.8198],[45.1309,-12.8174],[45.1284,-12.8165],[45.1272,-12.8198]]]}},{"type":"Feature","properties":{"landuse":"farmland"},"geometry":{"type":"Polygon","coordinates":[[[45.1228,-12.7902],[45.1248,-12.7907],[45.1218,-12.7886],[45.1236,-12.7926],[45.1228,-12.7902]]]}},{"type":"Feature","properties":{"landuse":"farmland"},"geometry":{"type":"Polygon","coordinates":[[[45.1249,-12.7909],[45.1232,-12.7907],[45.1243,-12.7917],[45.1249,-12.7909]]]}},{"type":"Feature","properties":{"landuse":"farmland"},"geometry":{"type":"Polygon","coordinates":[[[45.122,-12.8425],[45.1236,-12.8439],[45.1229,-12.842],[45.122,-12.8425]]]}},{"type":"Feature","properties":{"landuse":"farmland"},"geometry":{"type":"Polygon","coordinates":[[[45.1038,-12.7663],[45.1042,-12.7687],[45.1079,-12.7667],[45.1038,-12.7663]]]}},{"type":"Feature","properties":{"landuse":"farmland"},"geometry":{"type":"Polygon","coordinates":[[[45.104,-12.7621],[45.103,-12.7613],[45.1017,-12.7648],[45.104,-12.7621]]]}},{"type":"Feature","properties":{"landuse":"farmland"},"geometry":{"type":"Polygon","coordinates":[[[45.1089,-12.7626],[45.1071,-12.7638],[45.108,-12.7646],[45.1089,-12.7626]]]}},{"type":"Feature","properties":{"landuse":"farmland"},"geometry":{"type":"Polygon","coordinates":[[[45.112,-12.7673],[45.1108,-12.7659],[45.1108,-12.7697],[45.112,-12.7673]]]}},{"type":"Feature","properties":{"landuse":"farmland"},"geometry":{"type":"Polygon","coordinates":[[[45.0917,-12.7594],[45.0946,-12.7639],[45.0925,-12.7567],[45.0917,-12.7594]]]}},{"type":"Feature","properties":{"landuse":"farmland"},"geometry":{"type":"Polygon","coordinates":[[[45.1281,-12.8024],[45.13,-12.8046],[45.1307,-12.8032],[45.1281,-12.8024]]]}},{"type":"Feature","properties":{"landuse":"green_public_spaces"},"geometry":{"type":"Polygon","coordinates":[[[45.19,-12.7805],[45.1868,-12.7863],[45.1976,-12.7896],[45.1988,-12.7852],[45.1931,-12.7807],[45.1925,-12.7754],[45.1854,-12.7811],[45.1863,-12.7744],[45.1777,-12.7712],[45.1832,-12.7857],[45.1866,-12.7862],[45.19,-12.7805]]]}},{"type":"Feature","properties":{"landuse":"green_public_spaces"},"geometry":{"type":"Polygon","coordinates":[[[45.1608,-12.7492],[45.1672,-12.7543],[45.1691,-12.7522],[45.1677,-12.7443],[45.1629,-12.7437],[45.1583,-12.748],[45.1608,-12.7492]]]}},{"type":"Feature","properties":{"landuse":"green_public_spaces"},"geometry":{"type":"Polygon","coordinates":[[[45.1555,-12.7751],[45.1544,-12.7775],[45.1542,-12.7753],[45.1474,-12.7746],[45.1474,-12.7767],[45.1546,-12.7775],[45.1546,-12.78],[45.1586,-12.7763],[45.1555,-12.7751]]]}},{"type":"Feature","properties":{"landuse":"green_public_spaces"},"geometry":{"type":"Polygon","coordinates":[[[45.1481,-12.8035],[45.1468,-12.8053],[45.1511,-12.807],[45.1504,-12.8009],[45.1481,-12.8035]]]}},{"type":"Feature","properties":{"landuse":"green_public_spaces"},"geometry":{"type":"Polygon","coordinates":[[[45.1139,-12.8082],[45.1113,-12.808],[45.112,-12.8102],[45.1139,-12.8082]]]}},{"type":"Feature","properties":{"landuse":"farmland"},"geometry":{"type":"Polygon","coordinates":[[[45.1175,-12.7791],[45.1156,-12.7807],[45.1205,-12.7822],[45.1175,-12.7791]]]}},{"type":"Feature","properties":{"landuse":"farmland"},"geometry":{"type":"Polygon","coordinates":[[[45.1323,-12.8447],[45.132,-12.8462],[45.1336,-12.845],[45.1323,-12.8447]]]}},{"type":"Feature","properties":{"landuse":"farmland"},"geometry":{"type":"Polygon","coordinates":[[[45.1451,-12.8364],[45.1439,-12.8411],[45.1461,-12.8426],[45.1451,-12.8364]]]}},{"type":"Feature","properties":{"landuse":"farmland"},"geometry":{"type":"Polygon","coordinates":[[[45.1456,-12.8359],[45.1451,-12.8363],[45.1474,-12.8378],[45.1456,-12.8359]]]}},{"type":"Feature","properties":{"landuse":"farmland"},"geometry":{"type":"Polygon","coordinates":[[[45.1475,-12.8381],[45.1454,-12.8366],[45.1472,-12.8387],[45.1475,-12.8381]]]}},{"type":"Feature","properties":{"landuse":"farmland"},"geometry":{"type":"Polygon","coordinates":[[[45.1475,-12.8381],[45.1487,-12.8405],[45.1505,-12.836],[45.1465,-12.8361],[45.1475,-12.8381]]]}},{"type":"Feature","properties":{"landuse":"farmland"},"geometry":{"type":"Polygon","coordinates":[[[45.1303,-12.7988],[45.1283,-12.8012],[45.1313,-12.801],[45.1303,-12.7988]]]}},{"type":"Feature","properties":{"landuse":"farmland"},"geometry":{"type":"Polygon","coordinates":[[[45.1261,-12.8066],[45.1267,-12.8054],[45.1257,-12.8058],[45.1261,-12.8066]]]}},{"type":"Feature","properties":{"landuse":"farmland"},"geometry":{"type":"Polygon","coordinates":[[[45.1783,-12.8371],[45.1788,-12.8391],[45.1809,-12.8385],[45.1783,-12.8371]]]}},{"type":"Feature","properties":{"landuse":"farmland"},"geometry":{"type":"Polygon","coordinates":[[[45.1761,-12.8376],[45.1746,-12.8397],[45.1787,-12.8394],[45.1761,-12.8376]]]}},{"type":"Feature","properties":{"landuse":"farmland"},"geometry":{"type":"Polygon","coordinates":[[[45.1036,-12.845],[45.1053,-12.8464],[45.1052,-12.8454],[45.1036,-12.845]]]}},{"type":"Feature","properties":{"landuse":"farmland"},"geometry":{"type":"Polygon","coordinates":[[[45.1181,-12.7835],[45.1162,-12.7825],[45.1193,-12.7862],[45.1181,-12.7835]]]}},{"type":"Feature","properties":{"landuse":"farmland"},"geometry":{"type":"Polygon","coordinates":[[[45.1188,-12.7835],[45.1195,-12.7852],[45.121,-12.7841],[45.1188,-12.7835]]]}},{"type":"Feature","properties":{"landuse":"farmland"},"geometry":{"type":"Polygon","coordinates":[[[45.1077,-12.7845],[45.1114,-12.7849],[45.1122,-12.783],[45.1077,-12.7845]]]}},{"type":"Feature","properties":{"landuse":"farmland"},"geometry":{"type":"Polygon","coordinates":[[[45.1103,-12.7859],[45.1095,-12.7865],[45.111,-12.7877],[45.1103,-12.7859]]]}},{"type":"Feature","properties":{"landuse":"farmland"},"geometry":{"type":"Polygon","coordinates":[[[45.1076,-12.7837],[45.1083,-12.7844],[45.1082,-12.7829],[45.1076,-12.7837]]]}},{"type":"Feature","properties":{"landuse":"farmland"},"geometry":{"type":"Polygon","coordinates":[[[45.1056,-12.7883],[45.1045,-12.787],[45.102,-12.7873],[45.1056,-12.7883]]]}},{"type":"Feature","properties":{"landuse":"farmland"},"geometry":{"type":"Polygon","coordinates":[[[45.1057,-12.7859],[45.1048,-12.7868],[45.1061,-12.7868],[45.1057,-12.7859]]]}},{"type":"Feature","properties":{"landuse":"farmland"},"geometry":{"type":"Polygon","coordinates":[[[45.1083,-12.7825],[45.1084,-12.7833],[45.1096,-12.7826],[45.1083,-12.7825]]]}},{"type":"Feature","properties":{"landuse":"farmland"},"geometry":{"type":"Polygon","coordinates":[[[45.107,-12.7726],[45.1055,-12.774],[45.1069,-12.7743],[45.107,-12.7726]]]}},{"type":"Feature","properties":{"landuse":"farmland"},"geometry":{"type":"Polygon","coordinates":[[[45.1053,-12.7749],[45.1043,-12.7736],[45.1025,-12.776],[45.1053,-12.7749]]]}},{"type":"Feature","properties":{"landuse":"farmland"},"geometry":{"type":"Polygon","coordinates":[[[45.1035,-12.7836],[45.1037,-12.7845],[45.1044,-12.7827],[45.1035,-12.7836]]]}},{"type":"Feature","properties":{"landuse":"farmland"},"geometry":{"type":"Polygon","coordinates":[[[45.1073,-12.7781],[45.1083,-12.7811],[45.1089,-12.7796],[45.1073,-12.7781]]]}},{"type":"Feature","properties":{"landuse":"farmland"},"geometry":{"type":"Polygon","coordinates":[[[45.1067,-12.7748],[45.1036,-12.7791],[45.1061,-12.7785],[45.1067,-12.7748]]]}},{"type":"Feature","properties":{"landuse":"farmland"},"geometry":{"type":"Polygon","coordinates":[[[45.1373,-12.8368],[45.1387,-12.8402],[45.1397,-12.8383],[45.1373,-12.8368]]]}},{"type":"Feature","properties":{"landuse":"farmland"},"geometry":{"type":"Polygon","coordinates":[[[45.136,-12.8395],[45.1356,-12.8416],[45.1408,-12.8425],[45.136,-12.8395]]]}},{"type":"Feature","properties":{"landuse":"farmland"},"geometry":{"type":"Polygon","coordinates":[[[45.1171,-12.8332],[45.1173,-12.8353],[45.1195,-12.8347],[45.1171,-12.8332]]]}},{"type":"Feature","properties":{"landuse":"farmland"},"geometry":{"type":"Polygon","coordinates":[[[45.1443,-12.8072],[45.1448,-12.808],[45.1457,-12.8073],[45.1443,-12.8072]]]}},{"type":"Feature","properties":{"landuse":"farmland"},"geometry":{"type":"Polygon","coordinates":[[[45.1427,-12.8071],[45.1416,-12.8088],[45.1444,-12.8081],[45.1427,-12.8071]]]}},{"type":"Feature","properties":{"landuse":"farmland"},"geometry":{"type":"Polygon","coordinates":[[[45.1282,-12.8266],[45.1262,-12.8248],[45.126,-12.8269],[45.1282,-12.8266]]]}},{"type":"Feature","properties":{"landuse":"farmland"},"geometry":{"type":"Polygon","coordinates":[[[45.1332,-12.7947],[45.1324,-12.7955],[45.1334,-12.7963],[45.1332,-12.7947]]]}},{"type":"Feature","properties":{"landuse":"farmland"},"geometry":{"type":"Polygon","coordinates":[[[45.1407,-12.7984],[45.139,-12.7995],[45.1422,-12.7996],[45.1407,-12.7984]]]}},{"type":"Feature","properties":{"landuse":"farmland"},"geometry":{"type":"Polygon","coordinates":[[[45.1164,-12.7929],[45.1153,-12.7926],[45.1159,-12.7943],[45.1164,-12.7929]]]}},{"type":"Feature","properties":{"landuse":"farmland"},"geometry":{"type":"Polygon","coordinates":[[[45.118,-12.7935],[45.1184,-12.7952],[45.119,-12.7939],[45.118,-12.7935]]]}},{"type":"Feature","properties":{"landuse":"farmland"},"geometry":{"type":"Polygon","coordinates":[[[45.1181,-12.7944],[45.1168,-12.7955],[45.1183,-12.7967],[45.1181,-12.7944]]]}},{"type":"Feature","properties":{"landuse":"farmland"},"geometry":{"type":"Polygon","coordinates":[[[45.1184,-12.7902],[45.1161,-12.791],[45.1186,-12.7915],[45.1184,-12.7902]]]}},{"type":"Feature","properties":{"landuse":"farmland"},"geometry":{"type":"Polygon","coordinates":[[[45.1152,-12.7765],[45.1146,-12.7783],[45.116,-12.7781],[45.1152,-12.7765]]]}},{"type":"Feature","properties":{"landuse":"orchard"},"geometry":{"type":"Polygon","coordinates":[[[45.1436,-12.7948],[45.1421,-12.7962],[45.1443,-12.7955],[45.1436,-12.7948]]]}},{"type":"Feature","properties":{"landuse":"orchard"},"geometry":{"type":"Polygon","coordinates":[[[45.1479,-12.7956],[45.1482,-12.7973],[45.1488,-12.796],[45.1479,-12.7956]]]}},{"type":"Feature","properties":{"landuse":"farmland"},"geometry":{"type":"Polygon","coordinates":[[[45.1543,-12.8527],[45.1543,-12.8553],[45.1562,-12.8538],[45.1543,-12.8527]]]}},{"type":"Feature","properties":{"landuse":"orchard"},"geometry":{"type":"Polygon","coordinates":[[[45.1331,-12.8202],[45.1334,-12.8214],[45.1339,-12.8209],[45.1331,-12.8202]]]}},{"type":"Feature","properties":{"landuse":"farmland"},"geometry":{"type":"Polygon","coordinates":[[[45.0935,-12.7667],[45.0927,-12.7674],[45.0936,-12.7682],[45.0935,-12.7667]]]}},{"type":"Feature","properties":{"landuse":"orchard"},"geometry":{"type":"Polygon","coordinates":[[[45.1223,-12.8079],[45.1222,-12.8099],[45.1231,-12.8105],[45.1223,-12.8079]]]}},{"type":"Feature","properties":{"landuse":"orchard"},"geometry":{"type":"Polygon","coordinates":[[[45.128,-12.8112],[45.1267,-12.8111],[45.1272,-12.8128],[45.128,-12.8112]]]}}]}