{"type":"FeatureCollection","features":[{"type":"Feature","properties":{"landuse":"farmland"},"geometry":{"type":"Polygon","coordinates":[[[26.773,37.81],[26.7728,37.8059],[26.7792,37.8081],[26.773,37.81]]]}},{"type":"Feature","properties":{"landuse":"farmland"},"geometry":{"type":"Polygon","coordinates":[[[26.8888,37.7757],[26.8915,37.7718],[26.896,37.7741],[26.8922,37.7778],[26.8888,37.7757]]]}},{"type":"Feature","properties":{"landuse":"farmland"},"geometry":{"type":"Polygon","coordinates":[[[26.926,37.7708],[26.9247,37.7688],[26.9274,37.7694],[26.926,37.7708]]]}},{"type":"Feature","properties":{"landuse":"farmland"},"geometry":{"type":"Polygon","coordinates":[[[26.9165,37.7714],[26.9236,37.7701],[26.9222,37.7723],[26.9165,37.7714]]]}},{"type":"Feature","properties":{"landuse":"farmland"},"geometry":{"type":"Polygon","coordinates":[[[26.9364,37.7012],[26.9402,37.7004],[26.9366,37.7036],[26.9387,37.7174],[26.9266,37.7187],[26.9253,37.7146],[26.9174,37.7119],[26.9083,37.7155],[26.9364,37.7012]]]}},{"type":"Feature","properties":{"landuse":"farmland"},"geometry":{"type":"Polygon","coordinates":[[[25.2209,39.9253],[25.2206,39.9206],[25.2232,39.922],[25.2209,39.9253]]]}},{"type":"Feature","properties":{"landuse":"farmland"},"geometry":{"type":"Polygon","coordinates":[[[25.2168,39.9314],[25.2153,39.9269],[25.2206,39.9274],[25.2168,39.9314]]]}},{"type":"Feature","properties":{"landuse":"farmland"},"geometry":{"type":"Polygon","coordinates":[[[25.0513,39.8414],[25.0496,39.8396],[25.0517,39.8385],[25.0513,39.8414]]]}},{"type":"Feature","properties":{"landuse":"green_public_spaces"},"geometry":{"type":"Polygon","coordinates":[[[25.2106,39.947],[25.193,39.9472],[25.1897,39.937],[25.1797,39.927],[25.1571,39.9141],[25.1804,39.9096],[25.2253,39.9159],[25.2301,39.9097],[25.2393,39.9169],[25.2536,39.9185],[25.2569,39.9244],[25.2541,39.9317],[25.2349,39.9361],[25.225,39.9455],[25.2106,39.947]]]}},{"type":"Feature","properties":{"landuse":"green_public_spaces"},"geometry":{"type":"Polygon","coordinates":[[[26.351,39.0045],[26.345,39.0073],[26.3463,39.0132],[26.3149,38.9869],[26.3282,38.9767],[26.338,38.9767],[26.3363,38.9819],[26.3275,38.9847],[26.3336,38.9908],[26.3348,38.9985],[26.3437,39.0044],[26.351,39.0045]]]}},{"type":"Feature","properties":{"landuse":"farmland"},"geometry":{"type":"Polygon","coordinates":[[[26.5561,37.3001],[26.5587,37.2971],[26.5599,37.2987],[26.5561,37.3001]]]}},{"type":"Feature","properties":{"landuse":"farmland"},"geometry":{"type":"Polygon","coordinates":[[[26.5406,37.2933],[26.5425,37.2942],[26.54,37.2947],[26.5406,37.2933]]]}},{"type":"Feature","properties":{"landuse":"orchard"},"geometry":{"type":"Polygon","coordinates":[[[26.8889,37.674],[26.8897,37.6747],[26.8873,37.6753],[26.8889,37.674]]]}},{"type":"Feature","properties":{"landuse":"orchard"},"geometry":{"type":"Polygon","coordinates":[[[26.9151,37.7115],[26.9164,37.7112],[26.9156,37.7121],[26.9151,37.7115]]]}},{"type":"Feature","properties":{"landuse":"farmland"},"geometry":{"type":"Polygon","coordinates":[[[25.218,39.9207],[25.2181,39.9198],[25.2206,39.9205],[25.218,39.9207]]]}},{"type":"Feature","properties":{"landuse":"orchard"},"geometry":{"type":"Polygon","coordinates":[[[26.1269,38.319],[26.1294,38.3186],[26.1275,38.3205],[26.1269,38.319]]]}},{"type":"Feature","properties":{"landuse":"orchard"},"geometry":{"type":"Polygon","coordinates":[[[26.1274,38.3208],[26.1295,38.3199],[26.1299,38.3205],[26.1274,38.3208]]]}},{"type":"Feature","properties":{"landuse":"orchard"},"geometry":{"type":"Polygon","coordinates":[[[26.1333,38.322],[26.1354,38.3255],[26.1325,38.3234],[26.1333,38.322]]]}},{"type":"Feature","properties":{"landuse":"orchard"},"geometry":{"type":"Polygon","coordinates":[[[26.8893,37.7638],[26.8907,37.7628],[26.8901,37.7649],[26.8893,37.7638]]]}},{"type":"Feature","properties":{"landuse":"farmland"},"geometry":{"type":"Polygon","coordinates":[[[26.1503,39.3192],[26.1529,39.318],[26.1542,39.319],[26.1503,39.3192]]]}},{"type":"Feature","properties":{"landuse":"farmland"},"geometry":{"type":"Polygon","coordinates":[[[26.1478,39.3172],[26.1494,39.3154],[26.1496,39.3166],[26.1478,39.3172]]]}},{"type":"Feature","properties":{"landuse":"farmland"},"geometry":{"type":"Polygon","coordinates":[[[26.1471,39.3176],[26.1457,39.3165],[26.147,39.3151],[26.1471,39.3176]]]}},{"type":"Feature","properties":{"landuse":"farmland"},"geometry":{"type":"Polygon","coordinates":[[[26.1493,39.3154],[26.1467,39.3144],[26.1487,39.3139],[26.1493,39.3154]]]}},{"type":"Feature","properties":{"landuse":"farmland"},"geometry":{"type":"Polygon","coordinates":[[[26.1511,39.3168],[26.1545,39.3178],[26.1514,39.3182],[26.1511,39.3168]]]}},{"type":"Feature","properties":{"landuse":"farmland"},"geometry":{"type":"Polygon","coordinates":[[[26.1523,39.3171],[26.1541,39.3161],[26.1576,39.3187],[26.1523,39.3171]]]}},{"type":"Feature","properties":{"landuse":"farmland"},"geometry":{"type":"Polygon","coordinates":[[[26.1547,39.3197],[26.1515,39.3201],[26.1539,39.3191],[26.1547,39.3197]]]}},{"type":"Feature","properties":{"landuse":"farmland"},"geometry":{"type":"Polygon","coordinates":[[[26.2006,39.2139],[26.1998,39.2131],[26.2009,39.2126],[26.2006,39.2139]]]}},{"type":"Feature","properties":{"landuse":"farmland"},"geometry":{"type":"Polygon","coordinates":[[[26.2111,39.211],[26.2102,39.2088],[26.2124,39.2106],[26.2111,39.211]]]}},{"type":"Feature","properties":{"landuse":"orchard"},"geometry":{"type":"Polygon","coordinates":[[[26.1552,39.3163],[26.1497,39.3148],[26.1561,39.3116],[26.1649,39.3152],[26.1552,39.3163]]]}},{"type":"Feature","properties":{"landuse":"orchard"},"geometry":{"type":"Polygon","coordinates":[[[26.1513,39.3101],[26.1525,39.3131],[26.1486,39.3125],[26.1513,39.3101]]]}},{"type":"Feature","properties":{"landuse":"green_public_spaces"},"geometry":{"type":"Polygon","coordinates":[[[26.1393,38.3557],[26.1392,38.3548],[26.1404,38.3547],[26.1393,38.3557]]]}},{"type":"Feature","properties":{"landuse":"farmland"},"geometry":{"type":"Polygon","coordinates":[[[26.2015,39.3753],[26.2025,39.3736],[26.2025,39.3751],[26.2015,39.3753]]]}},{"type":"Feature","properties":{"landuse":"farmland"},"geometry":{"type":"Polygon","coordinates":[[[26.171,39.3697],[26.172,39.3718],[26.1681,39.3727],[26.1662,39.3705],[26.171,39.3697]]]}},{"type":"Feature","properties":{"landuse":"orchard"},"geometry":{"type":"Polygon","coordinates":[[[26.5475,39.1154],[26.5486,39.1172],[26.5463,39.1163],[26.5475,39.1154]]]}},{"type":"Feature","properties":{"landuse":"greenhouse_horticulture"},"geometry":{"type":"Polygon","coordinates":[[[26.9666,37.7098],[26.9675,37.7105],[26.966,37.7103],[26.9666,37.7098]]]}},{"type":"Feature","properties":{"landuse":"farmland"},"geometry":{"type":"Polygon","coordinates":[[[26.1854,39.3309],[26.1863,39.3299],[26.187,39.3306],[26.1854,39.3309]]]}},{"type":"Feature","properties":{"landuse":"farmland"},"geometry":{"type":"Polygon","coordinates":[[[26.5419,37.3387],[26.5442,37.3373],[26.5447,37.3379],[26.5419,37.3387]]]}},{"type":"Feature","properties":{"landuse":"farmland"},"geometry":{"type":"Polygon","coordinates":[[[26.5476,37.3292],[26.55,37.3302],[26.5477,37.3315],[26.5476,37.3292]]]}},{"type":"Feature","properties":{"landuse":"farmland"},"geometry":{"type":"Polygon","coordinates":[[[26.5533,37.3348],[26.5534,37.3328],[26.5552,37.3329],[26.5533,37.3348]]]}},{"type":"Feature","properties":{"landuse":"orchard"},"geometry":{"type":"Polygon","coordinates":[[[26.5383,39.1091],[26.5387,39.1021],[26.5409,39.1027],[26.5383,39.1091]]]}},{"type":"Feature","properties":{"landuse":"orchard"},"geometry":{"type":"Polygon","coordinates":[[[26.2729,39.2061],[26.2749,39.2075],[26.2692,39.2136],[26.2645,39.2104],[26.2701,39.2034],[26.2729,39.2061]]]}},{"type":"Feature","properties":{"landuse":"farmland"},"geometry":{"type":"Polygon","coordinates":[[[26.185,39.3252],[26.1864,39.3248],[26.186,39.326],[26.185,39.3252]]]}},{"type":"Feature","properties":{"landuse":"orchard"},"geometry":{"type":"Polygon","coordinates":[[[26.1864,39.3247],[26.1859,39.3233],[26.1874,39.3231],[26.1864,39.3247]]]}},{"type":"Feature","properties":{"landuse":"orchard"},"geometry":{"type":"Polygon","coordinates":[[[26.1887,39.3233],[26.1886,39.3226],[26.1909,39.3227],[26.1887,39.3233]]]}},{"type":"Feature","properties":{"landuse":"orchard"},"geometry":{"type":"Polygon","coordinates":[[[26.1804,39.3213],[26.1809,39.32],[26.1826,39.3213],[26.1804,39.3213]]]}},{"type":"Feature","properties":{"landuse":"orchard"},"geometry":{"type":"Polygon","coordinates":[[[26.1793,39.321],[26.179,39.3202],[26.1807,39.3201],[26.1793,39.321]]]}},{"type":"Feature","properties":{"landuse":"orchard"},"geometry":{"type":"Polygon","coordinates":[[[26.1745,39.3202],[26.1752,39.3185],[26.179,39.3198],[26.1745,39.3202]]]}},{"type":"Feature","properties":{"landuse":"orchard"},"geometry":{"type":"Polygon","coordinates":[[[26.1728,39.3209],[26.1752,39.3204],[26.1731,39.3217],[26.1728,39.3209]]]}},{"type":"Feature","properties":{"landuse":"orchard"},"geometry":{"type":"Polygon","coordinates":[[[26.1701,39.32],[26.1711,39.3218],[26.1696,39.321],[26.1701,39.32]]]}},{"type":"Feature","properties":{"landuse":"orchard"},"geometry":{"type":"Polygon","coordinates":[[[26.1665,39.3193],[26.1685,39.3195],[26.1679,39.3207],[26.1665,39.3193]]]}},{"type":"Feature","properties":{"landuse":"orchard"},"geometry":{"type":"Polygon","coordinates":[[[26.1833,39.3175],[26.1861,39.3157],[26.1852,39.3173],[26.1833,39.3175]]]}},{"type":"Feature","properties":{"landuse":"orchard"},"geometry":{"type":"Polygon","coordinates":[[[26.1825,39.3187],[26.181,39.3169],[26.1837,39.3168],[26.1825,39.3187]]]}},{"type":"Feature","properties":{"landuse":"orchard"},"geometry":{"type":"Polygon","coordinates":[[[26.133,38.3532],[26.1303,38.3515],[26.1345,38.3507],[26.133,38.3532]]]}}]}