{"type":"FeatureCollection","features":[{"type":"Feature","properties":{"landuse":"orchard"},"geometry":{"type":"Polygon","coordinates":[[[26.0801,35.1929],[26.0867,35.1964],[26.0796,35.1991],[26.0801,35.1929]],[[26.0812,35.1948],[26.0819,35.1948],[26.0816,35.1942],[26.0812,35.1948]]]}},{"type":"Feature","properties":{"landuse":"farmland"},"geometry":{"type":"Polygon","coordinates":[[[26.1125,35.2011],[26.1101,35.2023],[26.1079,35.1987],[26.1125,35.2011]],[[26.1111,35.2007],[26.1115,35.2005],[26.111,35.2005],[26.1111,35.2007]]]}},{"type":"Feature","properties":{"landuse":"farmland"},"geometry":{"type":"Polygon","coordinates":[[[26.107,35.1896],[26.1092,35.1873],[26.1069,35.192],[26.107,35.1896]],[[26.1071,35.1896],[26.1069,35.1906],[26.1078,35.1903],[26.1071,35.1896]]]}},{"type":"Feature","properties":{"landuse":"orchard"},"geometry":{"type":"Polygon","coordinates":[[[24.1376,35.5553],[24.1319,35.5544],[24.1362,35.5548],[24.134,35.5519],[24.1393,35.5511],[24.1376,35.5553]]]}},{"type":"Feature","properties":{"landuse":"orchard"},"geometry":{"type":"Polygon","coordinates":[[[25.2803,35.1379],[25.2827,35.1383],[25.2762,35.1403],[25.2803,35.1379]],[[25.2805,35.1377],[25.2804,35.1376],[25.2803,35.1377],[25.2805,35.1377]]]}},{"type":"Feature","properties":{"landuse":"farmland"},"geometry":{"type":"Polygon","coordinates":[[[24.7275,35.0908],[24.7351,35.0851],[24.7321,35.0927],[24.7275,35.0908]],[[24.7319,35.0906],[24.732,35.09],[24.7316,35.0899],[24.7319,35.0906]]]}},{"type":"Feature","properties":{"landuse":"farmland"},"geometry":{"type":"Polygon","coordinates":[[[24.7418,35.082],[24.741,35.0895],[24.7382,35.0858],[24.7418,35.082]],[[24.7397,35.0874],[24.7401,35.087],[24.7399,35.087],[24.7397,35.0874]],[[24.7415,35.0878],[24.7418,35.0873],[24.7416,35.0872],[24.7413,35.0877],[24.7415,35.0878]]]}},{"type":"Feature","properties":{"landuse":"farmland"},"geometry":{"type":"Polygon","coordinates":[[[24.7496,35.0789],[24.7459,35.0771],[24.753,35.0747],[24.7496,35.0789]],[[24.746,35.0789],[24.7457,35.079],[24.7458,35.0792],[24.7461,35.0791],[24.746,35.0789]],[[24.7494,35.0778],[24.7496,35.0773],[24.7493,35.0772],[24.7494,35.0778]],[[24.7482,35.0778],[24.7481,35.0782],[24.7483,35.0782],[24.7482,35.0778]]]}},{"type":"Feature","properties":{"landuse":"orchard"},"geometry":{"type":"Polygon","coordinates":[[[24.7571,35.0809],[24.7596,35.0783],[24.7592,35.0821],[24.7571,35.0809]],[[24.758,35.0809],[24.7582,35.0803],[24.7577,35.0808],[24.758,35.0809]]]}},{"type":"Feature","properties":{"landuse":"orchard"},"geometry":{"type":"Polygon","coordinates":[[[25.2928,35.1635],[25.2912,35.1665],[25.2938,35.1654],[25.2938,35.1675],[25.2895,35.1683],[25.2928,35.1635]],[[25.2908,35.1657],[25.2908,35.1659],[25.2918,35.1659],[25.2908,35.1657]]]}},{"type":"Feature","properties":{"landuse":"orchard"},"geometry":{"type":"Polygon","coordinates":[[[25.3175,35.16],[25.3088,35.1557],[25.3158,35.1551],[25.3175,35.16]],[[25.3153,35.1561],[25.3149,35.1557],[25.315,35.1563],[25.3163,35.1561],[25.3153,35.1561]],[[25.3144,35.1566],[25.3144,35.1567],[25.315,35.1567],[25.3144,35.1566]],[[25.3141,35.1568],[25.314,35.1578],[25.3155,35.1576],[25.3141,35.1568]],[[25.3166,35.1587],[25.3169,35.1581],[25.3167,35.158],[25.3166,35.1587]]]}},{"type":"Feature","properties":{"landuse":"orchard"},"geometry":{"type":"Polygon","coordinates":[[[25.308,35.1546],[25.3087,35.1525],[25.3158,35.1547],[25.308,35.1546]],[[25.3146,35.1544],[25.3153,35.1544],[25.3152,35.1542],[25.3146,35.1544]],[[25.3137,35.1542],[25.314,35.1543],[25.3139,35.1541],[25.3137,35.1542]],[[25.3127,35.1548],[25.3127,35.1549],[25.3133,35.1548],[25.3133,35.1546],[25.3127,35.1548]],[[25.312,35.1544],[25.3121,35.1545],[25.3124,35.1545],[25.312,35.1544]],[[25.3101,35.1553],[25.311,35.1555],[25.311,35.1552],[25.3101,35.1553]],[[25.3104,35.155],[25.3105,35.1551],[25.3109,35.155],[25.3104,35.155]],[[25.3104,35.1543],[25.3096,35.1546],[25.3105,35.1545],[25.3104,35.1543]],[[25.3096,35.1536],[25.309,35.1539],[25.3098,35.1539],[25.3096,35.1536]]]}},{"type":"Feature","properties":{"landuse":"orchard"},"geometry":{"type":"Polygon","coordinates":[[[25.3163,35.1613],[25.311,35.1612],[25.3085,35.1557],[25.3163,35.1613]],[[25.3126,35.16],[25.3125,35.1603],[25.3133,35.1605],[25.3134,35.1602],[25.3126,35.16]],[[25.3141,35.1606],[25.3147,35.1599],[25.3144,35.1596],[25.3141,35.1606]]]}},{"type":"Feature","properties":{"landuse":"orchard"},"geometry":{"type":"Polygon","coordinates":[[[25.3195,35.1451],[25.3177,35.1438],[25.32,35.1429],[25.3195,35.1451]],[[25.318,35.1441],[25.3186,35.1443],[25.318,35.1445],[25.3194,35.1442],[25.318,35.1441]]]}},{"type":"Feature","properties":{"landuse":"orchard"},"geometry":{"type":"Polygon","coordinates":[[[25.3133,35.145],[25.3168,35.1444],[25.3154,35.1463],[25.3192,35.1488],[25.3133,35.145]],[[25.3176,35.1481],[25.3171,35.1483],[25.3172,35.1484],[25.3177,35.1483],[25.3176,35.1481]]]}},{"type":"Feature","properties":{"landuse":"orchard"},"geometry":{"type":"Polygon","coordinates":[[[25.3177,35.1494],[25.3198,35.1499],[25.3175,35.1522],[25.3105,35.1475],[25.3127,35.1453],[25.3177,35.1494]],[[25.3138,35.149],[25.3139,35.1485],[25.3134,35.1485],[25.3138,35.149]],[[25.3148,35.1489],[25.3153,35.1488],[25.3152,35.1487],[25.3148,35.1489]],[[25.3145,35.1483],[25.3146,35.1485],[25.3151,35.1482],[25.3145,35.1483]],[[25.3171,35.1499],[25.3165,35.1502],[25.3169,35.1505],[25.3171,35.1499]],[[25.3178,35.1506],[25.3176,35.1514],[25.3201,35.1511],[25.3178,35.1506]]]}},{"type":"Feature","properties":{"landuse":"orchard"},"geometry":{"type":"Polygon","coordinates":[[[25.3241,35.3275],[25.3224,35.3215],[25.3263,35.3248],[25.3241,35.3275]],[[25.3252,35.3254],[25.3242,35.3254],[25.3252,35.3255],[25.3252,35.3254]]]}},{"type":"Feature","properties":{"landuse":"orchard"},"geometry":{"type":"Polygon","coordinates":[[[25.3404,35.3312],[25.3367,35.3277],[25.3428,35.3273],[25.3443,35.3304],[25.3404,35.3312]],[[25.3412,35.3302],[25.3428,35.3304],[25.3428,35.3302],[25.3412,35.3302]],[[25.3414,35.3297],[25.342,35.3299],[25.342,35.3298],[25.3414,35.3297]],[[25.3415,35.329],[25.3422,35.329],[25.3423,35.3288],[25.3415,35.329]],[[25.3408,35.329],[25.3406,35.329],[25.3406,35.3296],[25.3408,35.329]],[[25.3401,35.329],[25.3404,35.3304],[25.3403,35.329],[25.3401,35.329]],[[25.3395,35.3274],[25.3398,35.3281],[25.3402,35.3276],[25.3395,35.3274]]]}},{"type":"Feature","properties":{"landuse":"orchard"},"geometry":{"type":"Polygon","coordinates":[[[25.333,35.3281],[25.3278,35.3289],[25.3336,35.3258],[25.333,35.3281]]]}},{"type":"Feature","properties":{"landuse":"orchard"},"geometry":{"type":"Polygon","coordinates":[[[25.3655,35.3281],[25.3718,35.3224],[25.3831,35.3223],[25.383,35.3296],[25.3792,35.3314],[25.3655,35.3281]]]}},{"type":"Feature","properties":{"landuse":"green_public_spaces"},"geometry":{"type":"Polygon","coordinates":[[[24.4724,35.3671],[24.4723,35.3655],[24.4741,35.3666],[24.4724,35.3671]]]}},{"type":"Feature","properties":{"landuse":"green_public_spaces"},"geometry":{"type":"Polygon","coordinates":[[[25.1588,35.2487],[25.1646,35.2728],[25.1702,35.2749],[25.168,35.2867],[25.1536,35.2575],[25.1528,35.2479],[25.1441,35.2554],[25.1384,35.2449],[25.1342,35.2191],[25.1403,35.2118],[25.1459,35.2162],[25.1466,35.2292],[25.1588,35.2487]]]}},{"type":"Feature","properties":{"landuse":"green_public_spaces"},"geometry":{"type":"Polygon","coordinates":[[[25.3318,35.3351],[25.3273,35.3355],[25.3328,35.3316],[25.3364,35.3235],[25.3382,35.2955],[25.3619,35.2746],[25.345,35.2958],[25.343,35.3164],[25.3379,35.321],[25.3405,35.3236],[25.3345,35.3257],[25.3318,35.3351]]]}},{"type":"Feature","properties":{"landuse":"green_public_spaces"},"geometry":{"type":"Polygon","coordinates":[[[25.7099,35.1795],[25.7017,35.1816],[25.7015,35.1739],[25.7056,35.171],[25.711,35.1723],[25.7099,35.1795]]]}},{"type":"Feature","properties":{"landuse":"green_public_spaces"},"geometry":{"type":"Polygon","coordinates":[[[25.4846,35.2961],[25.4827,35.2947],[25.4879,35.2929],[25.4846,35.2961]]]}},{"type":"Feature","properties":{"landuse":"green_public_spaces"},"geometry":{"type":"Polygon","coordinates":[[[25.7102,35.2312],[25.7139,35.2368],[25.7147,35.2475],[25.7112,35.2581],[25.7048,35.2594],[25.6995,35.2556],[25.6911,35.2353],[25.6971,35.231],[25.7102,35.2312]]]}},{"type":"Feature","properties":{"landuse":"orchard"},"geometry":{"type":"Polygon","coordinates":[[[24.7591,34.9956],[24.7575,34.9951],[24.7594,34.9949],[24.7591,34.9956]]]}},{"type":"Feature","properties":{"landuse":"farmland"},"geometry":{"type":"Polygon","coordinates":[[[23.6794,35.4985],[23.6803,35.4963],[23.682,35.4985],[23.6794,35.4985]]]}},{"type":"Feature","properties":{"landuse":"orchard"},"geometry":{"type":"Polygon","coordinates":[[[23.6792,35.4947],[23.6763,35.489],[23.6847,35.4878],[23.6844,35.4954],[23.6792,35.4947]]]}},{"type":"Feature","properties":{"landuse":"orchard"},"geometry":{"type":"Polygon","coordinates":[[[23.8486,35.5219],[23.8481,35.5203],[23.849,35.5203],[23.8486,35.5219]]]}},{"type":"Feature","properties":{"landuse":"farmland"},"geometry":{"type":"Polygon","coordinates":[[[23.8518,35.5248],[23.8506,35.5231],[23.8522,35.5233],[23.8518,35.5248]]]}},{"type":"Feature","properties":{"landuse":"farmland"},"geometry":{"type":"Polygon","coordinates":[[[23.853,35.5228],[23.8542,35.5244],[23.8531,35.5245],[23.853,35.5228]]]}},{"type":"Feature","properties":{"landuse":"orchard"},"geometry":{"type":"Polygon","coordinates":[[[25.4639,35.279],[25.4641,35.2778],[25.4657,35.2789],[25.4639,35.279]]]}},{"type":"Feature","properties":{"landuse":"orchard"},"geometry":{"type":"Polygon","coordinates":[[[25.3894,35.3176],[25.3873,35.3151],[25.3894,35.3154],[25.3894,35.3176]]]}},{"type":"Feature","properties":{"landuse":"farmland"},"geometry":{"type":"Polygon","coordinates":[[[26.0906,35.2024],[26.0932,35.2025],[26.093,35.2031],[26.0906,35.2024]]]}},{"type":"Feature","properties":{"landuse":"farmland"},"geometry":{"type":"Polygon","coordinates":[[[26.0903,35.2023],[26.0882,35.2014],[26.0903,35.2006],[26.0903,35.2023]]]}},{"type":"Feature","properties":{"landuse":"farmland"},"geometry":{"type":"Polygon","coordinates":[[[26.0893,35.204],[26.085,35.206],[26.0818,35.2015],[26.0893,35.204]]]}},{"type":"Feature","properties":{"landuse":"orchard"},"geometry":{"type":"Polygon","coordinates":[[[26.0924,35.2042],[26.087,35.2026],[26.0944,35.2046],[26.0924,35.2042]]]}},{"type":"Feature","properties":{"landuse":"farmland"},"geometry":{"type":"Polygon","coordinates":[[[26.1043,35.2023],[26.103,35.203],[26.1026,35.2022],[26.1043,35.2023]]]}},{"type":"Feature","properties":{"landuse":"orchard"},"geometry":{"type":"Polygon","coordinates":[[[26.0779,35.2003],[26.0786,35.2047],[26.076,35.2014],[26.0779,35.2003]]]}},{"type":"Feature","properties":{"landuse":"orchard"},"geometry":{"type":"Polygon","coordinates":[[[26.0766,35.2101],[26.0712,35.2113],[26.0714,35.2164],[26.0683,35.2145],[26.0719,35.2057],[26.0714,35.2095],[26.0746,35.2066],[26.0779,35.2076],[26.0766,35.2101]]]}},{"type":"Feature","properties":{"landuse":"orchard"},"geometry":{"type":"Polygon","coordinates":[[[26.072,35.2175],[26.073,35.2155],[26.0727,35.2181],[26.072,35.2175]]]}},{"type":"Feature","properties":{"landuse":"farmland"},"geometry":{"type":"Polygon","coordinates":[[[26.1127,35.1977],[26.1109,35.1977],[26.1121,35.196],[26.1127,35.1977]]]}},{"type":"Feature","properties":{"landuse":"farmland"},"geometry":{"type":"Polygon","coordinates":[[[26.1119,35.198],[26.1138,35.1988],[26.1118,35.1998],[26.1119,35.198]]]}},{"type":"Feature","properties":{"landuse":"farmland"},"geometry":{"type":"Polygon","coordinates":[[[26.1132,35.2022],[26.1129,35.1999],[26.1146,35.2008],[26.1132,35.2022]]]}},{"type":"Feature","properties":{"landuse":"farmland"},"geometry":{"type":"Polygon","coordinates":[[[26.1138,35.1988],[26.1162,35.1987],[26.1149,35.2014],[26.1138,35.1988]]]}},{"type":"Feature","properties":{"landuse":"orchard"},"geometry":{"type":"Polygon","coordinates":[[[25.1349,35.3047],[25.1359,35.3047],[25.1355,35.3056],[25.1349,35.3047]]]}},{"type":"Feature","properties":{"landuse":"farmland"},"geometry":{"type":"Polygon","coordinates":[[[26.1192,35.199],[26.1198,35.1974],[26.1227,35.1976],[26.1192,35.199]]]}},{"type":"Feature","properties":{"landuse":"farmland"},"geometry":{"type":"Polygon","coordinates":[[[26.1174,35.195],[26.1197,35.1922],[26.1205,35.1971],[26.1157,35.1967],[26.1174,35.195]]]}},{"type":"Feature","properties":{"landuse":"orchard"},"geometry":{"type":"Polygon","coordinates":[[[26.1161,35.1936],[26.1175,35.1945],[26.1155,35.1944],[26.1161,35.1936]]]}},{"type":"Feature","properties":{"landuse":"farmland"},"geometry":{"type":"Polygon","coordinates":[[[26.1054,35.1997],[26.1068,35.2006],[26.1045,35.2008],[26.1054,35.1997]]]}},{"type":"Feature","properties":{"landuse":"farmland"},"geometry":{"type":"Polygon","coordinates":[[[26.1051,35.1992],[26.1034,35.1982],[26.1058,35.1977],[26.1051,35.1992]]]}},{"type":"Feature","properties":{"landuse":"farmland"},"geometry":{"type":"Polygon","coordinates":[[[26.1046,35.1956],[26.1039,35.1917],[26.107,35.1936],[26.1046,35.1956]]]}},{"type":"Feature","properties":{"landuse":"orchard"},"geometry":{"type":"Polygon","coordinates":[[[26.1127,35.1921],[26.1135,35.1927],[26.1115,35.1936],[26.1127,35.1921]]]}},{"type":"Feature","properties":{"landuse":"green_public_spaces"},"geometry":{"type":"Polygon","coordinates":[[[23.8937,35.5186],[23.8946,35.5186],[23.8949,35.52],[23.8937,35.5186]]]}},{"type":"Feature","properties":{"landuse":"orchard"},"geometry":{"type":"Polygon","coordinates":[[[25.3495,35.329],[25.3487,35.3317],[25.3475,35.3314],[25.3495,35.329]]]}},{"type":"Feature","properties":{"landuse":"orchard"},"geometry":{"type":"Polygon","coordinates":[[[25.3511,35.3315],[25.3488,35.3316],[25.3496,35.329],[25.3511,35.3315]]]}},{"type":"Feature","properties":{"landuse":"orchard"},"geometry":{"type":"Polygon","coordinates":[[[25.3487,35.3318],[25.3463,35.3324],[25.347,35.3314],[25.3487,35.3318]]]}},{"type":"Feature","properties":{"landuse":"orchard"},"geometry":{"type":"Polygon","coordinates":[[[25.3486,35.3325],[25.3504,35.3316],[25.3503,35.3323],[25.3486,35.3325]]]}},{"type":"Feature","properties":{"landuse":"orchard"},"geometry":{"type":"Polygon","coordinates":[[[25.3519,35.3339],[25.3508,35.3317],[25.3509,35.3334],[25.352,35.3316],[25.3519,35.3339]]]}},{"type":"Feature","properties":{"landuse":"orchard"},"geometry":{"type":"Polygon","coordinates":[[[25.3552,35.3323],[25.3531,35.3304],[25.3553,35.3291],[25.3552,35.3323]]]}},{"type":"Feature","properties":{"landuse":"orchard"},"geometry":{"type":"Polygon","coordinates":[[[25.3475,35.3272],[25.3466,35.3304],[25.3457,35.3269],[25.3475,35.3272]]]}},{"type":"Feature","properties":{"landuse":"orchard"},"geometry":{"type":"Polygon","coordinates":[[[25.3478,35.3272],[25.3489,35.3288],[25.347,35.3314],[25.3478,35.3272]]]}},{"type":"Feature","properties":{"landuse":"orchard"},"geometry":{"type":"Polygon","coordinates":[[[25.3598,35.3307],[25.3567,35.3332],[25.3564,35.3307],[25.3598,35.3307]]]}},{"type":"Feature","properties":{"landuse":"farmland"},"geometry":{"type":"Polygon","coordinates":[[[24.7514,35.4009],[24.751,35.4],[24.7529,35.4003],[24.7514,35.4009]]]}},{"type":"Feature","properties":{"landuse":"orchard"},"geometry":{"type":"Polygon","coordinates":[[[25.3335,35.3297],[25.3365,35.3266],[25.3356,35.3308],[25.3335,35.3297]]]}},{"type":"Feature","properties":{"landuse":"farmland"},"geometry":{"type":"Polygon","coordinates":[[[25.3318,35.3303],[25.3311,35.3317],[25.3332,35.33],[25.3318,35.3303]]]}},{"type":"Feature","properties":{"landuse":"farmland"},"geometry":{"type":"Polygon","coordinates":[[[25.3164,35.3304],[25.3186,35.3295],[25.317,35.3318],[25.3164,35.3304]]]}},{"type":"Feature","properties":{"landuse":"orchard"},"geometry":{"type":"Polygon","coordinates":[[[26.1098,35.1956],[26.1078,35.1967],[26.1081,35.1955],[26.1098,35.1956]]]}},{"type":"Feature","properties":{"landuse":"farmland"},"geometry":{"type":"Polygon","coordinates":[[[26.1086,35.193],[26.1081,35.1943],[26.1068,35.1929],[26.1086,35.193]]]}},{"type":"Feature","properties":{"landuse":"farmland"},"geometry":{"type":"Polygon","coordinates":[[[26.1066,35.1991],[26.1062,35.198],[26.1074,35.1987],[26.1066,35.1991]]]}},{"type":"Feature","properties":{"landuse":"farmland"},"geometry":{"type":"Polygon","coordinates":[[[26.108,35.1948],[26.1112,35.1946],[26.109,35.1964],[26.108,35.1948]]]}},{"type":"Feature","properties":{"landuse":"farmland"},"geometry":{"type":"Polygon","coordinates":[[[26.109,35.1964],[26.1074,35.1974],[26.1079,35.1946],[26.109,35.1964]]]}},{"type":"Feature","properties":{"landuse":"orchard"},"geometry":{"type":"Polygon","coordinates":[[[26.1077,35.1943],[26.1106,35.1948],[26.107,35.1959],[26.1077,35.1943]]]}},{"type":"Feature","properties":{"landuse":"farmland"},"geometry":{"type":"Polygon","coordinates":[[[26.1093,35.1981],[26.107,35.1975],[26.1121,35.196],[26.1093,35.1981]]]}},{"type":"Feature","properties":{"landuse":"farmland"},"geometry":{"type":"Polygon","coordinates":[[[26.1081,35.2012],[26.1104,35.2027],[26.1078,35.2039],[26.1081,35.2012]]]}},{"type":"Feature","properties":{"landuse":"orchard"},"geometry":{"type":"Polygon","coordinates":[[[26.0981,35.1989],[26.0986,35.1993],[26.0969,35.2004],[26.0981,35.1989]]]}},{"type":"Feature","properties":{"landuse":"farmland"},"geometry":{"type":"Polygon","coordinates":[[[26.0994,35.2009],[26.0979,35.2013],[26.0995,35.1984],[26.0994,35.2009]]]}},{"type":"Feature","properties":{"landuse":"orchard"},"geometry":{"type":"Polygon","coordinates":[[[26.1011,35.2006],[26.0994,35.2009],[26.1005,35.1993],[26.1011,35.2006]]]}},{"type":"Feature","properties":{"landuse":"farmland"},"geometry":{"type":"Polygon","coordinates":[[[26.1001,35.2008],[26.1017,35.2034],[26.099,35.2018],[26.1001,35.2008]]]}},{"type":"Feature","properties":{"landuse":"orchard"},"geometry":{"type":"Polygon","coordinates":[[[26.0985,35.1975],[26.097,35.1999],[26.0962,35.1961],[26.0985,35.1975]]]}},{"type":"Feature","properties":{"landuse":"orchard"},"geometry":{"type":"Polygon","coordinates":[[[26.1079,35.1917],[26.1102,35.1901],[26.1084,35.19],[26.1124,35.1904],[26.1079,35.1917]]]}},{"type":"Feature","properties":{"landuse":"orchard"},"geometry":{"type":"Polygon","coordinates":[[[26.0979,35.1968],[26.0974,35.1958],[26.0993,35.1957],[26.0979,35.1968]]]}},{"type":"Feature","properties":{"landuse":"orchard"},"geometry":{"type":"Polygon","coordinates":[[[26.0989,35.1972],[26.1014,35.1967],[26.0993,35.198],[26.0989,35.1972]]]}},{"type":"Feature","properties":{"landuse":"farmland"},"geometry":{"type":"Polygon","coordinates":[[[26.1028,35.197],[26.1016,35.1953],[26.1033,35.1955],[26.1028,35.197]]]}},{"type":"Feature","properties":{"landuse":"orchard"},"geometry":{"type":"Polygon","coordinates":[[[26.0959,35.2003],[26.0931,35.2018],[26.0914,35.2002],[26.0959,35.2003]]]}},{"type":"Feature","properties":{"landuse":"orchard"},"geometry":{"type":"Polygon","coordinates":[[[26.1013,35.1949],[26.1006,35.1936],[26.1035,35.1924],[26.1013,35.1949]]]}},{"type":"Feature","properties":{"landuse":"farmland"},"geometry":{"type":"Polygon","coordinates":[[[26.1025,35.1976],[26.1021,35.2017],[26.1007,35.1995],[26.1025,35.1976]]]}},{"type":"Feature","properties":{"landuse":"orchard"},"geometry":{"type":"Polygon","coordinates":[[[26.1045,35.196],[26.1055,35.1971],[26.1036,35.1961],[26.1045,35.196]]]}},{"type":"Feature","properties":{"landuse":"orchard"},"geometry":{"type":"Polygon","coordinates":[[[26.0851,35.1957],[26.0854,35.1944],[26.0869,35.1955],[26.0851,35.1957]]]}},{"type":"Feature","properties":{"landuse":"orchard"},"geometry":{"type":"Polygon","coordinates":[[[26.0887,35.199],[26.0915,35.1987],[26.0875,35.2],[26.0887,35.199]]]}},{"type":"Feature","properties":{"landuse":"orchard"},"geometry":{"type":"Polygon","coordinates":[[[26.081,35.2032],[26.0793,35.2008],[26.081,35.2001],[26.081,35.2032]]]}},{"type":"Feature","properties":{"landuse":"farmland"},"geometry":{"type":"Polygon","coordinates":[[[26.111,35.1906],[26.1101,35.1918],[26.1078,35.1922],[26.111,35.1906]]]}},{"type":"Feature","properties":{"landuse":"orchard"},"geometry":{"type":"Polygon","coordinates":[[[26.0993,35.1926],[26.0971,35.1897],[26.0995,35.1901],[26.0993,35.1926]]]}},{"type":"Feature","properties":{"landuse":"farmland"},"geometry":{"type":"Polygon","coordinates":[[[26.1069,35.1997],[26.1077,35.1989],[26.1088,35.2006],[26.1069,35.1997]]]}},{"type":"Feature","properties":{"landuse":"orchard"},"geometry":{"type":"Polygon","coordinates":[[[26.0938,35.197],[26.0866,35.1962],[26.0844,35.1931],[26.0938,35.197]]]}},{"type":"Feature","properties":{"landuse":"farmland"},"geometry":{"type":"Polygon","coordinates":[[[26.0786,35.2105],[26.0769,35.2112],[26.0766,35.2101],[26.0786,35.2105]]]}},{"type":"Feature","properties":{"landuse":"farmland"},"geometry":{"type":"Polygon","coordinates":[[[26.0822,35.2063],[26.0792,35.2067],[26.0809,35.2034],[26.0842,35.2054],[26.0822,35.2063]]]}},{"type":"Feature","properties":{"landuse":"green_public_spaces"},"geometry":{"type":"Polygon","coordinates":[[[23.895,35.52],[23.8964,35.5182],[23.897,35.5197],[23.895,35.52]]]}},{"type":"Feature","properties":{"landuse":"orchard"},"geometry":{"type":"Polygon","coordinates":[[[26.0863,35.1931],[26.0922,35.1933],[26.0925,35.191],[26.0934,35.1933],[26.0927,35.1962],[26.0863,35.1931]]]}},{"type":"Feature","properties":{"landuse":"orchard"},"geometry":{"type":"Polygon","coordinates":[[[25.123,35.3199],[25.1239,35.3186],[25.1249,35.3196],[25.123,35.3199]]]}},{"type":"Feature","properties":{"landuse":"orchard"},"geometry":{"type":"Polygon","coordinates":[[[25.1226,35.3223],[25.1228,35.3215],[25.1242,35.3222],[25.1226,35.3223]]]}},{"type":"Feature","properties":{"landuse":"farmland"},"geometry":{"type":"Polygon","coordinates":[[[23.8455,35.5259],[23.8444,35.5251],[23.845,35.5239],[23.8455,35.5259]]]}},{"type":"Feature","properties":{"landuse":"farmland"},"geometry":{"type":"Polygon","coordinates":[[[24.1177,35.5312],[24.1118,35.519],[24.1245,35.5181],[24.1273,35.5266],[24.1236,35.5289],[24.1247,35.5266],[24.1211,35.526],[24.1177,35.5312]]]}},{"type":"Feature","properties":{"landuse":"orchard"},"geometry":{"type":"Polygon","coordinates":[[[24.1182,35.5317],[24.1196,35.5317],[24.1182,35.5324],[24.1182,35.5317]]]}},{"type":"Feature","properties":{"landuse":"orchard"},"geometry":{"type":"Polygon","coordinates":[[[24.1202,35.5318],[24.1196,35.5306],[24.1231,35.5294],[24.1202,35.5318]]]}},{"type":"Feature","properties":{"landuse":"orchard"},"geometry":{"type":"Polygon","coordinates":[[[25.7544,35.0159],[25.7514,35.0168],[25.7514,35.0158],[25.7544,35.0159]]]}},{"type":"Feature","properties":{"landuse":"orchard"},"geometry":{"type":"Polygon","coordinates":[[[25.7495,35.0166],[25.7482,35.0173],[25.7489,35.0158],[25.7495,35.0166]]]}},{"type":"Feature","properties":{"landuse":"orchard"},"geometry":{"type":"Polygon","coordinates":[[[25.1426,35.2712],[25.1431,35.2725],[25.1415,35.2715],[25.1426,35.2712]]]}},{"type":"Feature","properties":{"landuse":"orchard"},"geometry":{"type":"Polygon","coordinates":[[[25.1427,35.2695],[25.1428,35.2685],[25.1451,35.2686],[25.1427,35.2695]]]}},{"type":"Feature","properties":{"landuse":"farmland"},"geometry":{"type":"Polygon","coordinates":[[[25.142,35.2688],[25.1449,35.2673],[25.1452,35.2685],[25.142,35.2688]]]}},{"type":"Feature","properties":{"landuse":"orchard"},"geometry":{"type":"Polygon","coordinates":[[[25.1468,35.2691],[25.1483,35.2694],[25.1407,35.2707],[25.1468,35.2691]]]}},{"type":"Feature","properties":{"landuse":"orchard"},"geometry":{"type":"Polygon","coordinates":[[[25.3978,35.3043],[25.4005,35.3075],[25.3969,35.3062],[25.3978,35.3043]]]}},{"type":"Feature","properties":{"landuse":"orchard"},"geometry":{"type":"Polygon","coordinates":[[[25.3934,35.3079],[25.3987,35.3108],[25.3962,35.3124],[25.3934,35.3079]]]}},{"type":"Feature","properties":{"landuse":"orchard"},"geometry":{"type":"Polygon","coordinates":[[[25.3928,35.3139],[25.3923,35.31],[25.3959,35.3125],[25.3928,35.3139]]]}},{"type":"Feature","properties":{"landuse":"orchard"},"geometry":{"type":"Polygon","coordinates":[[[25.4008,35.309],[25.3987,35.3108],[25.398,35.3093],[25.4008,35.309]]]}},{"type":"Feature","properties":{"landuse":"orchard"},"geometry":{"type":"Polygon","coordinates":[[[25.3967,35.3065],[25.4009,35.309],[25.3954,35.3082],[25.3967,35.3065]]]}},{"type":"Feature","properties":{"landuse":"orchard"},"geometry":{"type":"Polygon","coordinates":[[[25.0854,35.3247],[25.0868,35.3237],[25.0876,35.3246],[25.0854,35.3247]]]}},{"type":"Feature","properties":{"landuse":"orchard"},"geometry":{"type":"Polygon","coordinates":[[[24.153,35.4673],[24.1536,35.4645],[24.1548,35.466],[24.153,35.4673]]]}},{"type":"Feature","properties":{"landuse":"orchard"},"geometry":{"type":"Polygon","coordinates":[[[24.1529,35.4678],[24.1544,35.4669],[24.1544,35.468],[24.1529,35.4678]]]}},{"type":"Feature","properties":{"landuse":"orchard"},"geometry":{"type":"Polygon","coordinates":[[[24.1534,35.4641],[24.1535,35.4624],[24.1552,35.4632],[24.1534,35.4641]]]}},{"type":"Feature","properties":{"landuse":"orchard"},"geometry":{"type":"Polygon","coordinates":[[[24.152,35.4641],[24.1505,35.4595],[24.1534,35.4614],[24.152,35.4641]]]}},{"type":"Feature","properties":{"landuse":"orchard"},"geometry":{"type":"Polygon","coordinates":[[[25.7534,35.0104],[25.7553,35.0143],[25.7527,35.0124],[25.7534,35.0104]]]}},{"type":"Feature","properties":{"landuse":"farmland"},"geometry":{"type":"Polygon","coordinates":[[[25.3649,35.3341],[25.3653,35.3329],[25.3658,35.3335],[25.3649,35.3341]]]}},{"type":"Feature","properties":{"landuse":"orchard"},"geometry":{"type":"Polygon","coordinates":[[[26.0948,35.1966],[26.0937,35.1954],[26.0961,35.1959],[26.0948,35.1966]]]}},{"type":"Feature","properties":{"landuse":"orchard"},"geometry":{"type":"Polygon","coordinates":[[[26.0936,35.1981],[26.0952,35.1966],[26.0971,35.1983],[26.0936,35.1981]]]}},{"type":"Feature","properties":{"landuse":"orchard"},"geometry":{"type":"Polygon","coordinates":[[[25.0948,35.3176],[25.0931,35.316],[25.0946,35.3156],[25.0948,35.3176]]]}},{"type":"Feature","properties":{"landuse":"orchard"},"geometry":{"type":"Polygon","coordinates":[[[25.0959,35.3167],[25.0951,35.3166],[25.0953,35.3155],[25.0959,35.3167]]]}},{"type":"Feature","properties":{"landuse":"orchard"},"geometry":{"type":"Polygon","coordinates":[[[25.1004,35.3186],[25.0996,35.318],[25.1001,35.3173],[25.1004,35.3186]]]}},{"type":"Feature","properties":{"landuse":"orchard"},"geometry":{"type":"Polygon","coordinates":[[[25.1417,35.3035],[25.1408,35.3029],[25.1422,35.3026],[25.1417,35.3035]]]}},{"type":"Feature","properties":{"landuse":"orchard"},"geometry":{"type":"Polygon","coordinates":[[[26.0991,35.1938],[26.1003,35.1949],[26.0986,35.1953],[26.0991,35.1938]]]}},{"type":"Feature","properties":{"landuse":"orchard"},"geometry":{"type":"Polygon","coordinates":[[[25.3686,35.3338],[25.3713,35.3313],[25.3696,35.3344],[25.3686,35.3338]]]}},{"type":"Feature","properties":{"landuse":"green_public_spaces"},"geometry":{"type":"Polygon","coordinates":[[[24.0553,35.5299],[24.0624,35.5299],[24.0588,35.533],[24.0553,35.5299]]]}},{"type":"Feature","properties":{"landuse":"orchard"},"geometry":{"type":"Polygon","coordinates":[[[25.131,35.3132],[25.1329,35.3138],[25.1317,35.3149],[25.131,35.3132]]]}},{"type":"Feature","properties":{"landuse":"orchard"},"geometry":{"type":"Polygon","coordinates":[[[24.1244,35.5459],[24.124,35.5471],[24.1227,35.5463],[24.1244,35.5459]]]}},{"type":"Feature","properties":{"landuse":"orchard"},"geometry":{"type":"Polygon","coordinates":[[[24.1276,35.5489],[24.1272,35.5499],[24.1268,35.5486],[24.1276,35.5489]]]}},{"type":"Feature","properties":{"landuse":"orchard"},"geometry":{"type":"Polygon","coordinates":[[[24.1331,35.5515],[24.13,35.5518],[24.1312,35.5508],[24.1331,35.5515]]]}},{"type":"Feature","properties":{"landuse":"orchard"},"geometry":{"type":"Polygon","coordinates":[[[24.1379,35.5416],[24.1409,35.5427],[24.1403,35.5438],[24.1379,35.5416]]]}},{"type":"Feature","properties":{"landuse":"orchard"},"geometry":{"type":"Polygon","coordinates":[[[24.7617,34.9946],[24.7608,34.9953],[24.7598,34.994],[24.7617,34.9946]]]}},{"type":"Feature","properties":{"landuse":"orchard"},"geometry":{"type":"Polygon","coordinates":[[[24.7605,34.9976],[24.7634,34.9968],[24.7641,34.998],[24.7605,34.9976]]]}},{"type":"Feature","properties":{"landuse":"orchard"},"geometry":{"type":"Polygon","coordinates":[[[25.3866,35.323],[25.3807,35.3209],[25.3879,35.3197],[25.3866,35.323]]]}},{"type":"Feature","properties":{"landuse":"orchard"},"geometry":{"type":"Polygon","coordinates":[[[25.1402,35.2982],[25.141,35.2977],[25.1417,35.2993],[25.1402,35.2982]]]}},{"type":"Feature","properties":{"landuse":"orchard"},"geometry":{"type":"Polygon","coordinates":[[[25.1395,35.2981],[25.1399,35.2958],[25.1405,35.2973],[25.1395,35.2981]]]}},{"type":"Feature","properties":{"landuse":"orchard"},"geometry":{"type":"Polygon","coordinates":[[[25.1271,35.3159],[25.1265,35.3138],[25.1281,35.3157],[25.1271,35.3159]]]}},{"type":"Feature","properties":{"landuse":"orchard"},"geometry":{"type":"Polygon","coordinates":[[[25.0942,35.3078],[25.0928,35.3061],[25.0945,35.3065],[25.0942,35.3078]]]}},{"type":"Feature","properties":{"landuse":"vineyard"},"geometry":{"type":"Polygon","coordinates":[[[25.0892,35.3109],[25.0854,35.3095],[25.0871,35.3079],[25.0892,35.3109]]]}},{"type":"Feature","properties":{"landuse":"farmland"},"geometry":{"type":"Polygon","coordinates":[[[25.0944,35.3183],[25.0929,35.3178],[25.0939,35.3168],[25.0944,35.3183]]]}},{"type":"Feature","properties":{"landuse":"orchard"},"geometry":{"type":"Polygon","coordinates":[[[25.0809,35.3202],[25.0832,35.319],[25.0824,35.3206],[25.0809,35.3202]]]}},{"type":"Feature","properties":{"landuse":"orchard"},"geometry":{"type":"Polygon","coordinates":[[[25.0801,35.3197],[25.0805,35.3183],[25.0816,35.319],[25.0801,35.3197]]]}},{"type":"Feature","properties":{"landuse":"orchard"},"geometry":{"type":"Polygon","coordinates":[[[25.4508,35.2872],[25.4491,35.2871],[25.4494,35.2851],[25.4508,35.2872]]]}},{"type":"Feature","properties":{"landuse":"orchard"},"geometry":{"type":"Polygon","coordinates":[[[25.4714,35.2765],[25.4718,35.2781],[25.4704,35.2754],[25.4714,35.2765]]]}},{"type":"Feature","properties":{"landuse":"farmland"},"geometry":{"type":"Polygon","coordinates":[[[25.4558,35.2809],[25.4559,35.2788],[25.4574,35.2799],[25.4558,35.2809]]]}},{"type":"Feature","properties":{"landuse":"green_public_spaces"},"geometry":{"type":"Polygon","coordinates":[[[25.4615,35.2735],[25.4634,35.2752],[25.4611,35.2743],[25.4615,35.2735]]]}},{"type":"Feature","properties":{"landuse":"orchard"},"geometry":{"type":"Polygon","coordinates":[[[25.4512,35.283],[25.4516,35.2855],[25.4499,35.2849],[25.4512,35.283]]]}},{"type":"Feature","properties":{"landuse":"orchard"},"geometry":{"type":"Polygon","coordinates":[[[25.4534,35.2839],[25.4564,35.2823],[25.457,35.2843],[25.4534,35.2839]]]}},{"type":"Feature","properties":{"landuse":"orchard"},"geometry":{"type":"Polygon","coordinates":[[[25.4868,35.2928],[25.4876,35.2907],[25.4912,35.2917],[25.4868,35.2928]]]}},{"type":"Feature","properties":{"landuse":"farmland"},"geometry":{"type":"Polygon","coordinates":[[[25.4869,35.2909],[25.4859,35.2915],[25.4873,35.2901],[25.4869,35.2909]]]}},{"type":"Feature","properties":{"landuse":"orchard"},"geometry":{"type":"Polygon","coordinates":[[[25.4871,35.2791],[25.4892,35.2781],[25.4908,35.2803],[25.4871,35.2791]]]}},{"type":"Feature","properties":{"landuse":"orchard"},"geometry":{"type":"Polygon","coordinates":[[[25.4791,35.2779],[25.477,35.2776],[25.4789,35.2764],[25.4791,35.2779]]]}},{"type":"Feature","properties":{"landuse":"orchard"},"geometry":{"type":"Polygon","coordinates":[[[25.4698,35.2777],[25.4678,35.2763],[25.4692,35.2764],[25.4698,35.2777]]]}},{"type":"Feature","properties":{"landuse":"orchard"},"geometry":{"type":"Polygon","coordinates":[[[25.4725,35.2783],[25.48,35.2784],[25.4769,35.2798],[25.4725,35.2783]]]}},{"type":"Feature","properties":{"landuse":"orchard"},"geometry":{"type":"Polygon","coordinates":[[[25.4968,35.2816],[25.4943,35.2819],[25.4968,35.2787],[25.4968,35.2816]]]}},{"type":"Feature","properties":{"landuse":"orchard"},"geometry":{"type":"Polygon","coordinates":[[[24.823,35.046],[24.8226,35.0452],[24.8249,35.0449],[24.823,35.046]]]}},{"type":"Feature","properties":{"landuse":"orchard"},"geometry":{"type":"Polygon","coordinates":[[[24.8255,35.0464],[24.8229,35.0467],[24.8251,35.0454],[24.8255,35.0464]]]}},{"type":"Feature","properties":{"landuse":"orchard"},"geometry":{"type":"Polygon","coordinates":[[[24.823,35.0451],[24.8227,35.0446],[24.8247,35.0445],[24.823,35.0451]]]}},{"type":"Feature","properties":{"landuse":"farmland"},"geometry":{"type":"Polygon","coordinates":[[[25.4767,35.2782],[25.4784,35.2776],[25.4801,35.2783],[25.4767,35.2782]]]}},{"type":"Feature","properties":{"landuse":"orchard"},"geometry":{"type":"Polygon","coordinates":[[[25.2921,35.1576],[25.2919,35.1602],[25.2893,35.1582],[25.2921,35.1576]]]}},{"type":"Feature","properties":{"landuse":"orchard"},"geometry":{"type":"Polygon","coordinates":[[[25.29,35.1563],[25.2918,35.1557],[25.292,35.1574],[25.29,35.1563]]]}},{"type":"Feature","properties":{"landuse":"orchard"},"geometry":{"type":"Polygon","coordinates":[[[25.2924,35.1601],[25.2926,35.1587],[25.2938,35.1599],[25.2924,35.1601]]]}},{"type":"Feature","properties":{"landuse":"orchard"},"geometry":{"type":"Polygon","coordinates":[[[25.294,35.1567],[25.2959,35.1595],[25.2929,35.159],[25.2924,35.1551],[25.294,35.1567]]]}},{"type":"Feature","properties":{"landuse":"orchard"},"geometry":{"type":"Polygon","coordinates":[[[25.2934,35.1551],[25.2925,35.1543],[25.2943,35.1533],[25.2934,35.1551]]]}},{"type":"Feature","properties":{"landuse":"orchard"},"geometry":{"type":"Polygon","coordinates":[[[25.2893,35.1531],[25.2861,35.1477],[25.2916,35.1529],[25.2893,35.1531]]]}},{"type":"Feature","properties":{"landuse":"orchard"},"geometry":{"type":"Polygon","coordinates":[[[25.288,35.1478],[25.2894,35.1491],[25.2867,35.1472],[25.288,35.1478]]]}},{"type":"Feature","properties":{"landuse":"orchard"},"geometry":{"type":"Polygon","coordinates":[[[25.2798,35.1343],[25.2789,35.1336],[25.2807,35.1325],[25.2798,35.1343]]]}},{"type":"Feature","properties":{"landuse":"orchard"},"geometry":{"type":"Polygon","coordinates":[[[25.28,35.1349],[25.2801,35.1356],[25.2773,35.134],[25.28,35.1349]]]}},{"type":"Feature","properties":{"landuse":"orchard"},"geometry":{"type":"Polygon","coordinates":[[[25.2815,35.1354],[25.2805,35.1341],[25.2823,35.1341],[25.2815,35.1354]]]}},{"type":"Feature","properties":{"landuse":"orchard"},"geometry":{"type":"Polygon","coordinates":[[[25.2811,35.1358],[25.2773,35.1374],[25.2777,35.1364],[25.2811,35.1358]]]}},{"type":"Feature","properties":{"landuse":"orchard"},"geometry":{"type":"Polygon","coordinates":[[[25.2824,35.1351],[25.2839,35.135],[25.2823,35.1365],[25.2824,35.1351]]]}},{"type":"Feature","properties":{"landuse":"orchard"},"geometry":{"type":"Polygon","coordinates":[[[25.2834,35.14],[25.2845,35.1441],[25.2816,35.1427],[25.2834,35.14]]]}},{"type":"Feature","properties":{"landuse":"orchard"},"geometry":{"type":"Polygon","coordinates":[[[25.2839,35.1453],[25.2855,35.1464],[25.2829,35.1459],[25.2839,35.1453]]]}},{"type":"Feature","properties":{"landuse":"orchard"},"geometry":{"type":"Polygon","coordinates":[[[25.2841,35.1406],[25.2836,35.1385],[25.2857,35.1382],[25.2841,35.1406]]]}},{"type":"Feature","properties":{"landuse":"orchard"},"geometry":{"type":"Polygon","coordinates":[[[25.2836,35.1382],[25.2828,35.1376],[25.2853,35.1373],[25.2836,35.1382]]]}},{"type":"Feature","properties":{"landuse":"orchard"},"geometry":{"type":"Polygon","coordinates":[[[25.288,35.1636],[25.2905,35.1616],[25.291,35.164],[25.288,35.1636]]]}},{"type":"Feature","properties":{"landuse":"orchard"},"geometry":{"type":"Polygon","coordinates":[[[25.2916,35.1602],[25.2834,35.1625],[25.2813,35.1598],[25.2837,35.1566],[25.2916,35.1602]]]}},{"type":"Feature","properties":{"landuse":"orchard"},"geometry":{"type":"Polygon","coordinates":[[[25.2948,35.1619],[25.2923,35.1606],[25.2945,35.1603],[25.2948,35.1619]]]}},{"type":"Feature","properties":{"landuse":"orchard"},"geometry":{"type":"Polygon","coordinates":[[[25.2949,35.1641],[25.2952,35.1611],[25.2981,35.1621],[25.2949,35.1641]]]}},{"type":"Feature","properties":{"landuse":"orchard"},"geometry":{"type":"Polygon","coordinates":[[[25.2923,35.1511],[25.2919,35.1525],[25.2898,35.1491],[25.2923,35.1511]]]}},{"type":"Feature","properties":{"landuse":"farmland"},"geometry":{"type":"Polygon","coordinates":[[[25.4694,35.2919],[25.4692,35.2931],[25.4681,35.2918],[25.4694,35.2919]]]}},{"type":"Feature","properties":{"landuse":"orchard"},"geometry":{"type":"Polygon","coordinates":[[[25.4543,35.281],[25.4557,35.2822],[25.4534,35.2817],[25.4543,35.281]]]}},{"type":"Feature","properties":{"landuse":"orchard"},"geometry":{"type":"Polygon","coordinates":[[[25.4571,35.2792],[25.459,35.2813],[25.4571,35.2823],[25.4571,35.2792]]]}},{"type":"Feature","properties":{"landuse":"orchard"},"geometry":{"type":"Polygon","coordinates":[[[25.3541,35.3334],[25.3529,35.3316],[25.3549,35.3326],[25.3541,35.3334]]]}},{"type":"Feature","properties":{"landuse":"orchard"},"geometry":{"type":"Polygon","coordinates":[[[25.3631,35.3314],[25.3656,35.3317],[25.3635,35.3326],[25.3631,35.3314]]]}},{"type":"Feature","properties":{"landuse":"orchard"},"geometry":{"type":"Polygon","coordinates":[[[25.3603,35.3326],[25.3593,35.3323],[25.3612,35.3321],[25.3603,35.3326]]]}},{"type":"Feature","properties":{"landuse":"orchard"},"geometry":{"type":"Polygon","coordinates":[[[25.3592,35.3329],[25.3604,35.3325],[25.3619,35.3333],[25.3592,35.3329]]]}},{"type":"Feature","properties":{"landuse":"orchard"},"geometry":{"type":"Polygon","coordinates":[[[24.1279,35.538],[24.1294,35.5392],[24.1253,35.5379],[24.1279,35.538]]]}},{"type":"Feature","properties":{"landuse":"farmland"},"geometry":{"type":"Polygon","coordinates":[[[24.7884,35.02],[24.7861,35.0208],[24.7856,35.0189],[24.7884,35.02]]]}},{"type":"Feature","properties":{"landuse":"orchard"},"geometry":{"type":"Polygon","coordinates":[[[24.7732,35.0253],[24.7725,35.0273],[24.7719,35.0259],[24.7732,35.0253]]]}},{"type":"Feature","properties":{"landuse":"orchard"},"geometry":{"type":"Polygon","coordinates":[[[24.7738,35.0251],[24.7751,35.0244],[24.7766,35.0268],[24.7738,35.0251]]]}},{"type":"Feature","properties":{"landuse":"farmland"},"geometry":{"type":"Polygon","coordinates":[[[24.7847,35.0189],[24.7842,35.0195],[24.7831,35.0186],[24.7847,35.0189]]]}},{"type":"Feature","properties":{"landuse":"orchard"},"geometry":{"type":"Polygon","coordinates":[[[24.7816,35.0217],[24.7832,35.0192],[24.7848,35.0199],[24.7816,35.0217]]]}},{"type":"Feature","properties":{"landuse":"orchard"},"geometry":{"type":"Polygon","coordinates":[[[24.7848,35.0216],[24.7833,35.022],[24.7843,35.0207],[24.7848,35.0216]]]}},{"type":"Feature","properties":{"landuse":"orchard"},"geometry":{"type":"Polygon","coordinates":[[[24.7834,35.0233],[24.7856,35.0209],[24.7858,35.0214],[24.7834,35.0233]]]}},{"type":"Feature","properties":{"landuse":"orchard"},"geometry":{"type":"Polygon","coordinates":[[[24.7747,35.0234],[24.7781,35.0227],[24.7747,35.0244],[24.7747,35.0234]]]}},{"type":"Feature","properties":{"landuse":"orchard"},"geometry":{"type":"Polygon","coordinates":[[[24.785,35.0222],[24.7863,35.0219],[24.7873,35.0254],[24.785,35.0222]]]}},{"type":"Feature","properties":{"landuse":"orchard"},"geometry":{"type":"Polygon","coordinates":[[[24.7813,35.0248],[24.7818,35.0235],[24.7831,35.0234],[24.7813,35.0248]]]}},{"type":"Feature","properties":{"landuse":"orchard"},"geometry":{"type":"Polygon","coordinates":[[[24.7767,35.0235],[24.7806,35.023],[24.7798,35.0237],[24.7767,35.0235]]]}},{"type":"Feature","properties":{"landuse":"farmland"},"geometry":{"type":"Polygon","coordinates":[[[24.7648,35.0217],[24.7676,35.0207],[24.7676,35.0231],[24.7648,35.0217]]]}},{"type":"Feature","properties":{"landuse":"farmland"},"geometry":{"type":"Polygon","coordinates":[[[24.7671,35.0171],[24.7642,35.0161],[24.7685,35.0167],[24.7671,35.0171]]]}},{"type":"Feature","properties":{"landuse":"orchard"},"geometry":{"type":"Polygon","coordinates":[[[24.7703,35.0232],[24.7765,35.0213],[24.773,35.0239],[24.7703,35.0232]]]}},{"type":"Feature","properties":{"landuse":"orchard"},"geometry":{"type":"Polygon","coordinates":[[[24.7678,35.0232],[24.7701,35.0238],[24.7682,35.0245],[24.7678,35.0232]]]}},{"type":"Feature","properties":{"landuse":"orchard"},"geometry":{"type":"Polygon","coordinates":[[[24.7673,35.0241],[24.7678,35.0249],[24.7657,35.0247],[24.7673,35.0241]]]}},{"type":"Feature","properties":{"landuse":"farmland"},"geometry":{"type":"Polygon","coordinates":[[[24.7674,35.0156],[24.7706,35.0149],[24.7687,35.0166],[24.7674,35.0156]]]}},{"type":"Feature","properties":{"landuse":"farmland"},"geometry":{"type":"Polygon","coordinates":[[[24.7644,35.0155],[24.7646,35.0144],[24.7673,35.0153],[24.7644,35.0155]]]}},{"type":"Feature","properties":{"landuse":"farmland"},"geometry":{"type":"Polygon","coordinates":[[[24.7611,35.0151],[24.7622,35.0144],[24.7613,35.0158],[24.7611,35.0151]]]}},{"type":"Feature","properties":{"landuse":"orchard"},"geometry":{"type":"Polygon","coordinates":[[[24.7796,35.0203],[24.7809,35.0193],[24.7767,35.0215],[24.7796,35.0203]]]}},{"type":"Feature","properties":{"landuse":"orchard"},"geometry":{"type":"Polygon","coordinates":[[[24.7786,35.0204],[24.7769,35.0213],[24.7773,35.0197],[24.7786,35.0204]]]}},{"type":"Feature","properties":{"landuse":"orchard"},"geometry":{"type":"Polygon","coordinates":[[[24.7805,35.0217],[24.7814,35.0195],[24.783,35.0191],[24.7805,35.0217]]]}},{"type":"Feature","properties":{"landuse":"orchard"},"geometry":{"type":"Polygon","coordinates":[[[24.7715,35.0224],[24.7697,35.02],[24.7759,35.0207],[24.7715,35.0224]]]}},{"type":"Feature","properties":{"landuse":"farmland"},"geometry":{"type":"Polygon","coordinates":[[[24.7703,35.0219],[24.7688,35.0217],[24.7704,35.0208],[24.7703,35.0219]]]}},{"type":"Feature","properties":{"landuse":"orchard"},"geometry":{"type":"Polygon","coordinates":[[[24.7677,35.0231],[24.7691,35.0218],[24.7716,35.0227],[24.7677,35.0231]]]}},{"type":"Feature","properties":{"landuse":"farmland"},"geometry":{"type":"Polygon","coordinates":[[[24.7917,35.0181],[24.7938,35.0184],[24.7927,35.0189],[24.7917,35.0181]]]}},{"type":"Feature","properties":{"landuse":"farmland"},"geometry":{"type":"Polygon","coordinates":[[[24.7905,35.0186],[24.7919,35.0191],[24.7905,35.0193],[24.7905,35.0186]]]}},{"type":"Feature","properties":{"landuse":"farmland"},"geometry":{"type":"Polygon","coordinates":[[[24.7938,35.0165],[24.795,35.0183],[24.7939,35.0184],[24.7938,35.0165]]]}},{"type":"Feature","properties":{"landuse":"farmland"},"geometry":{"type":"Polygon","coordinates":[[[24.7876,35.0175],[24.7876,35.0163],[24.7896,35.0169],[24.7876,35.0175]]]}},{"type":"Feature","properties":{"landuse":"orchard"},"geometry":{"type":"Polygon","coordinates":[[[24.7876,35.0163],[24.7938,35.0165],[24.7898,35.0183],[24.7876,35.0163]]]}},{"type":"Feature","properties":{"landuse":"farmland"},"geometry":{"type":"Polygon","coordinates":[[[24.7871,35.0177],[24.7847,35.0177],[24.7849,35.0166],[24.7871,35.0177]]]}},{"type":"Feature","properties":{"landuse":"orchard"},"geometry":{"type":"Polygon","coordinates":[[[25.2941,35.1261],[25.293,35.1275],[25.2906,35.127],[25.2941,35.1261]]]}},{"type":"Feature","properties":{"landuse":"farmland"},"geometry":{"type":"Polygon","coordinates":[[[24.7852,35.0107],[24.7836,35.0096],[24.7858,35.0097],[24.7852,35.0107]]]}},{"type":"Feature","properties":{"landuse":"farmland"},"geometry":{"type":"Polygon","coordinates":[[[24.7862,35.0128],[24.7854,35.0107],[24.7867,35.0118],[24.7862,35.0128]]]}},{"type":"Feature","properties":{"landuse":"farmland"},"geometry":{"type":"Polygon","coordinates":[[[24.7813,35.0109],[24.7818,35.0102],[24.7839,35.012],[24.7813,35.0109]]]}},{"type":"Feature","properties":{"landuse":"orchard"},"geometry":{"type":"Polygon","coordinates":[[[24.7884,35.0128],[24.7876,35.0148],[24.7863,35.0101],[24.7884,35.0128]]]}},{"type":"Feature","properties":{"landuse":"orchard"},"geometry":{"type":"Polygon","coordinates":[[[24.7935,35.0138],[24.7987,35.0151],[24.7903,35.0159],[24.7935,35.0138]]]}},{"type":"Feature","properties":{"landuse":"farmland"},"geometry":{"type":"Polygon","coordinates":[[[24.7947,35.0153],[24.7935,35.0138],[24.7952,35.0139],[24.7947,35.0153]]]}},{"type":"Feature","properties":{"landuse":"orchard"},"geometry":{"type":"Polygon","coordinates":[[[24.7884,35.0133],[24.7926,35.0137],[24.7913,35.0149],[24.7884,35.0133]]]}},{"type":"Feature","properties":{"landuse":"orchard"},"geometry":{"type":"Polygon","coordinates":[[[24.7874,35.0159],[24.7885,35.0136],[24.7913,35.0149],[24.7874,35.0159]]]}},{"type":"Feature","properties":{"landuse":"farmland"},"geometry":{"type":"Polygon","coordinates":[[[24.7775,35.0148],[24.7789,35.0147],[24.7731,35.0145],[24.7775,35.0148]]]}},{"type":"Feature","properties":{"landuse":"orchard"},"geometry":{"type":"Polygon","coordinates":[[[24.7762,35.02],[24.7747,35.0195],[24.7763,35.0187],[24.7762,35.02]]]}},{"type":"Feature","properties":{"landuse":"farmland"},"geometry":{"type":"Polygon","coordinates":[[[24.7708,35.0141],[24.7721,35.0142],[24.7705,35.0148],[24.77,35.0136],[24.7708,35.0141]]]}},{"type":"Feature","properties":{"landuse":"orchard"},"geometry":{"type":"Polygon","coordinates":[[[24.7838,35.0093],[24.7838,35.0076],[24.7855,35.0081],[24.7858,35.0095],[24.7838,35.0093]]]}},{"type":"Feature","properties":{"landuse":"farmland"},"geometry":{"type":"Polygon","coordinates":[[[24.7775,35.0105],[24.7757,35.0105],[24.7757,35.0089],[24.7775,35.0105]]]}},{"type":"Feature","properties":{"landuse":"farmland"},"geometry":{"type":"Polygon","coordinates":[[[24.7841,35.0078],[24.7815,35.0077],[24.7851,35.0079],[24.7841,35.0078]]]}},{"type":"Feature","properties":{"landuse":"farmland"},"geometry":{"type":"Polygon","coordinates":[[[24.7769,35.0076],[24.7783,35.0091],[24.776,35.0085],[24.7769,35.0076]]]}},{"type":"Feature","properties":{"landuse":"farmland"},"geometry":{"type":"Polygon","coordinates":[[[24.7698,35.0091],[24.7715,35.0089],[24.7711,35.01],[24.7698,35.0091]]]}},{"type":"Feature","properties":{"landuse":"farmland"},"geometry":{"type":"Polygon","coordinates":[[[24.7629,35.0057],[24.7657,35.005],[24.7652,35.0064],[24.7629,35.0057]]]}},{"type":"Feature","properties":{"landuse":"farmland"},"geometry":{"type":"Polygon","coordinates":[[[24.7641,35.0062],[24.7653,35.0066],[24.76,35.0071],[24.7641,35.0062]]]}},{"type":"Feature","properties":{"landuse":"farmland"},"geometry":{"type":"Polygon","coordinates":[[[24.7653,35.0117],[24.7613,35.0086],[24.7645,35.0088],[24.7653,35.0117]]]}},{"type":"Feature","properties":{"landuse":"orchard"},"geometry":{"type":"Polygon","coordinates":[[[24.7656,35.0014],[24.7631,35.0005],[24.7655,35.0005],[24.7656,35.0014]]]}},{"type":"Feature","properties":{"landuse":"orchard"},"geometry":{"type":"Polygon","coordinates":[[[24.7687,35.0024],[24.7676,35.0016],[24.7685,35.0004],[24.7687,35.0024]]]}},{"type":"Feature","properties":{"landuse":"farmland"},"geometry":{"type":"Polygon","coordinates":[[[24.7665,35.004],[24.7677,35.0041],[24.7678,35.0057],[24.7665,35.004]]]}},{"type":"Feature","properties":{"landuse":"farmland"},"geometry":{"type":"Polygon","coordinates":[[[24.7637,34.9983],[24.7623,34.9994],[24.762,34.998],[24.7637,34.9983]]]}},{"type":"Feature","properties":{"landuse":"farmland"},"geometry":{"type":"Polygon","coordinates":[[[24.777,35.0049],[24.7776,35.0023],[24.7788,35.0046],[24.777,35.0049]]]}},{"type":"Feature","properties":{"landuse":"farmland"},"geometry":{"type":"Polygon","coordinates":[[[24.7681,34.9971],[24.7676,34.9981],[24.7665,34.9964],[24.7681,34.9971]]]}},{"type":"Feature","properties":{"landuse":"orchard"},"geometry":{"type":"Polygon","coordinates":[[[24.7671,34.9992],[24.7686,35],[24.7653,35.0002],[24.7671,34.9992]]]}},{"type":"Feature","properties":{"landuse":"farmland"},"geometry":{"type":"Polygon","coordinates":[[[24.763,34.99],[24.7605,34.992],[24.7608,34.9907],[24.763,34.99]]]}},{"type":"Feature","properties":{"landuse":"farmland"},"geometry":{"type":"Polygon","coordinates":[[[24.7546,34.9948],[24.7568,34.9955],[24.7549,34.9959],[24.7546,34.9948]]]}},{"type":"Feature","properties":{"landuse":"farmland"},"geometry":{"type":"Polygon","coordinates":[[[24.7575,34.9951],[24.7582,34.9976],[24.7561,34.9964],[24.7575,34.9951]]]}},{"type":"Feature","properties":{"landuse":"orchard"},"geometry":{"type":"Polygon","coordinates":[[[24.7359,35.0889],[24.7369,35.0897],[24.7351,35.0892],[24.7359,35.0889]]]}},{"type":"Feature","properties":{"landuse":"farmland"},"geometry":{"type":"Polygon","coordinates":[[[24.737,35.0939],[24.7325,35.0912],[24.7338,35.0876],[24.7388,35.0912],[24.737,35.0939]]]}},{"type":"Feature","properties":{"landuse":"farmland"},"geometry":{"type":"Polygon","coordinates":[[[24.7353,35.0857],[24.7362,35.0878],[24.734,35.0876],[24.7353,35.0857]]]}},{"type":"Feature","properties":{"landuse":"farmland"},"geometry":{"type":"Polygon","coordinates":[[[24.7364,35.0893],[24.737,35.0886],[24.739,35.0901],[24.7364,35.0893]]]}},{"type":"Feature","properties":{"landuse":"orchard"},"geometry":{"type":"Polygon","coordinates":[[[24.7322,35.0928],[24.7324,35.0916],[24.7336,35.0925],[24.7322,35.0928]]]}},{"type":"Feature","properties":{"landuse":"farmland"},"geometry":{"type":"Polygon","coordinates":[[[24.7356,35.0854],[24.7372,35.084],[24.7407,35.0894],[24.7356,35.0854]]]}},{"type":"Feature","properties":{"landuse":"farmland"},"geometry":{"type":"Polygon","coordinates":[[[24.7425,35.0791],[24.7441,35.0777],[24.7455,35.0797],[24.7425,35.0791]]]}},{"type":"Feature","properties":{"landuse":"farmland"},"geometry":{"type":"Polygon","coordinates":[[[24.7419,35.0812],[24.7474,35.08],[24.7435,35.0869],[24.7419,35.0812]]]}},{"type":"Feature","properties":{"landuse":"farmland"},"geometry":{"type":"Polygon","coordinates":[[[24.7487,35.0796],[24.7509,35.0787],[24.7487,35.0819],[24.7487,35.0796]]]}},{"type":"Feature","properties":{"landuse":"farmland"},"geometry":{"type":"Polygon","coordinates":[[[24.7446,35.0863],[24.7443,35.0841],[24.7477,35.0805],[24.7446,35.0863]]]}},{"type":"Feature","properties":{"landuse":"orchard"},"geometry":{"type":"Polygon","coordinates":[[[24.7616,35.0714],[24.7619,35.0692],[24.7635,35.07],[24.7616,35.0714]]]}},{"type":"Feature","properties":{"landuse":"orchard"},"geometry":{"type":"Polygon","coordinates":[[[24.7563,35.0725],[24.7618,35.0692],[24.7591,35.0702],[24.7612,35.0721],[24.7563,35.0725]]]}},{"type":"Feature","properties":{"landuse":"farmland"},"geometry":{"type":"Polygon","coordinates":[[[24.7528,35.0742],[24.7515,35.0742],[24.7519,35.0726],[24.7528,35.0742]]]}},{"type":"Feature","properties":{"landuse":"farmland"},"geometry":{"type":"Polygon","coordinates":[[[24.7507,35.0799],[24.7523,35.0783],[24.7517,35.0805],[24.7507,35.0799]]]}},{"type":"Feature","properties":{"landuse":"orchard"},"geometry":{"type":"Polygon","coordinates":[[[24.7585,35.0751],[24.7544,35.0752],[24.7557,35.0735],[24.7585,35.0751]]]}},{"type":"Feature","properties":{"landuse":"farmland"},"geometry":{"type":"Polygon","coordinates":[[[24.7531,35.0754],[24.754,35.0773],[24.7523,35.0781],[24.7531,35.0754]]]}},{"type":"Feature","properties":{"landuse":"farmland"},"geometry":{"type":"Polygon","coordinates":[[[24.7553,35.0757],[24.7543,35.0771],[24.7545,35.0753],[24.7553,35.0757]]]}},{"type":"Feature","properties":{"landuse":"orchard"},"geometry":{"type":"Polygon","coordinates":[[[24.7582,35.0797],[24.7599,35.0745],[24.7615,35.0761],[24.7582,35.0797]]]}},{"type":"Feature","properties":{"landuse":"orchard"},"geometry":{"type":"Polygon","coordinates":[[[24.7696,35.0673],[24.7666,35.0664],[24.7692,35.0662],[24.7696,35.0673]]]}},{"type":"Feature","properties":{"landuse":"orchard"},"geometry":{"type":"Polygon","coordinates":[[[24.7643,35.0687],[24.7627,35.0694],[24.7634,35.0673],[24.7643,35.0687]]]}},{"type":"Feature","properties":{"landuse":"orchard"},"geometry":{"type":"Polygon","coordinates":[[[24.7574,35.0819],[24.7573,35.0843],[24.7564,35.0821],[24.7574,35.0819]]]}},{"type":"Feature","properties":{"landuse":"orchard"},"geometry":{"type":"Polygon","coordinates":[[[24.7608,35.0828],[24.7631,35.0847],[24.7614,35.0865],[24.7608,35.0828]]]}},{"type":"Feature","properties":{"landuse":"orchard"},"geometry":{"type":"Polygon","coordinates":[[[24.7633,35.0833],[24.7634,35.0848],[24.762,35.0831],[24.7633,35.0833]]]}},{"type":"Feature","properties":{"landuse":"orchard"},"geometry":{"type":"Polygon","coordinates":[[[24.7642,35.0796],[24.7656,35.0818],[24.7639,35.0821],[24.7642,35.0796]]]}},{"type":"Feature","properties":{"landuse":"farmland"},"geometry":{"type":"Polygon","coordinates":[[[24.7636,35.0795],[24.7659,35.0798],[24.7649,35.0804],[24.7636,35.0795]]]}},{"type":"Feature","properties":{"landuse":"orchard"},"geometry":{"type":"Polygon","coordinates":[[[24.7636,35.0808],[24.7622,35.0773],[24.7639,35.0775],[24.7636,35.0808]]]}},{"type":"Feature","properties":{"landuse":"orchard"},"geometry":{"type":"Polygon","coordinates":[[[24.7672,35.0764],[24.7656,35.0794],[24.7661,35.0758],[24.7672,35.0764]]]}},{"type":"Feature","properties":{"landuse":"orchard"},"geometry":{"type":"Polygon","coordinates":[[[24.7647,35.0772],[24.766,35.0796],[24.7639,35.0791],[24.7647,35.0772]]]}},{"type":"Feature","properties":{"landuse":"orchard"},"geometry":{"type":"Polygon","coordinates":[[[24.7655,35.0771],[24.7643,35.075],[24.7658,35.0751],[24.7655,35.0771]]]}},{"type":"Feature","properties":{"landuse":"orchard"},"geometry":{"type":"Polygon","coordinates":[[[24.7641,35.076],[24.7634,35.0774],[24.7616,35.0761],[24.7641,35.076]]]}},{"type":"Feature","properties":{"landuse":"farmland"},"geometry":{"type":"Polygon","coordinates":[[[24.7786,35.0667],[24.7795,35.0666],[24.7799,35.0677],[24.7786,35.0667]]]}},{"type":"Feature","properties":{"landuse":"orchard"},"geometry":{"type":"Polygon","coordinates":[[[24.7685,35.0844],[24.7686,35.0829],[24.7711,35.0842],[24.7685,35.0844]]]}},{"type":"Feature","properties":{"landuse":"orchard"},"geometry":{"type":"Polygon","coordinates":[[[24.7691,35.0806],[24.7707,35.0805],[24.7689,35.0823],[24.7691,35.0806]]]}},{"type":"Feature","properties":{"landuse":"farmland"},"geometry":{"type":"Polygon","coordinates":[[[24.7685,35.0816],[24.77,35.0814],[24.7689,35.0826],[24.7685,35.0816]]]}},{"type":"Feature","properties":{"landuse":"orchard"},"geometry":{"type":"Polygon","coordinates":[[[24.7677,35.0828],[24.7684,35.0844],[24.7654,35.0835],[24.7677,35.0828]]]}},{"type":"Feature","properties":{"landuse":"orchard"},"geometry":{"type":"Polygon","coordinates":[[[24.7658,35.0801],[24.7667,35.0806],[24.7657,35.0822],[24.7658,35.0801]]]}},{"type":"Feature","properties":{"landuse":"orchard"},"geometry":{"type":"Polygon","coordinates":[[[24.7687,35.0794],[24.7676,35.0772],[24.7708,35.0793],[24.7687,35.0794]]]}},{"type":"Feature","properties":{"landuse":"orchard"},"geometry":{"type":"Polygon","coordinates":[[[24.7681,35.0804],[24.7662,35.0801],[24.7672,35.0778],[24.7681,35.0804]]]}},{"type":"Feature","properties":{"landuse":"orchard"},"geometry":{"type":"Polygon","coordinates":[[[24.7746,35.0768],[24.7755,35.078],[24.7743,35.0793],[24.7746,35.0768]]]}},{"type":"Feature","properties":{"landuse":"orchard"},"geometry":{"type":"Polygon","coordinates":[[[24.7727,35.0772],[24.7716,35.0769],[24.7712,35.0755],[24.7727,35.0772]]]}},{"type":"Feature","properties":{"landuse":"orchard"},"geometry":{"type":"Polygon","coordinates":[[[24.7696,35.0766],[24.7742,35.0794],[24.7737,35.0824],[24.7696,35.0766]]]}},{"type":"Feature","properties":{"landuse":"farmland"},"geometry":{"type":"Polygon","coordinates":[[[24.7528,35.057],[24.7552,35.058],[24.7533,35.0579],[24.7528,35.057]]]}},{"type":"Feature","properties":{"landuse":"orchard"},"geometry":{"type":"Polygon","coordinates":[[[24.7775,35.0795],[24.7813,35.0814],[24.7798,35.0823],[24.7775,35.0795]]]}},{"type":"Feature","properties":{"landuse":"orchard"},"geometry":{"type":"Polygon","coordinates":[[[24.7751,35.0792],[24.7797,35.0823],[24.7777,35.0824],[24.7751,35.0792]]]}},{"type":"Feature","properties":{"landuse":"orchard"},"geometry":{"type":"Polygon","coordinates":[[[24.7747,35.0812],[24.7756,35.0802],[24.7767,35.0815],[24.7747,35.0812]]]}},{"type":"Feature","properties":{"landuse":"orchard"},"geometry":{"type":"Polygon","coordinates":[[[24.7768,35.0767],[24.7772,35.0785],[24.7755,35.0778],[24.7768,35.0767]]]}},{"type":"Feature","properties":{"landuse":"orchard"},"geometry":{"type":"Polygon","coordinates":[[[24.7745,35.0741],[24.7757,35.0753],[24.7743,35.0749],[24.7745,35.0741]]]}},{"type":"Feature","properties":{"landuse":"farmland"},"geometry":{"type":"Polygon","coordinates":[[[24.7632,35.0587],[24.7615,35.0569],[24.7633,35.057],[24.7632,35.0587]]]}},{"type":"Feature","properties":{"landuse":"orchard"},"geometry":{"type":"Polygon","coordinates":[[[24.7809,35.0688],[24.7811,35.0702],[24.7793,35.0704],[24.7809,35.0688]]]}},{"type":"Feature","properties":{"landuse":"orchard"},"geometry":{"type":"Polygon","coordinates":[[[24.78,35.0688],[24.7789,35.0685],[24.7803,35.0679],[24.78,35.0688]]]}},{"type":"Feature","properties":{"landuse":"orchard"},"geometry":{"type":"Polygon","coordinates":[[[24.7791,35.0695],[24.7776,35.0696],[24.7788,35.0681],[24.7791,35.0695]]]}},{"type":"Feature","properties":{"landuse":"orchard"},"geometry":{"type":"Polygon","coordinates":[[[24.7801,35.0704],[24.7809,35.0703],[24.7803,35.0731],[24.7801,35.0704]]]}},{"type":"Feature","properties":{"landuse":"orchard"},"geometry":{"type":"Polygon","coordinates":[[[24.779,35.0732],[24.7786,35.071],[24.78,35.0733],[24.779,35.0732]]]}},{"type":"Feature","properties":{"landuse":"orchard"},"geometry":{"type":"Polygon","coordinates":[[[24.7782,35.0738],[24.7801,35.0735],[24.7811,35.0782],[24.7782,35.0738]]]}},{"type":"Feature","properties":{"landuse":"orchard"},"geometry":{"type":"Polygon","coordinates":[[[24.7766,35.0707],[24.779,35.0724],[24.7768,35.0739],[24.7766,35.0707]]]}},{"type":"Feature","properties":{"landuse":"farmland"},"geometry":{"type":"Polygon","coordinates":[[[24.7776,35.0825],[24.7795,35.0834],[24.7761,35.0825],[24.7776,35.0825]]]}},{"type":"Feature","properties":{"landuse":"farmland"},"geometry":{"type":"Polygon","coordinates":[[[24.8817,35.0501],[24.8822,35.0527],[24.8804,35.051],[24.8817,35.0501]]]}},{"type":"Feature","properties":{"landuse":"orchard"},"geometry":{"type":"Polygon","coordinates":[[[24.8759,35.0437],[24.8812,35.0442],[24.878,35.0453],[24.8759,35.0437]]]}},{"type":"Feature","properties":{"landuse":"orchard"},"geometry":{"type":"Polygon","coordinates":[[[24.8747,35.0436],[24.8755,35.0436],[24.8757,35.0452],[24.8747,35.0436]]]}},{"type":"Feature","properties":{"landuse":"orchard"},"geometry":{"type":"Polygon","coordinates":[[[24.8787,35.0454],[24.8787,35.047],[24.8749,35.0456],[24.8787,35.0454]]]}},{"type":"Feature","properties":{"landuse":"orchard"},"geometry":{"type":"Polygon","coordinates":[[[24.8808,35.0455],[24.8803,35.047],[24.8789,35.0462],[24.8808,35.0455]]]}},{"type":"Feature","properties":{"landuse":"orchard"},"geometry":{"type":"Polygon","coordinates":[[[24.8761,35.0477],[24.875,35.0476],[24.875,35.0469],[24.8761,35.0469],[24.8761,35.0477]]]}},{"type":"Feature","properties":{"landuse":"orchard"},"geometry":{"type":"Polygon","coordinates":[[[24.8774,35.0571],[24.8791,35.0589],[24.8754,35.0599],[24.8736,35.0574],[24.8774,35.0571]]]}},{"type":"Feature","properties":{"landuse":"farmland"},"geometry":{"type":"Polygon","coordinates":[[[24.8726,35.0449],[24.8722,35.0437],[24.8736,35.0445],[24.8726,35.0449]]]}},{"type":"Feature","properties":{"landuse":"orchard"},"geometry":{"type":"Polygon","coordinates":[[[24.8729,35.0462],[24.8716,35.0449],[24.8737,35.0448],[24.8729,35.0462]]]}},{"type":"Feature","properties":{"landuse":"farmland"},"geometry":{"type":"Polygon","coordinates":[[[24.8706,35.0494],[24.8692,35.0491],[24.8701,35.0482],[24.8706,35.0494]]]}},{"type":"Feature","properties":{"landuse":"orchard"},"geometry":{"type":"Polygon","coordinates":[[[24.8633,35.0462],[24.8622,35.0473],[24.8602,35.0428],[24.8633,35.0462]]]}},{"type":"Feature","properties":{"landuse":"orchard"},"geometry":{"type":"Polygon","coordinates":[[[24.865,35.0475],[24.8623,35.0428],[24.8649,35.0441],[24.865,35.0475]]]}},{"type":"Feature","properties":{"landuse":"orchard"},"geometry":{"type":"Polygon","coordinates":[[[24.8695,35.0482],[24.8678,35.0457],[24.869,35.0441],[24.8695,35.0482]]]}},{"type":"Feature","properties":{"landuse":"orchard"},"geometry":{"type":"Polygon","coordinates":[[[24.8699,35.0458],[24.8695,35.0449],[24.8704,35.0447],[24.8708,35.0456],[24.8699,35.0458]]]}},{"type":"Feature","properties":{"landuse":"orchard"},"geometry":{"type":"Polygon","coordinates":[[[24.8622,35.0536],[24.8617,35.052],[24.8623,35.052],[24.8622,35.0536]]]}},{"type":"Feature","properties":{"landuse":"orchard"},"geometry":{"type":"Polygon","coordinates":[[[24.8624,35.0499],[24.8641,35.0506],[24.8646,35.0534],[24.8624,35.0499]]]}},{"type":"Feature","properties":{"landuse":"orchard"},"geometry":{"type":"Polygon","coordinates":[[[24.8617,35.048],[24.8632,35.0494],[24.8625,35.0499],[24.8617,35.048]]]}},{"type":"Feature","properties":{"landuse":"orchard"},"geometry":{"type":"Polygon","coordinates":[[[24.866,35.0493],[24.8659,35.0508],[24.8649,35.0493],[24.866,35.0493]]]}},{"type":"Feature","properties":{"landuse":"farmland"},"geometry":{"type":"Polygon","coordinates":[[[24.8644,35.0485],[24.8662,35.0511],[24.8649,35.0509],[24.8644,35.0485]]]}},{"type":"Feature","properties":{"landuse":"farmland"},"geometry":{"type":"Polygon","coordinates":[[[24.8736,35.0574],[24.8721,35.0569],[24.8739,35.0562],[24.8736,35.0574]]]}},{"type":"Feature","properties":{"landuse":"farmland"},"geometry":{"type":"Polygon","coordinates":[[[24.8648,35.0563],[24.8654,35.0569],[24.8647,35.0578],[24.8648,35.0563]]]}},{"type":"Feature","properties":{"landuse":"orchard"},"geometry":{"type":"Polygon","coordinates":[[[24.8614,35.0551],[24.8608,35.0565],[24.8596,35.0561],[24.8614,35.0551]]]}},{"type":"Feature","properties":{"landuse":"orchard"},"geometry":{"type":"Polygon","coordinates":[[[24.8635,35.0554],[24.8641,35.0535],[24.8647,35.059],[24.8635,35.0554]]]}},{"type":"Feature","properties":{"landuse":"orchard"},"geometry":{"type":"Polygon","coordinates":[[[24.8667,35.0551],[24.8676,35.059],[24.8655,35.0565],[24.8667,35.0551]]]}},{"type":"Feature","properties":{"landuse":"farmland"},"geometry":{"type":"Polygon","coordinates":[[[24.8654,35.0549],[24.8666,35.0536],[24.8674,35.0544],[24.8654,35.0549]]]}},{"type":"Feature","properties":{"landuse":"orchard"},"geometry":{"type":"Polygon","coordinates":[[[24.8696,35.0558],[24.8667,35.0531],[24.8696,35.0552],[24.8696,35.0558]]]}},{"type":"Feature","properties":{"landuse":"orchard"},"geometry":{"type":"Polygon","coordinates":[[[24.868,35.0597],[24.8696,35.06],[24.8677,35.0612],[24.868,35.0597]]]}},{"type":"Feature","properties":{"landuse":"orchard"},"geometry":{"type":"Polygon","coordinates":[[[24.8683,35.0563],[24.8717,35.058],[24.8702,35.0607],[24.8683,35.0563]]]}},{"type":"Feature","properties":{"landuse":"farmland"},"geometry":{"type":"Polygon","coordinates":[[[23.857,35.5232],[23.8577,35.5222],[23.8587,35.5236],[23.857,35.5232]]]}},{"type":"Feature","properties":{"landuse":"orchard"},"geometry":{"type":"Polygon","coordinates":[[[23.8353,35.524],[23.8376,35.5227],[23.8373,35.5244],[23.8353,35.524]]]}},{"type":"Feature","properties":{"landuse":"orchard"},"geometry":{"type":"Polygon","coordinates":[[[23.8383,35.5236],[23.8376,35.5227],[23.8391,35.5224],[23.8383,35.5236]]]}},{"type":"Feature","properties":{"landuse":"farmland"},"geometry":{"type":"Polygon","coordinates":[[[25.2965,35.1549],[25.2977,35.1551],[25.2969,35.1563],[25.2965,35.1549]]]}},{"type":"Feature","properties":{"landuse":"orchard"},"geometry":{"type":"Polygon","coordinates":[[[25.2944,35.1565],[25.2958,35.1553],[25.2964,35.1564],[25.2944,35.1565]]]}},{"type":"Feature","properties":{"landuse":"orchard"},"geometry":{"type":"Polygon","coordinates":[[[25.2824,35.1555],[25.2798,35.1537],[25.2823,35.1542],[25.2824,35.1555]]]}},{"type":"Feature","properties":{"landuse":"orchard"},"geometry":{"type":"Polygon","coordinates":[[[25.2911,35.1593],[25.2829,35.1557],[25.2897,35.154],[25.2911,35.1593]]]}},{"type":"Feature","properties":{"landuse":"farmland"},"geometry":{"type":"Polygon","coordinates":[[[25.2859,35.1621],[25.2865,35.1604],[25.2875,35.1618],[25.2859,35.1621]]]}},{"type":"Feature","properties":{"landuse":"farmland"},"geometry":{"type":"Polygon","coordinates":[[[25.2895,35.1591],[25.29,35.1602],[25.289,35.1604],[25.2895,35.1591]]]}},{"type":"Feature","properties":{"landuse":"farmland"},"geometry":{"type":"Polygon","coordinates":[[[25.2881,35.1588],[25.2887,35.1605],[25.2869,35.1591],[25.2881,35.1588]]]}},{"type":"Feature","properties":{"landuse":"farmland"},"geometry":{"type":"Polygon","coordinates":[[[25.2859,35.1623],[25.2877,35.1618],[25.2878,35.163],[25.2859,35.1623]]]}},{"type":"Feature","properties":{"landuse":"orchard"},"geometry":{"type":"Polygon","coordinates":[[[25.2853,35.1665],[25.2858,35.1635],[25.291,35.1648],[25.2853,35.1665]]]}},{"type":"Feature","properties":{"landuse":"farmland"},"geometry":{"type":"Polygon","coordinates":[[[25.295,35.1512],[25.2956,35.1521],[25.2943,35.152],[25.295,35.1512]]]}},{"type":"Feature","properties":{"landuse":"orchard"},"geometry":{"type":"Polygon","coordinates":[[[25.2966,35.1512],[25.3009,35.1477],[25.3012,35.1513],[25.2966,35.1512]]]}},{"type":"Feature","properties":{"landuse":"orchard"},"geometry":{"type":"Polygon","coordinates":[[[25.2928,35.1518],[25.2939,35.1511],[25.2941,35.1528],[25.2928,35.1518]]]}},{"type":"Feature","properties":{"landuse":"orchard"},"geometry":{"type":"Polygon","coordinates":[[[25.2994,35.1595],[25.2983,35.159],[25.2996,35.1558],[25.2994,35.1595]]]}},{"type":"Feature","properties":{"landuse":"orchard"},"geometry":{"type":"Polygon","coordinates":[[[25.3021,35.1594],[25.2995,35.1595],[25.303,35.1557],[25.3021,35.1594]]]}},{"type":"Feature","properties":{"landuse":"orchard"},"geometry":{"type":"Polygon","coordinates":[[[25.3021,35.1595],[25.3021,35.1609],[25.3002,35.1603],[25.3021,35.1595]]]}},{"type":"Feature","properties":{"landuse":"orchard"},"geometry":{"type":"Polygon","coordinates":[[[25.299,35.1596],[25.3005,35.1607],[25.2994,35.1612],[25.299,35.1596]]]}},{"type":"Feature","properties":{"landuse":"orchard"},"geometry":{"type":"Polygon","coordinates":[[[25.2961,35.1593],[25.2969,35.1579],[25.2986,35.1604],[25.2961,35.1593]]]}},{"type":"Feature","properties":{"landuse":"orchard"},"geometry":{"type":"Polygon","coordinates":[[[25.2954,35.1604],[25.2987,35.1605],[25.2998,35.1618],[25.2954,35.1604]]]}},{"type":"Feature","properties":{"landuse":"orchard"},"geometry":{"type":"Polygon","coordinates":[[[25.259,35.1479],[25.2579,35.145],[25.2592,35.1462],[25.259,35.1479]]]}},{"type":"Feature","properties":{"landuse":"orchard"},"geometry":{"type":"Polygon","coordinates":[[[25.2593,35.1462],[25.258,35.1449],[25.2587,35.1418],[25.2593,35.1462]]]}},{"type":"Feature","properties":{"landuse":"orchard"},"geometry":{"type":"Polygon","coordinates":[[[25.2603,35.1457],[25.2591,35.1397],[25.2621,35.138],[25.2603,35.1457]]]}},{"type":"Feature","properties":{"landuse":"orchard"},"geometry":{"type":"Polygon","coordinates":[[[25.2593,35.1419],[25.2585,35.1404],[25.2591,35.1393],[25.2593,35.1419]]]}},{"type":"Feature","properties":{"landuse":"orchard"},"geometry":{"type":"Polygon","coordinates":[[[25.2595,35.148],[25.2595,35.1468],[25.2609,35.1472],[25.2595,35.148]]]}},{"type":"Feature","properties":{"landuse":"orchard"},"geometry":{"type":"Polygon","coordinates":[[[25.2603,35.1497],[25.2598,35.1485],[25.261,35.1483],[25.2603,35.1497]]]}},{"type":"Feature","properties":{"landuse":"orchard"},"geometry":{"type":"Polygon","coordinates":[[[25.2923,35.1506],[25.2895,35.1468],[25.2953,35.1463],[25.2923,35.1506]]]}},{"type":"Feature","properties":{"landuse":"farmland"},"geometry":{"type":"Polygon","coordinates":[[[25.2858,35.1444],[25.2875,35.145],[25.2863,35.1452],[25.287,35.1466],[25.2858,35.1444]]]}},{"type":"Feature","properties":{"landuse":"orchard"},"geometry":{"type":"Polygon","coordinates":[[[25.2969,35.1489],[25.294,35.1501],[25.296,35.1461],[25.2969,35.1489]]]}},{"type":"Feature","properties":{"landuse":"orchard"},"geometry":{"type":"Polygon","coordinates":[[[25.2987,35.1491],[25.2975,35.1465],[25.3003,35.1471],[25.2987,35.1491]]]}},{"type":"Feature","properties":{"landuse":"farmland"},"geometry":{"type":"Polygon","coordinates":[[[25.3032,35.1472],[25.3055,35.1485],[25.3025,35.1484],[25.3032,35.1472]]]}},{"type":"Feature","properties":{"landuse":"orchard"},"geometry":{"type":"Polygon","coordinates":[[[25.3017,35.1519],[25.3014,35.1477],[25.3045,35.1488],[25.3017,35.1519]]]}},{"type":"Feature","properties":{"landuse":"farmland"},"geometry":{"type":"Polygon","coordinates":[[[25.2979,35.1529],[25.2959,35.1526],[25.2991,35.1507],[25.2979,35.1529]]]}},{"type":"Feature","properties":{"landuse":"orchard"},"geometry":{"type":"Polygon","coordinates":[[[25.299,35.1535],[25.2996,35.1526],[25.2986,35.1526],[25.3006,35.1519],[25.299,35.1535]]]}},{"type":"Feature","properties":{"landuse":"farmland"},"geometry":{"type":"Polygon","coordinates":[[[25.2981,35.1542],[25.2981,35.1528],[25.2996,35.1526],[25.2981,35.1542]]]}},{"type":"Feature","properties":{"landuse":"orchard"},"geometry":{"type":"Polygon","coordinates":[[[25.2985,35.1558],[25.301,35.1518],[25.3024,35.1557],[25.2985,35.1558]]]}},{"type":"Feature","properties":{"landuse":"orchard"},"geometry":{"type":"Polygon","coordinates":[[[25.297,35.3047],[25.298,35.3035],[25.2981,35.3048],[25.297,35.3047]]]}},{"type":"Feature","properties":{"landuse":"farmland"},"geometry":{"type":"Polygon","coordinates":[[[25.2972,35.306],[25.2982,35.3058],[25.2982,35.3075],[25.2972,35.306]]]}},{"type":"Feature","properties":{"landuse":"orchard"},"geometry":{"type":"Polygon","coordinates":[[[25.3066,35.1491],[25.3095,35.1498],[25.3074,35.1531],[25.3047,35.1502],[25.3066,35.1491]]]}},{"type":"Feature","properties":{"landuse":"farmland"},"geometry":{"type":"Polygon","coordinates":[[[25.0993,35.327],[25.1019,35.3282],[25.0994,35.3277],[25.0993,35.327]]]}},{"type":"Feature","properties":{"landuse":"farmland"},"geometry":{"type":"Polygon","coordinates":[[[25.1119,35.3238],[25.1118,35.3224],[25.1129,35.323],[25.1119,35.3238]]]}},{"type":"Feature","properties":{"landuse":"farmland"},"geometry":{"type":"Polygon","coordinates":[[[24.4511,35.3505],[24.4491,35.3502],[24.4499,35.3491],[24.4511,35.3505]]]}},{"type":"Feature","properties":{"landuse":"farmland"},"geometry":{"type":"Polygon","coordinates":[[[24.459,35.3501],[24.4568,35.349],[24.4583,35.3486],[24.459,35.3501]]]}},{"type":"Feature","properties":{"landuse":"orchard"},"geometry":{"type":"Polygon","coordinates":[[[25.2958,35.1316],[25.2973,35.1317],[25.2969,35.133],[25.2958,35.1316]]]}},{"type":"Feature","properties":{"landuse":"orchard"},"geometry":{"type":"Polygon","coordinates":[[[23.648,35.4939],[23.6487,35.4918],[23.649,35.4936],[23.648,35.4939]]]}},{"type":"Feature","properties":{"landuse":"orchard"},"geometry":{"type":"Polygon","coordinates":[[[23.6504,35.4876],[23.652,35.4897],[23.6511,35.4897],[23.6504,35.4876]]]}},{"type":"Feature","properties":{"landuse":"orchard"},"geometry":{"type":"Polygon","coordinates":[[[23.6658,35.4925],[23.6701,35.4936],[23.6673,35.4947],[23.6658,35.4925]]]}},{"type":"Feature","properties":{"landuse":"orchard"},"geometry":{"type":"Polygon","coordinates":[[[23.6717,35.4913],[23.6724,35.4913],[23.6724,35.4936],[23.6717,35.4913]]]}},{"type":"Feature","properties":{"landuse":"orchard"},"geometry":{"type":"Polygon","coordinates":[[[23.6579,35.4903],[23.6552,35.4888],[23.6567,35.4871],[23.6579,35.4903]]]}},{"type":"Feature","properties":{"landuse":"orchard"},"geometry":{"type":"Polygon","coordinates":[[[23.6479,35.4909],[23.6468,35.4884],[23.6491,35.4901],[23.6479,35.4909]]]}},{"type":"Feature","properties":{"landuse":"orchard"},"geometry":{"type":"Polygon","coordinates":[[[23.6623,35.4904],[23.662,35.4814],[23.665,35.4863],[23.6623,35.4904]]]}},{"type":"Feature","properties":{"landuse":"orchard"},"geometry":{"type":"Polygon","coordinates":[[[23.6584,35.4894],[23.6589,35.4883],[23.6622,35.4883],[23.6584,35.4894]]]}},{"type":"Feature","properties":{"landuse":"orchard"},"geometry":{"type":"Polygon","coordinates":[[[23.6597,35.4877],[23.653,35.483],[23.6477,35.4678],[23.6598,35.4749],[23.6626,35.4839],[23.6623,35.4881],[23.6597,35.4877]]]}},{"type":"Feature","properties":{"landuse":"orchard"},"geometry":{"type":"Polygon","coordinates":[[[23.6501,35.4682],[23.6619,35.4736],[23.6641,35.4814],[23.6592,35.4737],[23.6501,35.4682]]]}},{"type":"Feature","properties":{"landuse":"orchard"},"geometry":{"type":"Polygon","coordinates":[[[23.6631,35.4662],[23.6616,35.4715],[23.6615,35.467],[23.6631,35.4662]]]}},{"type":"Feature","properties":{"landuse":"orchard"},"geometry":{"type":"Polygon","coordinates":[[[23.6627,35.4749],[23.661,35.4727],[23.6625,35.4727],[23.6627,35.4749]]]}},{"type":"Feature","properties":{"landuse":"orchard"},"geometry":{"type":"Polygon","coordinates":[[[23.6623,35.4677],[23.6631,35.4692],[23.6624,35.4698],[23.6623,35.4677]]]}},{"type":"Feature","properties":{"landuse":"orchard"},"geometry":{"type":"Polygon","coordinates":[[[23.6645,35.4689],[23.6667,35.465],[23.6695,35.4699],[23.6671,35.4689],[23.6632,35.4753],[23.6645,35.4689]]]}},{"type":"Feature","properties":{"landuse":"orchard"},"geometry":{"type":"Polygon","coordinates":[[[23.6695,35.4702],[23.6713,35.4708],[23.6717,35.474],[23.6695,35.4702]]]}},{"type":"Feature","properties":{"landuse":"orchard"},"geometry":{"type":"Polygon","coordinates":[[[24.7304,35.0928],[24.7344,35.0934],[24.7329,35.0957],[24.7292,35.0949],[24.7304,35.0928]]]}},{"type":"Feature","properties":{"landuse":"orchard"},"geometry":{"type":"Polygon","coordinates":[[[25.3068,35.1489],[25.3108,35.1461],[25.3095,35.1497],[25.3068,35.1489]]]}},{"type":"Feature","properties":{"landuse":"orchard"},"geometry":{"type":"Polygon","coordinates":[[[25.3147,35.1536],[25.3096,35.1498],[25.3181,35.1546],[25.3147,35.1536]]]}},{"type":"Feature","properties":{"landuse":"orchard"},"geometry":{"type":"Polygon","coordinates":[[[25.3096,35.1499],[25.3138,35.1534],[25.3091,35.1524],[25.3096,35.1499]]]}},{"type":"Feature","properties":{"landuse":"orchard"},"geometry":{"type":"Polygon","coordinates":[[[25.3139,35.1423],[25.3172,35.1427],[25.315,35.1441],[25.3139,35.1423]]]}},{"type":"Feature","properties":{"landuse":"farmland"},"geometry":{"type":"Polygon","coordinates":[[[25.3183,35.1463],[25.3155,35.1464],[25.3178,35.1456],[25.3183,35.1463]]]}},{"type":"Feature","properties":{"landuse":"farmland"},"geometry":{"type":"Polygon","coordinates":[[[25.2933,35.3331],[25.2949,35.3289],[25.2951,35.3334],[25.2933,35.3331]]]}},{"type":"Feature","properties":{"landuse":"farmland"},"geometry":{"type":"Polygon","coordinates":[[[25.296,35.3314],[25.2954,35.3328],[25.2951,35.3298],[25.297,35.3294],[25.296,35.3314]]]}},{"type":"Feature","properties":{"landuse":"orchard"},"geometry":{"type":"Polygon","coordinates":[[[25.2886,35.3267],[25.2918,35.327],[25.2883,35.3283],[25.2886,35.3267]]]}},{"type":"Feature","properties":{"landuse":"farmland"},"geometry":{"type":"Polygon","coordinates":[[[25.2917,35.3319],[25.2917,35.3294],[25.2933,35.33],[25.2917,35.3319]]]}},{"type":"Feature","properties":{"landuse":"orchard"},"geometry":{"type":"Polygon","coordinates":[[[25.2997,35.3187],[25.2994,35.3231],[25.2971,35.3185],[25.2997,35.3187]]]}},{"type":"Feature","properties":{"landuse":"orchard"},"geometry":{"type":"Polygon","coordinates":[[[25.3003,35.3175],[25.302,35.3196],[25.2995,35.3193],[25.3003,35.3175]]]}},{"type":"Feature","properties":{"landuse":"orchard"},"geometry":{"type":"Polygon","coordinates":[[[25.3063,35.3125],[25.3057,35.3138],[25.3045,35.3121],[25.3063,35.3125]]]}},{"type":"Feature","properties":{"landuse":"orchard"},"geometry":{"type":"Polygon","coordinates":[[[25.2997,35.3234],[25.2994,35.3196],[25.3024,35.3201],[25.2997,35.3234]]]}},{"type":"Feature","properties":{"landuse":"orchard"},"geometry":{"type":"Polygon","coordinates":[[[25.3011,35.3043],[25.3014,35.3034],[25.3028,35.3042],[25.3011,35.3043]]]}},{"type":"Feature","properties":{"landuse":"farmland"},"geometry":{"type":"Polygon","coordinates":[[[25.2989,35.3025],[25.2983,35.302],[25.2999,35.3011],[25.2989,35.3025]]]}},{"type":"Feature","properties":{"landuse":"orchard"},"geometry":{"type":"Polygon","coordinates":[[[25.2989,35.3025],[25.2985,35.3033],[25.2973,35.3023],[25.2989,35.3025]]]}},{"type":"Feature","properties":{"landuse":"orchard"},"geometry":{"type":"Polygon","coordinates":[[[25.2944,35.3234],[25.2885,35.3233],[25.2929,35.3219],[25.2944,35.3234]]]}},{"type":"Feature","properties":{"landuse":"orchard"},"geometry":{"type":"Polygon","coordinates":[[[25.2941,35.3242],[25.2958,35.326],[25.2941,35.3255],[25.2941,35.3242]]]}},{"type":"Feature","properties":{"landuse":"orchard"},"geometry":{"type":"Polygon","coordinates":[[[25.3026,35.3211],[25.3032,35.3193],[25.3069,35.3196],[25.3026,35.3211]]]}},{"type":"Feature","properties":{"landuse":"orchard"},"geometry":{"type":"Polygon","coordinates":[[[25.3023,35.3211],[25.3065,35.3211],[25.3016,35.3232],[25.3023,35.3211]]]}},{"type":"Feature","properties":{"landuse":"orchard"},"geometry":{"type":"Polygon","coordinates":[[[25.2933,35.3267],[25.2901,35.3266],[25.29,35.3249],[25.2933,35.3267]]]}},{"type":"Feature","properties":{"landuse":"orchard"},"geometry":{"type":"Polygon","coordinates":[[[25.2958,35.3264],[25.2971,35.3255],[25.2979,35.3271],[25.2958,35.3264]]]}},{"type":"Feature","properties":{"landuse":"farmland"},"geometry":{"type":"Polygon","coordinates":[[[25.3098,35.3333],[25.3097,35.3315],[25.3112,35.3331],[25.3098,35.3333]]]}},{"type":"Feature","properties":{"landuse":"orchard"},"geometry":{"type":"Polygon","coordinates":[[[25.308,35.3197],[25.3098,35.3176],[25.3106,35.3186],[25.308,35.3197]]]}},{"type":"Feature","properties":{"landuse":"orchard"},"geometry":{"type":"Polygon","coordinates":[[[25.3108,35.3191],[25.3096,35.3166],[25.3119,35.3153],[25.3108,35.3191]]]}},{"type":"Feature","properties":{"landuse":"orchard"},"geometry":{"type":"Polygon","coordinates":[[[25.3088,35.3147],[25.3097,35.3144],[25.3081,35.317],[25.3088,35.3147]]]}},{"type":"Feature","properties":{"landuse":"farmland"},"geometry":{"type":"Polygon","coordinates":[[[25.3224,35.3316],[25.3221,35.3337],[25.3218,35.3311],[25.3224,35.3316]]]}},{"type":"Feature","properties":{"landuse":"farmland"},"geometry":{"type":"Polygon","coordinates":[[[25.3189,35.331],[25.3205,35.3298],[25.3201,35.3336],[25.3189,35.331]]]}},{"type":"Feature","properties":{"landuse":"orchard"},"geometry":{"type":"Polygon","coordinates":[[[24.0743,35.5457],[24.0775,35.5442],[24.0783,35.5458],[24.0743,35.5457]]]}},{"type":"Feature","properties":{"landuse":"orchard"},"geometry":{"type":"Polygon","coordinates":[[[24.0715,35.5453],[24.0755,35.5398],[24.0789,35.541],[24.0715,35.5453]]]}},{"type":"Feature","properties":{"landuse":"orchard"},"geometry":{"type":"Polygon","coordinates":[[[24.0806,35.5459],[24.0787,35.5448],[24.0823,35.5437],[24.0806,35.5459]]]}},{"type":"Feature","properties":{"landuse":"orchard"},"geometry":{"type":"Polygon","coordinates":[[[25.3202,35.3278],[25.3184,35.3241],[25.3209,35.3266],[25.3202,35.3278]]]}},{"type":"Feature","properties":{"landuse":"orchard"},"geometry":{"type":"Polygon","coordinates":[[[25.3223,35.3299],[25.3223,35.3288],[25.3237,35.3296],[25.3223,35.3299]]]}},{"type":"Feature","properties":{"landuse":"farmland"},"geometry":{"type":"Polygon","coordinates":[[[25.3222,35.3334],[25.3242,35.3334],[25.3223,35.3343],[25.3222,35.3334]]]}},{"type":"Feature","properties":{"landuse":"orchard"},"geometry":{"type":"Polygon","coordinates":[[[25.3063,35.3265],[25.3051,35.3253],[25.3083,35.325],[25.3063,35.3265]]]}},{"type":"Feature","properties":{"landuse":"orchard"},"geometry":{"type":"Polygon","coordinates":[[[25.3044,35.3296],[25.3034,35.3288],[25.3038,35.3273],[25.3044,35.3296]]]}},{"type":"Feature","properties":{"landuse":"orchard"},"geometry":{"type":"Polygon","coordinates":[[[25.3028,35.3258],[25.3048,35.3263],[25.3031,35.3267],[25.3028,35.3258]]]}},{"type":"Feature","properties":{"landuse":"orchard"},"geometry":{"type":"Polygon","coordinates":[[[25.301,35.3259],[25.3026,35.3248],[25.3024,35.3266],[25.301,35.3259]]]}},{"type":"Feature","properties":{"landuse":"orchard"},"geometry":{"type":"Polygon","coordinates":[[[25.302,35.3289],[25.3029,35.328],[25.3034,35.329],[25.302,35.3289]]]}},{"type":"Feature","properties":{"landuse":"orchard"},"geometry":{"type":"Polygon","coordinates":[[[25.3271,35.3268],[25.3264,35.325],[25.3284,35.326],[25.3271,35.3268]]]}},{"type":"Feature","properties":{"landuse":"orchard"},"geometry":{"type":"Polygon","coordinates":[[[25.2762,35.136],[25.2765,35.1341],[25.2801,35.1356],[25.2762,35.136]]]}},{"type":"Feature","properties":{"landuse":"orchard"},"geometry":{"type":"Polygon","coordinates":[[[25.2978,35.3251],[25.3033,35.324],[25.2992,35.3267],[25.2978,35.3251]]]}},{"type":"Feature","properties":{"landuse":"orchard"},"geometry":{"type":"Polygon","coordinates":[[[25.31,35.3264],[25.309,35.3236],[25.3106,35.3254],[25.31,35.3264]]]}},{"type":"Feature","properties":{"landuse":"orchard"},"geometry":{"type":"Polygon","coordinates":[[[25.3357,35.3158],[25.3345,35.3143],[25.3364,35.3144],[25.3357,35.3158]]]}},{"type":"Feature","properties":{"landuse":"orchard"},"geometry":{"type":"Polygon","coordinates":[[[25.3331,35.3136],[25.3337,35.3124],[25.336,35.3134],[25.3331,35.3136]]]}},{"type":"Feature","properties":{"landuse":"orchard"},"geometry":{"type":"Polygon","coordinates":[[[25.3306,35.3147],[25.3343,35.3144],[25.3341,35.3174],[25.3306,35.3147]]]}},{"type":"Feature","properties":{"landuse":"orchard"},"geometry":{"type":"Polygon","coordinates":[[[25.3161,35.3275],[25.3176,35.3254],[25.3186,35.3263],[25.3161,35.3275]]]}},{"type":"Feature","properties":{"landuse":"orchard"},"geometry":{"type":"Polygon","coordinates":[[[25.3143,35.3242],[25.318,35.3244],[25.3154,35.3282],[25.3143,35.3242]]]}},{"type":"Feature","properties":{"landuse":"orchard"},"geometry":{"type":"Polygon","coordinates":[[[25.314,35.3281],[25.3131,35.3242],[25.3151,35.3276],[25.314,35.3281]]]}},{"type":"Feature","properties":{"landuse":"orchard"},"geometry":{"type":"Polygon","coordinates":[[[25.3117,35.327],[25.3095,35.3242],[25.3126,35.3234],[25.3117,35.327]]]}},{"type":"Feature","properties":{"landuse":"orchard"},"geometry":{"type":"Polygon","coordinates":[[[25.3124,35.3286],[25.3115,35.328],[25.3125,35.3267],[25.3124,35.3286]]]}},{"type":"Feature","properties":{"landuse":"orchard"},"geometry":{"type":"Polygon","coordinates":[[[24.0476,35.512],[24.0479,35.5108],[24.051,35.5119],[24.0476,35.512]]]}},{"type":"Feature","properties":{"landuse":"orchard"},"geometry":{"type":"Polygon","coordinates":[[[25.3196,35.3227],[25.3209,35.3203],[25.3223,35.3255],[25.3196,35.3227]]]}},{"type":"Feature","properties":{"landuse":"orchard"},"geometry":{"type":"Polygon","coordinates":[[[25.3188,35.3244],[25.316,35.3185],[25.318,35.3182],[25.3188,35.3244]]]}},{"type":"Feature","properties":{"landuse":"orchard"},"geometry":{"type":"Polygon","coordinates":[[[25.3196,35.3226],[25.3182,35.3184],[25.3205,35.32],[25.3196,35.3226]]]}},{"type":"Feature","properties":{"landuse":"orchard"},"geometry":{"type":"Polygon","coordinates":[[[25.3143,35.3242],[25.3143,35.3187],[25.318,35.3243],[25.3143,35.3242]]]}},{"type":"Feature","properties":{"landuse":"orchard"},"geometry":{"type":"Polygon","coordinates":[[[25.325,35.3289],[25.3271,35.3287],[25.3266,35.3295],[25.325,35.3289]]]}},{"type":"Feature","properties":{"landuse":"farmland"},"geometry":{"type":"Polygon","coordinates":[[[25.3255,35.3296],[25.3278,35.3291],[25.3248,35.3302],[25.3255,35.3296]]]}},{"type":"Feature","properties":{"landuse":"farmland"},"geometry":{"type":"Polygon","coordinates":[[[25.3284,35.3305],[25.3278,35.3325],[25.3273,35.3297],[25.3284,35.3305]]]}},{"type":"Feature","properties":{"landuse":"farmland"},"geometry":{"type":"Polygon","coordinates":[[[25.3265,35.3333],[25.3289,35.3315],[25.3292,35.3327],[25.3265,35.3333]]]}},{"type":"Feature","properties":{"landuse":"orchard"},"geometry":{"type":"Polygon","coordinates":[[[25.3347,35.3258],[25.3362,35.3249],[25.3365,35.326],[25.3347,35.3258]]]}},{"type":"Feature","properties":{"landuse":"farmland"},"geometry":{"type":"Polygon","coordinates":[[[25.334,35.334],[25.3334,35.3354],[25.3333,35.3327],[25.334,35.334]]]}},{"type":"Feature","properties":{"landuse":"orchard"},"geometry":{"type":"Polygon","coordinates":[[[25.3322,35.3056],[25.3288,35.3026],[25.3315,35.3029],[25.3322,35.3056]]]}},{"type":"Feature","properties":{"landuse":"orchard"},"geometry":{"type":"Polygon","coordinates":[[[25.3314,35.3068],[25.3315,35.3076],[25.3291,35.3047],[25.3314,35.3068]]]}},{"type":"Feature","properties":{"landuse":"orchard"},"geometry":{"type":"Polygon","coordinates":[[[25.3286,35.3048],[25.3241,35.3034],[25.3238,35.2997],[25.3264,35.2988],[25.3286,35.3048]]]}},{"type":"Feature","properties":{"landuse":"orchard"},"geometry":{"type":"Polygon","coordinates":[[[25.3355,35.3084],[25.3319,35.3063],[25.3359,35.3079],[25.3355,35.3084]]]}},{"type":"Feature","properties":{"landuse":"farmland"},"geometry":{"type":"Polygon","coordinates":[[[25.3354,35.3086],[25.3319,35.3063],[25.3331,35.3065],[25.3354,35.3086]]]}},{"type":"Feature","properties":{"landuse":"farmland"},"geometry":{"type":"Polygon","coordinates":[[[23.6725,35.4949],[23.6724,35.4975],[23.6711,35.4957],[23.6725,35.4949]]]}},{"type":"Feature","properties":{"landuse":"farmland"},"geometry":{"type":"Polygon","coordinates":[[[23.6706,35.4949],[23.6705,35.4983],[23.6656,35.4974],[23.6706,35.4949]]]}},{"type":"Feature","properties":{"landuse":"orchard"},"geometry":{"type":"Polygon","coordinates":[[[23.6737,35.4939],[23.6741,35.4911],[23.6752,35.4941],[23.6737,35.4939]]]}},{"type":"Feature","properties":{"landuse":"farmland"},"geometry":{"type":"Polygon","coordinates":[[[23.6725,35.4937],[23.6724,35.4913],[23.6736,35.4914],[23.6725,35.4937]]]}},{"type":"Feature","properties":{"landuse":"orchard"},"geometry":{"type":"Polygon","coordinates":[[[25.3425,35.3329],[25.3417,35.3317],[25.3437,35.3324],[25.3425,35.3329]]]}},{"type":"Feature","properties":{"landuse":"orchard"},"geometry":{"type":"Polygon","coordinates":[[[25.3394,35.3329],[25.3385,35.3312],[25.3402,35.3313],[25.3394,35.3329]]]}},{"type":"Feature","properties":{"landuse":"orchard"},"geometry":{"type":"Polygon","coordinates":[[[25.0809,35.3024],[25.0818,35.3046],[25.0798,35.304],[25.0809,35.3024]]]}},{"type":"Feature","properties":{"landuse":"orchard"},"geometry":{"type":"Polygon","coordinates":[[[25.0781,35.3031],[25.0786,35.3012],[25.081,35.301],[25.0781,35.3031]]]}},{"type":"Feature","properties":{"landuse":"orchard"},"geometry":{"type":"Polygon","coordinates":[[[25.0856,35.3043],[25.0907,35.3015],[25.0897,35.3061],[25.0856,35.3043]]]}},{"type":"Feature","properties":{"landuse":"orchard"},"geometry":{"type":"Polygon","coordinates":[[[25.0855,35.3012],[25.0836,35.3012],[25.0848,35.2994],[25.0855,35.3012]]]}},{"type":"Feature","properties":{"landuse":"orchard"},"geometry":{"type":"Polygon","coordinates":[[[24.0453,35.5186],[24.0479,35.5187],[24.0456,35.5199],[24.0453,35.5186]]]}}]}