{"type":"FeatureCollection","features":[{"type":"Feature","properties":{"landuse":"farmland"},"geometry":{"type":"MultiPolygon","coordinates":[[[[21.302,40.4451],[21.2929,40.4579],[21.268,40.4554],[21.2947,40.4411],[21.3029,40.4434],[21.2971,40.4449],[21.302,40.4451]]],[[[21.2931,40.474],[21.285,40.4703],[21.2946,40.4602],[21.3012,40.4616],[21.3017,40.4675],[21.2931,40.474]]],[[[21.2934,40.4753],[21.2808,40.4732],[21.2824,40.4715],[21.2934,40.4753]]],[[[21.3034,40.4628],[21.2967,40.4567],[21.3024,40.4459],[21.3134,40.4407],[21.318,40.4421],[21.3233,40.4482],[21.3182,40.4546],[21.3069,40.4579],[21.3034,40.4628]]],[[[21.3032,40.463],[21.3053,40.4735],[21.3033,40.4749],[21.3032,40.463]]],[[[21.3012,40.4747],[21.2962,40.4758],[21.3007,40.4689],[21.3012,40.4747]]],[[[21.2979,40.4765],[21.2957,40.4797],[21.2896,40.4777],[21.2979,40.4765]]],[[[21.3037,40.4797],[21.2975,40.4806],[21.3017,40.478],[21.3037,40.4797]]],[[[21.3053,40.4795],[21.3036,40.4814],[21.3049,40.4793],[21.3053,40.4795]]],[[[21.308,40.4791],[21.3108,40.4822],[21.3046,40.4771],[21.3072,40.476],[21.308,40.4791]]],[[[21.3098,40.483],[21.2973,40.4837],[21.295,40.4819],[21.3098,40.483]]],[[[21.2793,40.4739],[21.282,40.4739],[21.2794,40.48],[21.27,40.4874],[21.2695,40.4846],[21.2662,40.485],[21.2662,40.4815],[21.2793,40.4739]]],[[[21.2678,40.477],[21.2623,40.4782],[21.2605,40.4636],[21.2705,40.4693],[21.2728,40.4672],[21.2733,40.4714],[21.2789,40.4735],[21.2678,40.477]]],[[[21.2379,40.4813],[21.2345,40.4787],[21.238,40.4706],[21.2505,40.469],[21.2379,40.4813]]],[[[21.2526,40.4679],[21.2569,40.4713],[21.2606,40.4691],[21.259,40.4795],[21.2382,40.4811],[21.2428,40.4741],[21.2526,40.4679]]],[[[21.2502,40.4682],[21.2538,40.4642],[21.25,40.463],[21.256,40.4607],[21.2578,40.4629],[21.2502,40.4682]]]]}},{"type":"Feature","properties":{"landuse":"farmland"},"geometry":{"type":"MultiPolygon","coordinates":[[[[21.316,40.4662],[21.3215,40.4673],[21.317,40.4722],[21.316,40.4662]]],[[[21.3137,40.4669],[21.3133,40.4661],[21.3159,40.4658],[21.3137,40.4669]]],[[[21.3131,40.4667],[21.3132,40.4686],[21.3109,40.4688],[21.3131,40.4667]]],[[[21.3115,40.4688],[21.3133,40.469],[21.3114,40.4709],[21.3115,40.4688]]],[[[21.3115,40.4712],[21.3166,40.4703],[21.3169,40.4724],[21.3115,40.4712]]],[[[21.3146,40.4772],[21.3118,40.4727],[21.3165,40.4726],[21.3146,40.4772]]],[[[21.3383,40.4913],[21.3323,40.4882],[21.3362,40.4864],[21.3383,40.4913]]],[[[21.339,40.4939],[21.3409,40.4895],[21.3434,40.4944],[21.339,40.4939]]],[[[21.3355,40.4839],[21.3295,40.4697],[21.337,40.4698],[21.339,40.4753],[21.3362,40.4796],[21.3411,40.479],[21.3387,40.4888],[21.3355,40.4839]]],[[[21.3271,40.4703],[21.325,40.4715],[21.329,40.4774],[21.3173,40.4745],[21.3218,40.4676],[21.3271,40.4703]]],[[[21.3165,40.4749],[21.3289,40.4776],[21.3282,40.4799],[21.3165,40.4749]]],[[[21.3152,40.4768],[21.324,40.4792],[21.3218,40.4803],[21.3152,40.4768]]]]}},{"type":"Feature","properties":{"landuse":"farmland"},"geometry":{"type":"MultiPolygon","coordinates":[[[[21.3113,40.4714],[21.3145,40.4776],[21.312,40.4815],[21.3071,40.475],[21.3113,40.4714]]],[[[21.3063,40.4731],[21.3067,40.466],[21.311,40.4707],[21.3063,40.4731]]]]}},{"type":"Feature","properties":{"landuse":"farmland"},"geometry":{"type":"MultiPolygon","coordinates":[[[[21.3226,40.484],[21.3138,40.4831],[21.3157,40.4774],[21.3234,40.4814],[21.3207,40.4817],[21.3226,40.484]]],[[[21.3247,40.4857],[21.3285,40.4797],[21.3309,40.4803],[21.3291,40.4789],[21.3335,40.4782],[21.3352,40.4814],[21.3323,40.4801],[21.3345,40.4822],[21.3327,40.4856],[21.3247,40.4857]]]]}},{"type":"Feature","properties":{"landuse":"farmland"},"geometry":{"type":"MultiPolygon","coordinates":[[[[21.3233,40.4885],[21.3237,40.4925],[21.3208,40.4889],[21.3233,40.4885]]],[[[21.3221,40.4876],[21.3166,40.4857],[21.3239,40.4856],[21.3221,40.4876]]],[[[21.3164,40.4842],[21.3161,40.4853],[21.3145,40.4838],[21.3164,40.4842]]]]}},{"type":"Feature","properties":{"landuse":"farmland"},"geometry":{"type":"Polygon","coordinates":[[[21.4432,40.7992],[21.4514,40.8017],[21.4531,40.805],[21.4436,40.802],[21.4504,40.8061],[21.443,40.8082],[21.441,40.803],[21.4432,40.7992]]]}},{"type":"Feature","properties":{"landuse":"farmland"},"geometry":{"type":"Polygon","coordinates":[[[21.8613,40.2953],[21.8628,40.2938],[21.8636,40.295],[21.8613,40.2953]],[[21.8632,40.2948],[21.8635,40.2948],[21.8636,40.2946],[21.8632,40.2948]],[[21.8623,40.2947],[21.863,40.2948],[21.8625,40.2942],[21.8623,40.2947]]]}},{"type":"Feature","properties":{"landuse":"farmland"},"geometry":{"type":"Polygon","coordinates":[[[21.4585,40.1111],[21.4589,40.1126],[21.4568,40.1121],[21.4585,40.1111]],[[21.4575,40.1123],[21.4576,40.1122],[21.4575,40.1122],[21.4575,40.1123]]]}},{"type":"Feature","properties":{"landuse":"farmland"},"geometry":{"type":"Polygon","coordinates":[[[21.9521,40.1997],[21.9541,40.1972],[21.9614,40.1988],[21.9743,40.2065],[21.9818,40.1965],[21.9888,40.1993],[21.9869,40.2032],[21.9841,40.2019],[21.9821,40.206],[21.9842,40.2065],[21.9828,40.2043],[21.9865,40.204],[21.9773,40.2203],[21.9755,40.2151],[21.9737,40.2169],[21.9717,40.2139],[21.9677,40.2169],[21.9635,40.2135],[21.963,40.2075],[21.9578,40.2073],[21.9521,40.1997]]]}},{"type":"Feature","properties":{"landuse":"farmland"},"geometry":{"type":"Polygon","coordinates":[[[21.9967,40.1892],[22.0052,40.1941],[22.0183,40.1905],[22.0214,40.1937],[22.03,40.1891],[22.0347,40.1923],[22.0291,40.198],[22.019,40.1963],[22.0077,40.2001],[22.0188,40.1982],[22.0208,40.2085],[21.9941,40.2286],[21.9926,40.226],[21.996,40.2212],[21.9873,40.2307],[21.9888,40.2248],[21.9844,40.2269],[21.9841,40.2159],[21.9819,40.2154],[21.9894,40.1986],[21.9926,40.1977],[21.9905,40.1965],[21.9922,40.1929],[21.9967,40.1892]]]}},{"type":"Feature","properties":{"landuse":"farmland"},"geometry":{"type":"Polygon","coordinates":[[[21.7551,40.511],[21.7465,40.52],[21.7143,40.5254],[21.7113,40.5246],[21.712,40.515],[21.6998,40.5039],[21.7164,40.4912],[21.7188,40.4915],[21.7099,40.4972],[21.7127,40.5109],[21.7225,40.5073],[21.723,40.5043],[21.7144,40.4947],[21.717,40.4944],[21.7238,40.4953],[21.7298,40.506],[21.7389,40.5109],[21.7468,40.5133],[21.7551,40.511]]]}},{"type":"Feature","properties":{"landuse":"farmland"},"geometry":{"type":"Polygon","coordinates":[[[21.4023,40.3224],[21.412,40.3073],[21.4199,40.3035],[21.4192,40.3175],[21.4134,40.3206],[21.4136,40.3277],[21.4041,40.3307],[21.4003,40.3273],[21.4088,40.3256],[21.4023,40.3224]]]}},{"type":"Feature","properties":{"landuse":"farmland"},"geometry":{"type":"Polygon","coordinates":[[[21.4172,40.3042],[21.4237,40.2951],[21.4366,40.2939],[21.4378,40.2915],[21.434,40.291],[21.4517,40.2913],[21.4494,40.2945],[21.4406,40.2919],[21.4354,40.3021],[21.4232,40.3052],[21.4256,40.3126],[21.4151,40.3254],[21.4137,40.3207],[21.4195,40.3176],[21.4185,40.3097],[21.4216,40.3039],[21.4172,40.3042]]]}},{"type":"Feature","properties":{"landuse":"farmland"},"geometry":{"type":"Polygon","coordinates":[[[21.4585,40.7778],[21.4607,40.7882],[21.4534,40.7823],[21.4585,40.7778]]]}},{"type":"Feature","properties":{"landuse":"farmland"},"geometry":{"type":"Polygon","coordinates":[[[21.8358,40.2971],[21.8463,40.2985],[21.8509,40.2889],[21.8518,40.2953],[21.8482,40.3033],[21.8358,40.2971]]]}},{"type":"Feature","properties":{"landuse":"farmland"},"geometry":{"type":"Polygon","coordinates":[[[21.8487,40.3015],[21.848,40.3013],[21.8494,40.2999],[21.8487,40.3015]]]}},{"type":"Feature","properties":{"landuse":"green_public_spaces"},"geometry":{"type":"Polygon","coordinates":[[[21.7819,40.297],[21.7812,40.2956],[21.7833,40.2966],[21.7819,40.297]]]}},{"type":"Feature","properties":{"landuse":"green_public_spaces"},"geometry":{"type":"Polygon","coordinates":[[[21.8228,39.9037],[21.8291,39.9154],[21.8162,39.9218],[21.8133,39.9191],[21.8069,39.9208],[21.7941,39.9102],[21.7967,39.9054],[21.8055,39.9019],[21.8165,39.8999],[21.8228,39.9037]]]}},{"type":"Feature","properties":{"landuse":"green_public_spaces"},"geometry":{"type":"Polygon","coordinates":[[[21.8725,40.3457],[21.8656,40.3501],[21.8625,40.3629],[21.8301,40.351],[21.8239,40.3419],[21.812,40.3421],[21.7993,40.3467],[21.7858,40.3259],[21.7705,40.3227],[21.7609,40.3163],[21.7424,40.3172],[21.7312,40.3133],[21.7354,40.3049],[21.7337,40.2942],[21.7408,40.2948],[21.7459,40.2884],[21.7646,40.2857],[21.7841,40.2969],[21.8003,40.3003],[21.8341,40.2964],[21.8467,40.3053],[21.8551,40.3055],[21.8735,40.3201],[21.8785,40.3386],[21.8725,40.3457]]]}},{"type":"Feature","properties":{"landuse":"green_public_spaces"},"geometry":{"type":"Polygon","coordinates":[[[21.8742,39.944],[21.861,39.955],[21.8367,39.9433],[21.8278,39.9453],[21.8227,39.9351],[21.8306,39.9257],[21.8475,39.9261],[21.8605,39.9345],[21.8776,39.9398],[21.8742,39.944]]]}},{"type":"Feature","properties":{"landuse":"green_public_spaces"},"geometry":{"type":"Polygon","coordinates":[[[21.2627,40.45],[21.2623,40.4493],[21.2638,40.449],[21.2627,40.45]]]}},{"type":"Feature","properties":{"landuse":"green_public_spaces"},"geometry":{"type":"Polygon","coordinates":[[[21.4362,40.0864],[21.4366,40.0854],[21.4381,40.0857],[21.4362,40.0864]]]}},{"type":"Feature","properties":{"landuse":"farmland"},"geometry":{"type":"Polygon","coordinates":[[[21.6843,40.5332],[21.6844,40.5315],[21.6866,40.5332],[21.6843,40.5332]]]}},{"type":"Feature","properties":{"landuse":"farmland"},"geometry":{"type":"Polygon","coordinates":[[[21.3287,40.4868],[21.324,40.4918],[21.3241,40.4864],[21.3287,40.4868]]]}},{"type":"Feature","properties":{"landuse":"farmland"},"geometry":{"type":"Polygon","coordinates":[[[21.2722,40.4577],[21.2925,40.459],[21.2835,40.4694],[21.2768,40.4662],[21.2787,40.4636],[21.2722,40.4577]]]}},{"type":"Feature","properties":{"landuse":"farmland"},"geometry":{"type":"Polygon","coordinates":[[[21.2675,40.4589],[21.2714,40.4581],[21.2728,40.4626],[21.2675,40.4613],[21.2675,40.4589]]]}},{"type":"Feature","properties":{"landuse":"farmland"},"geometry":{"type":"Polygon","coordinates":[[[21.2672,40.4582],[21.2682,40.4559],[21.2697,40.4578],[21.2672,40.4582]]]}},{"type":"Feature","properties":{"landuse":"farmland"},"geometry":{"type":"Polygon","coordinates":[[[21.3023,40.4431],[21.2971,40.441],[21.301,40.4385],[21.2975,40.4356],[21.2975,40.4303],[21.3002,40.4319],[21.2995,40.4271],[21.3051,40.4243],[21.3058,40.433],[21.3097,40.4324],[21.3023,40.4431]]]}},{"type":"Feature","properties":{"landuse":"farmland"},"geometry":{"type":"Polygon","coordinates":[[[21.2636,40.4645],[21.2621,40.4627],[21.2662,40.4625],[21.2636,40.4645]]]}},{"type":"Feature","properties":{"landuse":"farmland"},"geometry":{"type":"Polygon","coordinates":[[[21.2762,40.4698],[21.2785,40.4704],[21.2765,40.4665],[21.2823,40.47],[21.2799,40.4724],[21.2762,40.4698]]]}},{"type":"Feature","properties":{"landuse":"farmland"},"geometry":{"type":"Polygon","coordinates":[[[21.2713,40.4679],[21.2638,40.4646],[21.2701,40.4634],[21.2713,40.4679]]]}},{"type":"Feature","properties":{"landuse":"farmland"},"geometry":{"type":"Polygon","coordinates":[[[21.2776,40.4699],[21.275,40.4687],[21.2757,40.4659],[21.2776,40.4699]]]}},{"type":"Feature","properties":{"landuse":"farmland"},"geometry":{"type":"Polygon","coordinates":[[[21.2712,40.4643],[21.2736,40.4647],[21.2727,40.4654],[21.2712,40.4643]]]}},{"type":"Feature","properties":{"landuse":"farmland"},"geometry":{"type":"Polygon","coordinates":[[[21.2769,40.4646],[21.2729,40.4643],[21.2733,40.4602],[21.2769,40.4646]]]}},{"type":"Feature","properties":{"landuse":"farmland"},"geometry":{"type":"Polygon","coordinates":[[[21.3173,40.4866],[21.3238,40.493],[21.3215,40.495],[21.3173,40.4866]]]}},{"type":"Feature","properties":{"landuse":"farmland"},"geometry":{"type":"Polygon","coordinates":[[[21.3197,40.4974],[21.3202,40.4956],[21.3217,40.4954],[21.3197,40.4974]]]}},{"type":"Feature","properties":{"landuse":"farmland"},"geometry":{"type":"Polygon","coordinates":[[[21.3195,40.4936],[21.3209,40.4922],[21.3209,40.4938],[21.3195,40.4936]]]}},{"type":"Feature","properties":{"landuse":"farmland"},"geometry":{"type":"Polygon","coordinates":[[[21.3143,40.4636],[21.3089,40.4628],[21.3192,40.4577],[21.3238,40.4488],[21.3263,40.4498],[21.327,40.457],[21.3143,40.4636]]]}},{"type":"Feature","properties":{"landuse":"farmland"},"geometry":{"type":"Polygon","coordinates":[[[21.3218,40.4672],[21.3325,40.4626],[21.3456,40.4667],[21.3379,40.4698],[21.3218,40.4672]]]}},{"type":"Feature","properties":{"landuse":"farmland"},"geometry":{"type":"Polygon","coordinates":[[[21.3142,40.4637],[21.318,40.4632],[21.3161,40.4657],[21.3142,40.4637]]]}},{"type":"Feature","properties":{"landuse":"farmland"},"geometry":{"type":"Polygon","coordinates":[[[21.3172,40.4659],[21.3188,40.4631],[21.3246,40.4629],[21.3228,40.4664],[21.3172,40.4659]]]}},{"type":"Feature","properties":{"landuse":"farmland"},"geometry":{"type":"Polygon","coordinates":[[[21.3191,40.4629],[21.3275,40.457],[21.3254,40.4624],[21.3191,40.4629]]]}},{"type":"Feature","properties":{"landuse":"farmland"},"geometry":{"type":"Polygon","coordinates":[[[21.3121,40.4706],[21.3139,40.4686],[21.3165,40.4691],[21.3121,40.4706]]]}},{"type":"Feature","properties":{"landuse":"farmland"},"geometry":{"type":"Polygon","coordinates":[[[21.3329,40.4853],[21.3353,40.4816],[21.3362,40.4863],[21.3329,40.4853]]]}},{"type":"Feature","properties":{"landuse":"farmland"},"geometry":{"type":"Polygon","coordinates":[[[21.3278,40.4696],[21.3328,40.4783],[21.3292,40.4788],[21.3278,40.4696]]]}},{"type":"Feature","properties":{"landuse":"farmland"},"geometry":{"type":"Polygon","coordinates":[[[21.3255,40.4836],[21.3235,40.4814],[21.3276,40.4807],[21.3255,40.4836]]]}},{"type":"Feature","properties":{"landuse":"farmland"},"geometry":{"type":"Polygon","coordinates":[[[21.4396,40.8005],[21.4362,40.7982],[21.4406,40.7991],[21.4396,40.8005]]]}},{"type":"Feature","properties":{"landuse":"farmland"},"geometry":{"type":"Polygon","coordinates":[[[21.4614,40.7942],[21.4614,40.7963],[21.46,40.7947],[21.4614,40.7942]]]}},{"type":"Feature","properties":{"landuse":"farmland"},"geometry":{"type":"Polygon","coordinates":[[[21.4472,40.7916],[21.4613,40.7941],[21.4542,40.7969],[21.4472,40.7916]]]}},{"type":"Feature","properties":{"landuse":"farmland"},"geometry":{"type":"Polygon","coordinates":[[[21.4603,40.7923],[21.4616,40.7935],[21.46,40.7935],[21.4603,40.7923]]]}},{"type":"Feature","properties":{"landuse":"farmland"},"geometry":{"type":"Polygon","coordinates":[[[21.4499,40.7877],[21.4506,40.7864],[21.454,40.7879],[21.4499,40.7877]]]}},{"type":"Feature","properties":{"landuse":"farmland"},"geometry":{"type":"Polygon","coordinates":[[[21.4539,40.7968],[21.4438,40.7981],[21.4473,40.7918],[21.4539,40.7968]]]}},{"type":"Feature","properties":{"landuse":"farmland"},"geometry":{"type":"Polygon","coordinates":[[[21.4598,40.7933],[21.4483,40.7904],[21.4555,40.7882],[21.4598,40.7933]]]}},{"type":"Feature","properties":{"landuse":"farmland"},"geometry":{"type":"Polygon","coordinates":[[[21.6596,40.6819],[21.663,40.6877],[21.6622,40.6872],[21.6596,40.6819]]]}},{"type":"Feature","properties":{"landuse":"farmland"},"geometry":{"type":"Polygon","coordinates":[[[21.4214,40.7809],[21.4261,40.7836],[21.4204,40.7822],[21.4214,40.7809]]]}},{"type":"Feature","properties":{"landuse":"farmland"},"geometry":{"type":"Polygon","coordinates":[[[21.4233,40.7832],[21.4242,40.7847],[21.4186,40.7827],[21.4233,40.7832]]]}},{"type":"Feature","properties":{"landuse":"farmland"},"geometry":{"type":"Polygon","coordinates":[[[21.4358,40.787],[21.4254,40.7849],[21.4389,40.7878],[21.4358,40.787]]]}},{"type":"Feature","properties":{"landuse":"farmland"},"geometry":{"type":"Polygon","coordinates":[[[21.4354,40.7844],[21.4431,40.7888],[21.4304,40.7837],[21.4354,40.7844]]]}},{"type":"Feature","properties":{"landuse":"farmland"},"geometry":{"type":"Polygon","coordinates":[[[21.4264,40.7835],[21.4291,40.7816],[21.4356,40.7839],[21.4264,40.7835]]]}},{"type":"Feature","properties":{"landuse":"farmland"},"geometry":{"type":"Polygon","coordinates":[[[21.4313,40.7876],[21.4315,40.7893],[21.43,40.7885],[21.4313,40.7876]]]}},{"type":"Feature","properties":{"landuse":"farmland"},"geometry":{"type":"Polygon","coordinates":[[[21.4435,40.7891],[21.4412,40.7857],[21.4487,40.7876],[21.4475,40.7901],[21.4435,40.7891]]]}},{"type":"Feature","properties":{"landuse":"farmland"},"geometry":{"type":"Polygon","coordinates":[[[21.444,40.7895],[21.4474,40.7903],[21.4466,40.7914],[21.444,40.7895]]]}},{"type":"Feature","properties":{"landuse":"farmland"},"geometry":{"type":"Polygon","coordinates":[[[21.4162,40.7813],[21.4194,40.7808],[21.4193,40.7815],[21.4162,40.7813]]]}},{"type":"Feature","properties":{"landuse":"farmland"},"geometry":{"type":"Polygon","coordinates":[[[21.4268,40.7858],[21.4396,40.7882],[21.4387,40.79],[21.4268,40.7858]]]}},{"type":"Feature","properties":{"landuse":"farmland"},"geometry":{"type":"Polygon","coordinates":[[[21.4248,40.7857],[21.4239,40.7855],[21.4254,40.7851],[21.4254,40.7863],[21.4248,40.7857]]]}},{"type":"Feature","properties":{"landuse":"farmland"},"geometry":{"type":"Polygon","coordinates":[[[21.4336,40.7962],[21.4364,40.7966],[21.4355,40.7978],[21.4336,40.7962]]]}},{"type":"Feature","properties":{"landuse":"farmland"},"geometry":{"type":"Polygon","coordinates":[[[21.4333,40.7966],[21.4403,40.8022],[21.4323,40.7976],[21.4333,40.7966]]]}},{"type":"Feature","properties":{"landuse":"farmland"},"geometry":{"type":"Polygon","coordinates":[[[21.4434,40.7959],[21.4317,40.7895],[21.4439,40.7895],[21.4465,40.7914],[21.4434,40.7959]]]}},{"type":"Feature","properties":{"landuse":"farmland"},"geometry":{"type":"Polygon","coordinates":[[[21.3054,40.4807],[21.3061,40.4799],[21.3078,40.4814],[21.3054,40.4807]]]}},{"type":"Feature","properties":{"landuse":"farmland"},"geometry":{"type":"Polygon","coordinates":[[[21.2976,40.4799],[21.2992,40.4793],[21.2983,40.4788],[21.3006,40.4786],[21.2976,40.4799]]]}},{"type":"Feature","properties":{"landuse":"farmland"},"geometry":{"type":"Polygon","coordinates":[[[21.3966,40.3119],[21.4017,40.3071],[21.4096,40.307],[21.4088,40.3105],[21.3966,40.3119]]]}},{"type":"Feature","properties":{"landuse":"farmland"},"geometry":{"type":"Polygon","coordinates":[[[21.4388,40.0915],[21.4405,40.0903],[21.441,40.091],[21.4388,40.0915]]]}},{"type":"Feature","properties":{"landuse":"green_public_spaces"},"geometry":{"type":"Polygon","coordinates":[[[22.0761,40.259],[22.0783,40.2582],[22.0776,40.2604],[22.0761,40.259]]]}},{"type":"Feature","properties":{"landuse":"orchard"},"geometry":{"type":"Polygon","coordinates":[[[21.8108,40.2343],[21.8099,40.2334],[21.8108,40.2328],[21.8108,40.2343]]]}},{"type":"Feature","properties":{"landuse":"farmland"},"geometry":{"type":"Polygon","coordinates":[[[21.483,40.2585],[21.4856,40.2622],[21.4816,40.2613],[21.483,40.2585]]]}},{"type":"Feature","properties":{"landuse":"farmland"},"geometry":{"type":"Polygon","coordinates":[[[21.4818,40.2757],[21.4806,40.2721],[21.4952,40.2694],[21.4818,40.2757]]]}},{"type":"Feature","properties":{"landuse":"farmland"},"geometry":{"type":"Polygon","coordinates":[[[21.8662,39.9167],[21.8656,39.9161],[21.8679,39.9152],[21.8662,39.9167]]]}},{"type":"Feature","properties":{"landuse":"farmland"},"geometry":{"type":"Polygon","coordinates":[[[21.8732,39.9141],[21.8735,39.9128],[21.8751,39.9138],[21.8732,39.9141]]]}},{"type":"Feature","properties":{"landuse":"farmland"},"geometry":{"type":"Polygon","coordinates":[[[21.8678,39.9083],[21.8681,39.9099],[21.8662,39.9087],[21.8678,39.9083]]]}},{"type":"Feature","properties":{"landuse":"farmland"},"geometry":{"type":"Polygon","coordinates":[[[21.8718,39.9063],[21.8715,39.9072],[21.8695,39.907],[21.8718,39.9063]]]}},{"type":"Feature","properties":{"landuse":"green_public_spaces"},"geometry":{"type":"Polygon","coordinates":[[[22.0115,40.1911],[22.0131,40.1901],[22.0136,40.1906],[22.0115,40.1911]]]}},{"type":"Feature","properties":{"landuse":"farmland"},"geometry":{"type":"Polygon","coordinates":[[[21.872,40.2871],[21.8708,40.2869],[21.8732,40.2843],[21.872,40.2871]]]}},{"type":"Feature","properties":{"landuse":"farmland"},"geometry":{"type":"Polygon","coordinates":[[[21.8707,40.2863],[21.8716,40.2848],[21.8732,40.2842],[21.8707,40.2863]]]}},{"type":"Feature","properties":{"landuse":"farmland"},"geometry":{"type":"Polygon","coordinates":[[[21.8182,40.2212],[21.8196,40.219],[21.8206,40.2211],[21.8182,40.2212]]]}},{"type":"Feature","properties":{"landuse":"farmland"},"geometry":{"type":"Polygon","coordinates":[[[21.8378,40.2344],[21.8357,40.234],[21.8372,40.2329],[21.8378,40.2344]]]}},{"type":"Feature","properties":{"landuse":"farmland"},"geometry":{"type":"Polygon","coordinates":[[[21.8359,40.2326],[21.837,40.2306],[21.8369,40.2323],[21.8359,40.2326]]]}},{"type":"Feature","properties":{"landuse":"farmland"},"geometry":{"type":"Polygon","coordinates":[[[21.8313,40.2401],[21.8321,40.2349],[21.8338,40.2339],[21.8313,40.2401]]]}},{"type":"Feature","properties":{"landuse":"farmland"},"geometry":{"type":"Polygon","coordinates":[[[21.8379,40.2412],[21.8392,40.239],[21.8396,40.2421],[21.8379,40.2412]]]}},{"type":"Feature","properties":{"landuse":"farmland"},"geometry":{"type":"Polygon","coordinates":[[[21.8352,40.2347],[21.8352,40.2341],[21.8376,40.235],[21.8375,40.2355],[21.8352,40.2347]]]}},{"type":"Feature","properties":{"landuse":"farmland"},"geometry":{"type":"Polygon","coordinates":[[[21.8343,40.2336],[21.835,40.2348],[21.8335,40.2353],[21.8343,40.2336]]]}},{"type":"Feature","properties":{"landuse":"orchard"},"geometry":{"type":"Polygon","coordinates":[[[21.9828,40.2043],[21.9849,40.2048],[21.9842,40.2065],[21.9828,40.2043]]]}},{"type":"Feature","properties":{"landuse":"orchard"},"geometry":{"type":"Polygon","coordinates":[[[21.9832,40.2031],[21.984,40.2019],[21.9869,40.2032],[21.9832,40.2031]]]}},{"type":"Feature","properties":{"landuse":"orchard"},"geometry":{"type":"Polygon","coordinates":[[[21.9813,40.1969],[21.9791,40.1967],[21.9797,40.1961],[21.9813,40.1969]]]}},{"type":"Feature","properties":{"landuse":"farmland"},"geometry":{"type":"Polygon","coordinates":[[[21.9749,40.225],[21.9763,40.2224],[21.9761,40.225],[21.9749,40.225]]]}},{"type":"Feature","properties":{"landuse":"orchard"},"geometry":{"type":"Polygon","coordinates":[[[21.9766,40.2179],[21.9783,40.217],[21.978,40.2181],[21.9766,40.2179]]]}},{"type":"Feature","properties":{"landuse":"orchard"},"geometry":{"type":"Polygon","coordinates":[[[21.7711,40.2785],[21.7718,40.2767],[21.7725,40.2775],[21.7711,40.2785]]]}},{"type":"Feature","properties":{"landuse":"orchard"},"geometry":{"type":"Polygon","coordinates":[[[21.7841,40.2553],[21.7834,40.2543],[21.7845,40.2537],[21.7841,40.2553]]]}},{"type":"Feature","properties":{"landuse":"farmland"},"geometry":{"type":"Polygon","coordinates":[[[21.7807,40.2692],[21.7837,40.2662],[21.7847,40.2678],[21.7807,40.2692]]]}},{"type":"Feature","properties":{"landuse":"farmland"},"geometry":{"type":"Polygon","coordinates":[[[21.785,40.2677],[21.7842,40.266],[21.785,40.2657],[21.785,40.2677]]]}},{"type":"Feature","properties":{"landuse":"farmland"},"geometry":{"type":"Polygon","coordinates":[[[21.7866,40.2703],[21.7857,40.269],[21.7899,40.2681],[21.7866,40.2703]]]}},{"type":"Feature","properties":{"landuse":"farmland"},"geometry":{"type":"Polygon","coordinates":[[[21.7763,40.2577],[21.7746,40.2584],[21.7745,40.2575],[21.7763,40.2577]]]}},{"type":"Feature","properties":{"landuse":"farmland"},"geometry":{"type":"Polygon","coordinates":[[[21.7996,40.2615],[21.7995,40.2592],[21.8014,40.2597],[21.7996,40.2615]]]}},{"type":"Feature","properties":{"landuse":"farmland"},"geometry":{"type":"Polygon","coordinates":[[[21.8027,40.2589],[21.7995,40.2592],[21.8004,40.2582],[21.8027,40.2589]]]}},{"type":"Feature","properties":{"landuse":"farmland"},"geometry":{"type":"Polygon","coordinates":[[[21.8021,40.2586],[21.799,40.2573],[21.7999,40.2544],[21.8042,40.257],[21.8021,40.2586]]]}},{"type":"Feature","properties":{"landuse":"farmland"},"geometry":{"type":"Polygon","coordinates":[[[21.792,40.2609],[21.7905,40.2627],[21.7885,40.2623],[21.792,40.2609]]]}},{"type":"Feature","properties":{"landuse":"farmland"},"geometry":{"type":"Polygon","coordinates":[[[21.7866,40.2629],[21.7843,40.2593],[21.7934,40.2532],[21.7959,40.2564],[21.7933,40.261],[21.7866,40.2629]]]}},{"type":"Feature","properties":{"landuse":"farmland"},"geometry":{"type":"Polygon","coordinates":[[[21.7908,40.2634],[21.7879,40.2645],[21.7887,40.2633],[21.7908,40.2634]]]}},{"type":"Feature","properties":{"landuse":"farmland"},"geometry":{"type":"Polygon","coordinates":[[[21.7876,40.2641],[21.7867,40.263],[21.7882,40.2624],[21.7876,40.2641]]]}},{"type":"Feature","properties":{"landuse":"farmland"},"geometry":{"type":"Polygon","coordinates":[[[21.8078,40.2615],[21.8057,40.2625],[21.8065,40.2593],[21.8078,40.2615]]]}},{"type":"Feature","properties":{"landuse":"farmland"},"geometry":{"type":"Polygon","coordinates":[[[21.7984,40.264],[21.7978,40.2631],[21.8004,40.2619],[21.7984,40.264]]]}},{"type":"Feature","properties":{"landuse":"farmland"},"geometry":{"type":"Polygon","coordinates":[[[21.7978,40.2642],[21.8007,40.264],[21.7979,40.265],[21.7978,40.2642]]]}},{"type":"Feature","properties":{"landuse":"farmland"},"geometry":{"type":"Polygon","coordinates":[[[21.8009,40.261],[21.8038,40.2623],[21.8007,40.263],[21.8009,40.261]]]}},{"type":"Feature","properties":{"landuse":"farmland"},"geometry":{"type":"Polygon","coordinates":[[[21.8032,40.2623],[21.8014,40.2598],[21.8047,40.2574],[21.8032,40.2623]]]}},{"type":"Feature","properties":{"landuse":"farmland"},"geometry":{"type":"Polygon","coordinates":[[[21.8065,40.2504],[21.8001,40.2502],[21.8025,40.2479],[21.8065,40.2504]]]}},{"type":"Feature","properties":{"landuse":"farmland"},"geometry":{"type":"Polygon","coordinates":[[[21.807,40.2543],[21.8048,40.2572],[21.7999,40.2512],[21.807,40.2543]]]}},{"type":"Feature","properties":{"landuse":"farmland"},"geometry":{"type":"Polygon","coordinates":[[[21.8074,40.2538],[21.8049,40.2514],[21.8095,40.2516],[21.8074,40.2538]]]}},{"type":"Feature","properties":{"landuse":"farmland"},"geometry":{"type":"Polygon","coordinates":[[[21.8051,40.2418],[21.8067,40.24],[21.8069,40.2413],[21.8051,40.2418]]]}},{"type":"Feature","properties":{"landuse":"farmland"},"geometry":{"type":"Polygon","coordinates":[[[21.8074,40.2278],[21.8091,40.2296],[21.8028,40.2336],[21.8026,40.2408],[21.7969,40.2442],[21.7981,40.2345],[21.8074,40.2278]]]}},{"type":"Feature","properties":{"landuse":"farmland"},"geometry":{"type":"Polygon","coordinates":[[[21.8046,40.2301],[21.808,40.2229],[21.8077,40.2274],[21.8046,40.2301]]]}},{"type":"Feature","properties":{"landuse":"farmland"},"geometry":{"type":"Polygon","coordinates":[[[21.8034,40.2308],[21.7993,40.2335],[21.8027,40.2299],[21.8034,40.2308]]]}},{"type":"Feature","properties":{"landuse":"farmland"},"geometry":{"type":"Polygon","coordinates":[[[21.7841,40.2593],[21.7807,40.2612],[21.7812,40.259],[21.7841,40.2593]]]}},{"type":"Feature","properties":{"landuse":"farmland"},"geometry":{"type":"Polygon","coordinates":[[[21.7802,40.2614],[21.7793,40.2618],[21.7781,40.2603],[21.7802,40.2614]]]}},{"type":"Feature","properties":{"landuse":"farmland"},"geometry":{"type":"Polygon","coordinates":[[[21.7843,40.2639],[21.7815,40.265],[21.7854,40.2614],[21.7843,40.2639]]]}},{"type":"Feature","properties":{"landuse":"farmland"},"geometry":{"type":"Polygon","coordinates":[[[21.7802,40.2634],[21.7827,40.2615],[21.7832,40.2623],[21.7802,40.2634]]]}},{"type":"Feature","properties":{"landuse":"farmland"},"geometry":{"type":"Polygon","coordinates":[[[21.7792,40.2619],[21.7818,40.2608],[21.7823,40.2616],[21.7792,40.2619]]]}},{"type":"Feature","properties":{"landuse":"farmland"},"geometry":{"type":"Polygon","coordinates":[[[21.7831,40.2618],[21.7826,40.2605],[21.7843,40.2598],[21.7831,40.2618]]]}},{"type":"Feature","properties":{"landuse":"farmland"},"geometry":{"type":"Polygon","coordinates":[[[21.7867,40.266],[21.7886,40.2663],[21.7853,40.2679],[21.7867,40.266]]]}},{"type":"Feature","properties":{"landuse":"farmland"},"geometry":{"type":"Polygon","coordinates":[[[21.7834,40.2663],[21.7825,40.2648],[21.7865,40.2631],[21.7834,40.2663]]]}},{"type":"Feature","properties":{"landuse":"farmland"},"geometry":{"type":"Polygon","coordinates":[[[21.775,40.2557],[21.7749,40.2528],[21.7782,40.2544],[21.775,40.2557]]]}},{"type":"Feature","properties":{"landuse":"farmland"},"geometry":{"type":"Polygon","coordinates":[[[21.7735,40.2534],[21.7745,40.2524],[21.7748,40.2533],[21.7735,40.2534]]]}},{"type":"Feature","properties":{"landuse":"farmland"},"geometry":{"type":"Polygon","coordinates":[[[21.7735,40.2568],[21.7724,40.2552],[21.7742,40.2545],[21.7735,40.2568]]]}},{"type":"Feature","properties":{"landuse":"farmland"},"geometry":{"type":"Polygon","coordinates":[[[21.7759,40.2506],[21.7749,40.2527],[21.7736,40.2496],[21.7759,40.2506]]]}},{"type":"Feature","properties":{"landuse":"vineyard"},"geometry":{"type":"Polygon","coordinates":[[[21.7723,40.25],[21.7718,40.2493],[21.7742,40.2482],[21.7723,40.25]]]}},{"type":"Feature","properties":{"landuse":"farmland"},"geometry":{"type":"Polygon","coordinates":[[[21.7754,40.2527],[21.7815,40.2497],[21.7818,40.2526],[21.7754,40.2527]]]}},{"type":"Feature","properties":{"landuse":"farmland"},"geometry":{"type":"Polygon","coordinates":[[[21.7804,40.255],[21.7851,40.2563],[21.7834,40.258],[21.7804,40.255]]]}},{"type":"Feature","properties":{"landuse":"farmland"},"geometry":{"type":"Polygon","coordinates":[[[21.7772,40.2584],[21.7759,40.257],[21.7812,40.255],[21.7772,40.2584]]]}},{"type":"Feature","properties":{"landuse":"farmland"},"geometry":{"type":"Polygon","coordinates":[[[21.7833,40.2581],[21.778,40.2602],[21.7822,40.2566],[21.7833,40.2581]]]}},{"type":"Feature","properties":{"landuse":"farmland"},"geometry":{"type":"Polygon","coordinates":[[[21.7945,40.2645],[21.7905,40.2629],[21.7934,40.2617],[21.7945,40.2645]]]}},{"type":"Feature","properties":{"landuse":"farmland"},"geometry":{"type":"Polygon","coordinates":[[[21.7877,40.2647],[21.7918,40.2631],[21.7929,40.2646],[21.7877,40.2647]]]}},{"type":"Feature","properties":{"landuse":"farmland"},"geometry":{"type":"Polygon","coordinates":[[[21.799,40.2692],[21.7965,40.2697],[21.7969,40.2686],[21.799,40.2692]]]}},{"type":"Feature","properties":{"landuse":"farmland"},"geometry":{"type":"Polygon","coordinates":[[[21.799,40.2692],[21.798,40.265],[21.803,40.2634],[21.799,40.2692]]]}},{"type":"Feature","properties":{"landuse":"farmland"},"geometry":{"type":"Polygon","coordinates":[[[21.7933,40.2722],[21.7904,40.2686],[21.7956,40.2658],[21.7933,40.2722]]]}},{"type":"Feature","properties":{"landuse":"farmland"},"geometry":{"type":"Polygon","coordinates":[[[21.798,40.2702],[21.7958,40.2727],[21.7964,40.27],[21.798,40.2702]]]}},{"type":"Feature","properties":{"landuse":"farmland"},"geometry":{"type":"Polygon","coordinates":[[[21.7877,40.2719],[21.7861,40.2705],[21.7904,40.2689],[21.7877,40.2719]]]}},{"type":"Feature","properties":{"landuse":"farmland"},"geometry":{"type":"Polygon","coordinates":[[[21.7919,40.267],[21.79,40.2678],[21.7932,40.2649],[21.7919,40.267]]]}},{"type":"Feature","properties":{"landuse":"farmland"},"geometry":{"type":"Polygon","coordinates":[[[21.7792,40.242],[21.7764,40.2392],[21.7815,40.2372],[21.7869,40.2419],[21.7792,40.242]]]}},{"type":"Feature","properties":{"landuse":"farmland"},"geometry":{"type":"Polygon","coordinates":[[[21.7749,40.235],[21.7732,40.2405],[21.7733,40.2369],[21.7749,40.235]]]}},{"type":"Feature","properties":{"landuse":"farmland"},"geometry":{"type":"Polygon","coordinates":[[[21.7731,40.2428],[21.7731,40.2406],[21.7739,40.2403],[21.7731,40.2428]]]}},{"type":"Feature","properties":{"landuse":"farmland"},"geometry":{"type":"Polygon","coordinates":[[[21.7719,40.2446],[21.7719,40.2432],[21.7728,40.2437],[21.7719,40.2446]]]}},{"type":"Feature","properties":{"landuse":"farmland"},"geometry":{"type":"Polygon","coordinates":[[[21.7734,40.2446],[21.7744,40.2402],[21.7763,40.2393],[21.7734,40.2446]]]}},{"type":"Feature","properties":{"landuse":"farmland"},"geometry":{"type":"Polygon","coordinates":[[[21.7747,40.2398],[21.7768,40.2309],[21.7814,40.2371],[21.7747,40.2398]]]}},{"type":"Feature","properties":{"landuse":"farmland"},"geometry":{"type":"Polygon","coordinates":[[[21.7779,40.2406],[21.7785,40.2423],[21.7746,40.2439],[21.7779,40.2406]]]}},{"type":"Feature","properties":{"landuse":"farmland"},"geometry":{"type":"Polygon","coordinates":[[[21.7833,40.2433],[21.7732,40.2486],[21.7742,40.2443],[21.7821,40.241],[21.7833,40.2433]]]}},{"type":"Feature","properties":{"landuse":"farmland"},"geometry":{"type":"Polygon","coordinates":[[[21.7718,40.2493],[21.7723,40.2478],[21.773,40.2487],[21.7718,40.2493]]]}},{"type":"Feature","properties":{"landuse":"farmland"},"geometry":{"type":"Polygon","coordinates":[[[21.7733,40.2462],[21.771,40.2458],[21.7735,40.2447],[21.7733,40.2462]]]}},{"type":"Feature","properties":{"landuse":"farmland"},"geometry":{"type":"Polygon","coordinates":[[[21.7854,40.2424],[21.7903,40.2467],[21.7855,40.2456],[21.7799,40.2504],[21.7774,40.2469],[21.7854,40.2424]]]}},{"type":"Feature","properties":{"landuse":"farmland"},"geometry":{"type":"Polygon","coordinates":[[[21.7874,40.2477],[21.7813,40.2482],[21.7856,40.2457],[21.7874,40.2477]]]}},{"type":"Feature","properties":{"landuse":"farmland"},"geometry":{"type":"Polygon","coordinates":[[[21.78,40.2508],[21.7743,40.2483],[21.7774,40.2469],[21.78,40.2508]]]}},{"type":"Feature","properties":{"landuse":"farmland"},"geometry":{"type":"Polygon","coordinates":[[[21.7859,40.2567],[21.7826,40.2537],[21.7908,40.2507],[21.7859,40.2567]]]}},{"type":"Feature","properties":{"landuse":"farmland"},"geometry":{"type":"Polygon","coordinates":[[[21.7936,40.2662],[21.7968,40.2631],[21.7974,40.2651],[21.7936,40.2662]]]}},{"type":"Feature","properties":{"landuse":"farmland"},"geometry":{"type":"Polygon","coordinates":[[[21.7963,40.2634],[21.7945,40.2615],[21.7984,40.2587],[21.7963,40.2634]]]}},{"type":"Feature","properties":{"landuse":"farmland"},"geometry":{"type":"Polygon","coordinates":[[[21.801,40.2885],[21.7988,40.2871],[21.8026,40.2871],[21.801,40.2885]]]}},{"type":"Feature","properties":{"landuse":"farmland"},"geometry":{"type":"Polygon","coordinates":[[[21.8011,40.289],[21.799,40.2888],[21.7996,40.2879],[21.8011,40.289]]]}},{"type":"Feature","properties":{"landuse":"farmland"},"geometry":{"type":"Polygon","coordinates":[[[21.8028,40.2871],[21.8005,40.2863],[21.8045,40.2843],[21.8028,40.2871]]]}},{"type":"Feature","properties":{"landuse":"farmland"},"geometry":{"type":"Polygon","coordinates":[[[21.7898,40.2735],[21.794,40.2749],[21.7927,40.2814],[21.7844,40.2766],[21.7898,40.2735]]]}},{"type":"Feature","properties":{"landuse":"farmland"},"geometry":{"type":"Polygon","coordinates":[[[21.791,40.284],[21.79,40.2802],[21.7926,40.2813],[21.791,40.284]]]}},{"type":"Feature","properties":{"landuse":"farmland"},"geometry":{"type":"Polygon","coordinates":[[[21.7882,40.2779],[21.7894,40.2826],[21.7873,40.2805],[21.7882,40.2779]]]}},{"type":"Feature","properties":{"landuse":"farmland"},"geometry":{"type":"Polygon","coordinates":[[[21.7948,40.275],[21.7906,40.2713],[21.7952,40.2726],[21.7948,40.275]]]}},{"type":"Feature","properties":{"landuse":"farmland"},"geometry":{"type":"Polygon","coordinates":[[[21.8026,40.2787],[21.8015,40.2769],[21.8059,40.2758],[21.8026,40.2787]]]}},{"type":"Feature","properties":{"landuse":"farmland"},"geometry":{"type":"Polygon","coordinates":[[[21.8084,40.2646],[21.81,40.2652],[21.8066,40.2653],[21.8084,40.2646]]]}},{"type":"Feature","properties":{"landuse":"farmland"},"geometry":{"type":"Polygon","coordinates":[[[21.8078,40.2657],[21.8055,40.2669],[21.8065,40.2655],[21.8078,40.2657]]]}},{"type":"Feature","properties":{"landuse":"farmland"},"geometry":{"type":"Polygon","coordinates":[[[21.8023,40.2667],[21.8035,40.2635],[21.8064,40.2649],[21.8023,40.2667]]]}},{"type":"Feature","properties":{"landuse":"farmland"},"geometry":{"type":"Polygon","coordinates":[[[21.8058,40.2629],[21.8076,40.2623],[21.8066,40.2646],[21.8058,40.2629]]]}},{"type":"Feature","properties":{"landuse":"farmland"},"geometry":{"type":"Polygon","coordinates":[[[21.8037,40.2673],[21.805,40.2679],[21.8031,40.2704],[21.8019,40.2692],[21.8037,40.2673]]]}},{"type":"Feature","properties":{"landuse":"farmland"},"geometry":{"type":"Polygon","coordinates":[[[21.8019,40.2692],[21.7996,40.2689],[21.8037,40.2673],[21.8019,40.2692]]]}},{"type":"Feature","properties":{"landuse":"farmland"},"geometry":{"type":"Polygon","coordinates":[[[21.8034,40.2727],[21.8051,40.2742],[21.8019,40.2768],[21.8034,40.2727]]]}},{"type":"Feature","properties":{"landuse":"farmland"},"geometry":{"type":"Polygon","coordinates":[[[21.7996,40.2689],[21.8032,40.2717],[21.8016,40.2765],[21.7952,40.275],[21.7996,40.2689]]]}},{"type":"Feature","properties":{"landuse":"farmland"},"geometry":{"type":"Polygon","coordinates":[[[21.7996,40.276],[21.8013,40.2772],[21.7964,40.283],[21.7925,40.2825],[21.7947,40.2759],[21.7996,40.276]]]}},{"type":"Feature","properties":{"landuse":"farmland"},"geometry":{"type":"Polygon","coordinates":[[[21.7947,40.2831],[21.7978,40.2829],[21.7958,40.2858],[21.7947,40.2831]]]}},{"type":"Feature","properties":{"landuse":"farmland"},"geometry":{"type":"Polygon","coordinates":[[[21.8081,40.2761],[21.8062,40.2803],[21.8041,40.2795],[21.8081,40.2761]]]}},{"type":"Feature","properties":{"landuse":"farmland"},"geometry":{"type":"Polygon","coordinates":[[[21.806,40.2805],[21.805,40.2833],[21.8023,40.2832],[21.806,40.2805]]]}},{"type":"Feature","properties":{"landuse":"farmland"},"geometry":{"type":"Polygon","coordinates":[[[21.8027,40.2846],[21.8016,40.283],[21.8036,40.2843],[21.8027,40.2846]]]}},{"type":"Feature","properties":{"landuse":"farmland"},"geometry":{"type":"Polygon","coordinates":[[[21.795,40.2858],[21.7932,40.2885],[21.7924,40.2839],[21.795,40.2858]]]}},{"type":"Feature","properties":{"landuse":"farmland"},"geometry":{"type":"Polygon","coordinates":[[[21.8111,40.2942],[21.8109,40.292],[21.812,40.2903],[21.8111,40.2942]]]}},{"type":"Feature","properties":{"landuse":"farmland"},"geometry":{"type":"Polygon","coordinates":[[[21.8121,40.2903],[21.8152,40.2908],[21.814,40.2927],[21.8121,40.2903]]]}},{"type":"Feature","properties":{"landuse":"farmland"},"geometry":{"type":"Polygon","coordinates":[[[21.8227,40.2922],[21.8201,40.2924],[21.8225,40.2906],[21.8227,40.2922]]]}},{"type":"Feature","properties":{"landuse":"farmland"},"geometry":{"type":"Polygon","coordinates":[[[21.823,40.2922],[21.8238,40.2904],[21.8251,40.2915],[21.823,40.2922]]]}},{"type":"Feature","properties":{"landuse":"farmland"},"geometry":{"type":"Polygon","coordinates":[[[21.8288,40.2923],[21.8249,40.2898],[21.8295,40.2891],[21.8288,40.2923]]]}},{"type":"Feature","properties":{"landuse":"farmland"},"geometry":{"type":"Polygon","coordinates":[[[21.812,40.2955],[21.812,40.2934],[21.8139,40.294],[21.812,40.2955]]]}},{"type":"Feature","properties":{"landuse":"farmland"},"geometry":{"type":"Polygon","coordinates":[[[21.8157,40.29],[21.8205,40.2872],[21.8187,40.2933],[21.8155,40.2941],[21.8157,40.29]]]}},{"type":"Feature","properties":{"landuse":"farmland"},"geometry":{"type":"Polygon","coordinates":[[[21.816,40.2894],[21.8144,40.2905],[21.8116,40.29],[21.816,40.2894]]]}},{"type":"Feature","properties":{"landuse":"farmland"},"geometry":{"type":"Polygon","coordinates":[[[21.8237,40.2893],[21.8205,40.2907],[21.8207,40.2873],[21.8237,40.2893]]]}},{"type":"Feature","properties":{"landuse":"farmland"},"geometry":{"type":"Polygon","coordinates":[[[21.8327,40.2868],[21.8376,40.2845],[21.8322,40.2916],[21.8288,40.2876],[21.8327,40.2868]]]}},{"type":"Feature","properties":{"landuse":"farmland"},"geometry":{"type":"Polygon","coordinates":[[[21.8251,40.2885],[21.8245,40.2863],[21.8295,40.2854],[21.8251,40.2885]]]}},{"type":"Feature","properties":{"landuse":"farmland"},"geometry":{"type":"Polygon","coordinates":[[[21.805,40.2981],[21.8038,40.2959],[21.8097,40.2913],[21.805,40.2981]]]}},{"type":"Feature","properties":{"landuse":"farmland"},"geometry":{"type":"Polygon","coordinates":[[[21.8141,40.2968],[21.8119,40.2957],[21.8146,40.2951],[21.8141,40.2968]]]}},{"type":"Feature","properties":{"landuse":"farmland"},"geometry":{"type":"Polygon","coordinates":[[[21.8094,40.2969],[21.8075,40.2983],[21.8076,40.296],[21.8094,40.2969]]]}},{"type":"Feature","properties":{"landuse":"farmland"},"geometry":{"type":"Polygon","coordinates":[[[21.8098,40.2928],[21.8108,40.2947],[21.8098,40.2967],[21.8098,40.2928]]]}},{"type":"Feature","properties":{"landuse":"farmland"},"geometry":{"type":"Polygon","coordinates":[[[21.8244,40.2932],[21.8243,40.2951],[21.822,40.2948],[21.8244,40.2932]]]}},{"type":"Feature","properties":{"landuse":"farmland"},"geometry":{"type":"Polygon","coordinates":[[[21.8227,40.2969],[21.8214,40.2957],[21.8231,40.2955],[21.8227,40.2969]]]}},{"type":"Feature","properties":{"landuse":"farmland"},"geometry":{"type":"Polygon","coordinates":[[[21.8284,40.2964],[21.826,40.2953],[21.8288,40.2945],[21.8284,40.2964]]]}},{"type":"Feature","properties":{"landuse":"farmland"},"geometry":{"type":"Polygon","coordinates":[[[21.8107,40.2922],[21.8098,40.2914],[21.8113,40.2899],[21.8107,40.2922]]]}},{"type":"Feature","properties":{"landuse":"farmland"},"geometry":{"type":"Polygon","coordinates":[[[21.8157,40.2955],[21.8169,40.2945],[21.817,40.296],[21.8157,40.2955]]]}},{"type":"Feature","properties":{"landuse":"farmland"},"geometry":{"type":"Polygon","coordinates":[[[21.8195,40.2957],[21.8195,40.2932],[21.8221,40.2939],[21.8195,40.2957]]]}},{"type":"Feature","properties":{"landuse":"farmland"},"geometry":{"type":"Polygon","coordinates":[[[21.8267,40.2933],[21.8254,40.2928],[21.8276,40.2916],[21.8267,40.2933]]]}},{"type":"Feature","properties":{"landuse":"farmland"},"geometry":{"type":"Polygon","coordinates":[[[21.8287,40.2952],[21.8292,40.2926],[21.8321,40.2918],[21.8287,40.2952]]]}},{"type":"Feature","properties":{"landuse":"farmland"},"geometry":{"type":"Polygon","coordinates":[[[21.836,40.2845],[21.8298,40.2778],[21.8368,40.2829],[21.836,40.2845]]]}},{"type":"Feature","properties":{"landuse":"farmland"},"geometry":{"type":"Polygon","coordinates":[[[21.8519,40.2871],[21.8449,40.2907],[21.8458,40.2865],[21.8519,40.2871]]]}},{"type":"Feature","properties":{"landuse":"farmland"},"geometry":{"type":"Polygon","coordinates":[[[21.8444,40.296],[21.8401,40.2972],[21.8448,40.2909],[21.8493,40.2904],[21.8444,40.296]]]}},{"type":"Feature","properties":{"landuse":"farmland"},"geometry":{"type":"Polygon","coordinates":[[[21.8478,40.305],[21.8494,40.3023],[21.8488,40.3053],[21.8478,40.305]]]}},{"type":"Feature","properties":{"landuse":"farmland"},"geometry":{"type":"Polygon","coordinates":[[[21.8296,40.2829],[21.8319,40.2812],[21.835,40.2845],[21.8246,40.2861],[21.8253,40.2817],[21.8296,40.2829]]]}},{"type":"Feature","properties":{"landuse":"farmland"},"geometry":{"type":"Polygon","coordinates":[[[21.8319,40.2812],[21.8245,40.2814],[21.8244,40.2728],[21.8319,40.2812]]]}},{"type":"Feature","properties":{"landuse":"farmland"},"geometry":{"type":"Polygon","coordinates":[[[21.815,40.2885],[21.8204,40.281],[21.8243,40.2814],[21.8226,40.2864],[21.815,40.2885]]]}},{"type":"Feature","properties":{"landuse":"farmland"},"geometry":{"type":"Polygon","coordinates":[[[21.817,40.2735],[21.8131,40.2791],[21.8121,40.2734],[21.817,40.2735]]]}},{"type":"Feature","properties":{"landuse":"farmland"},"geometry":{"type":"Polygon","coordinates":[[[21.8127,40.2824],[21.8135,40.2788],[21.8152,40.2794],[21.8127,40.2824]]]}},{"type":"Feature","properties":{"landuse":"farmland"},"geometry":{"type":"Polygon","coordinates":[[[21.8068,40.2886],[21.8144,40.2809],[21.8205,40.2806],[21.8111,40.2897],[21.8068,40.2886]]]}},{"type":"Feature","properties":{"landuse":"farmland"},"geometry":{"type":"Polygon","coordinates":[[[21.8137,40.2786],[21.8164,40.2748],[21.8149,40.2789],[21.8137,40.2786]]]}},{"type":"Feature","properties":{"landuse":"farmland"},"geometry":{"type":"Polygon","coordinates":[[[21.8219,40.2767],[21.8218,40.2795],[21.8157,40.2794],[21.8202,40.2747],[21.8219,40.2767]]]}},{"type":"Feature","properties":{"landuse":"farmland"},"geometry":{"type":"Polygon","coordinates":[[[21.8218,40.2756],[21.8202,40.2747],[21.8229,40.2741],[21.8218,40.2756]]]}},{"type":"Feature","properties":{"landuse":"farmland"},"geometry":{"type":"Polygon","coordinates":[[[21.8244,40.2747],[21.8244,40.2805],[21.822,40.2808],[21.8244,40.2747]]]}},{"type":"Feature","properties":{"landuse":"farmland"},"geometry":{"type":"Polygon","coordinates":[[[21.7972,40.2862],[21.7959,40.2861],[21.799,40.2839],[21.7994,40.2856],[21.7972,40.2862]]]}},{"type":"Feature","properties":{"landuse":"farmland"},"geometry":{"type":"Polygon","coordinates":[[[21.7999,40.2846],[21.798,40.2817],[21.8036,40.279],[21.7999,40.2846]]]}},{"type":"Feature","properties":{"landuse":"farmland"},"geometry":{"type":"Polygon","coordinates":[[[21.8229,40.2693],[21.8234,40.2715],[21.8204,40.2695],[21.8229,40.2693]]]}},{"type":"Feature","properties":{"landuse":"farmland"},"geometry":{"type":"Polygon","coordinates":[[[21.8222,40.2715],[21.8184,40.2765],[21.8191,40.2667],[21.8222,40.2715]]]}},{"type":"Feature","properties":{"landuse":"farmland"},"geometry":{"type":"Polygon","coordinates":[[[21.8237,40.2734],[21.8215,40.273],[21.8222,40.2715],[21.8237,40.2734]]]}},{"type":"Feature","properties":{"landuse":"farmland"},"geometry":{"type":"Polygon","coordinates":[[[21.8184,40.2765],[21.815,40.2792],[21.8167,40.2758],[21.8184,40.2765]]]}},{"type":"Feature","properties":{"landuse":"farmland"},"geometry":{"type":"Polygon","coordinates":[[[21.8109,40.2657],[21.8109,40.2683],[21.8047,40.2707],[21.8109,40.2657]]]}},{"type":"Feature","properties":{"landuse":"farmland"},"geometry":{"type":"Polygon","coordinates":[[[21.808,40.2726],[21.8091,40.2735],[21.804,40.2753],[21.808,40.2726]]]}},{"type":"Feature","properties":{"landuse":"farmland"},"geometry":{"type":"Polygon","coordinates":[[[21.8092,40.2737],[21.8115,40.2732],[21.8121,40.277],[21.8081,40.2767],[21.8092,40.2737]]]}},{"type":"Feature","properties":{"landuse":"farmland"},"geometry":{"type":"Polygon","coordinates":[[[21.8152,40.2732],[21.8126,40.272],[21.8163,40.2692],[21.8152,40.2732]]]}},{"type":"Feature","properties":{"landuse":"farmland"},"geometry":{"type":"Polygon","coordinates":[[[21.808,40.2774],[21.8104,40.2767],[21.8117,40.2821],[21.8058,40.2819],[21.808,40.2774]]]}},{"type":"Feature","properties":{"landuse":"farmland"},"geometry":{"type":"Polygon","coordinates":[[[21.8116,40.2826],[21.8022,40.2891],[21.8057,40.282],[21.8116,40.2826]]]}},{"type":"Feature","properties":{"landuse":"farmland"},"geometry":{"type":"Polygon","coordinates":[[[21.8035,40.2893],[21.8043,40.2882],[21.8056,40.2895],[21.8035,40.2893]]]}},{"type":"Feature","properties":{"landuse":"farmland"},"geometry":{"type":"Polygon","coordinates":[[[21.8122,40.2633],[21.8117,40.2654],[21.8099,40.265],[21.8122,40.2633]]]}},{"type":"Feature","properties":{"landuse":"farmland"},"geometry":{"type":"Polygon","coordinates":[[[21.8472,40.2697],[21.8492,40.2712],[21.8471,40.2751],[21.8472,40.2697]]]}},{"type":"Feature","properties":{"landuse":"farmland"},"geometry":{"type":"Polygon","coordinates":[[[21.8523,40.2705],[21.8478,40.2742],[21.85,40.2706],[21.8523,40.2705]]]}},{"type":"Feature","properties":{"landuse":"farmland"},"geometry":{"type":"Polygon","coordinates":[[[21.8473,40.2665],[21.8503,40.2687],[21.8469,40.2693],[21.8473,40.2665]]]}},{"type":"Feature","properties":{"landuse":"farmland"},"geometry":{"type":"Polygon","coordinates":[[[21.8388,40.2839],[21.8465,40.2694],[21.8464,40.276],[21.8388,40.2839]]]}},{"type":"Feature","properties":{"landuse":"farmland"},"geometry":{"type":"Polygon","coordinates":[[[21.854,40.2779],[21.8477,40.2745],[21.854,40.2689],[21.8565,40.2711],[21.854,40.2779]]]}},{"type":"Feature","properties":{"landuse":"farmland"},"geometry":{"type":"Polygon","coordinates":[[[21.8498,40.2761],[21.8395,40.2845],[21.8477,40.2747],[21.8498,40.2761]]]}},{"type":"Feature","properties":{"landuse":"farmland"},"geometry":{"type":"Polygon","coordinates":[[[21.8263,40.2689],[21.8255,40.2703],[21.8275,40.267],[21.8263,40.2689]]]}},{"type":"Feature","properties":{"landuse":"farmland"},"geometry":{"type":"Polygon","coordinates":[[[21.8261,40.2709],[21.8279,40.2671],[21.8331,40.2705],[21.83,40.275],[21.8261,40.2709]]]}},{"type":"Feature","properties":{"landuse":"farmland"},"geometry":{"type":"Polygon","coordinates":[[[21.83,40.275],[21.8313,40.274],[21.8334,40.2746],[21.83,40.275]]]}},{"type":"Feature","properties":{"landuse":"farmland"},"geometry":{"type":"Polygon","coordinates":[[[21.8329,40.2721],[21.8326,40.2742],[21.8317,40.2735],[21.8329,40.2721]]]}},{"type":"Feature","properties":{"landuse":"farmland"},"geometry":{"type":"Polygon","coordinates":[[[21.8334,40.2704],[21.8333,40.2723],[21.8325,40.2717],[21.8334,40.2704]]]}},{"type":"Feature","properties":{"landuse":"farmland"},"geometry":{"type":"Polygon","coordinates":[[[21.8334,40.2746],[21.8341,40.2708],[21.8353,40.2725],[21.8334,40.2746]]]}},{"type":"Feature","properties":{"landuse":"farmland"},"geometry":{"type":"Polygon","coordinates":[[[21.8381,40.268],[21.8352,40.2723],[21.8345,40.2706],[21.8381,40.268]]]}},{"type":"Feature","properties":{"landuse":"farmland"},"geometry":{"type":"Polygon","coordinates":[[[21.8428,40.2614],[21.842,40.2593],[21.8434,40.2585],[21.8428,40.2614]]]}},{"type":"Feature","properties":{"landuse":"farmland"},"geometry":{"type":"Polygon","coordinates":[[[21.8385,40.2679],[21.841,40.2608],[21.8418,40.263],[21.8385,40.2679]]]}},{"type":"Feature","properties":{"landuse":"farmland"},"geometry":{"type":"Polygon","coordinates":[[[21.8411,40.2645],[21.8439,40.2703],[21.8371,40.2828],[21.8287,40.2767],[21.8332,40.2752],[21.8411,40.2645]]]}},{"type":"Feature","properties":{"landuse":"farmland"},"geometry":{"type":"Polygon","coordinates":[[[21.8439,40.2635],[21.8421,40.2641],[21.8421,40.2624],[21.8439,40.2635]]]}},{"type":"Feature","properties":{"landuse":"farmland"},"geometry":{"type":"Polygon","coordinates":[[[21.8235,40.2643],[21.8253,40.2647],[21.8246,40.2669],[21.8235,40.2643]]]}},{"type":"Feature","properties":{"landuse":"farmland"},"geometry":{"type":"Polygon","coordinates":[[[21.8256,40.2641],[21.8232,40.2642],[21.8256,40.263],[21.8256,40.2641]]]}},{"type":"Feature","properties":{"landuse":"farmland"},"geometry":{"type":"Polygon","coordinates":[[[21.821,40.2577],[21.8262,40.2547],[21.8232,40.2588],[21.821,40.2577]]]}},{"type":"Feature","properties":{"landuse":"farmland"},"geometry":{"type":"Polygon","coordinates":[[[21.8236,40.2626],[21.8232,40.2616],[21.8256,40.2615],[21.8236,40.2626]]]}},{"type":"Feature","properties":{"landuse":"farmland"},"geometry":{"type":"Polygon","coordinates":[[[21.8377,40.2589],[21.8368,40.2633],[21.8324,40.2636],[21.8345,40.2591],[21.8377,40.2589]]]}},{"type":"Feature","properties":{"landuse":"farmland"},"geometry":{"type":"Polygon","coordinates":[[[21.8337,40.2633],[21.836,40.265],[21.8333,40.2679],[21.8283,40.2665],[21.8337,40.2633]]]}},{"type":"Feature","properties":{"landuse":"farmland"},"geometry":{"type":"Polygon","coordinates":[[[21.8278,40.2655],[21.8274,40.2629],[21.8312,40.2645],[21.8278,40.2655]]]}},{"type":"Feature","properties":{"landuse":"farmland"},"geometry":{"type":"Polygon","coordinates":[[[21.8052,40.2574],[21.8082,40.2563],[21.8067,40.2584],[21.8052,40.2574]]]}},{"type":"Feature","properties":{"landuse":"farmland"},"geometry":{"type":"Polygon","coordinates":[[[21.8285,40.2581],[21.8315,40.2581],[21.8288,40.2591],[21.8285,40.2581]]]}},{"type":"Feature","properties":{"landuse":"farmland"},"geometry":{"type":"Polygon","coordinates":[[[21.8299,40.2593],[21.8329,40.2607],[21.8312,40.2645],[21.8299,40.2593]]]}},{"type":"Feature","properties":{"landuse":"farmland"},"geometry":{"type":"Polygon","coordinates":[[[21.8296,40.2616],[21.8283,40.2629],[21.8277,40.2606],[21.8296,40.2616]]]}},{"type":"Feature","properties":{"landuse":"farmland"},"geometry":{"type":"Polygon","coordinates":[[[21.8217,40.2658],[21.822,40.2646],[21.8229,40.2656],[21.8217,40.2658]]]}},{"type":"Feature","properties":{"landuse":"green_public_spaces"},"geometry":{"type":"Polygon","coordinates":[[[21.6828,40.5226],[21.6851,40.5226],[21.6851,40.5239],[21.6828,40.5226]]]}},{"type":"Feature","properties":{"landuse":"farmland"},"geometry":{"type":"Polygon","coordinates":[[[21.6886,40.5227],[21.6908,40.523],[21.6907,40.5238],[21.6886,40.5227]]]}},{"type":"Feature","properties":{"landuse":"farmland"},"geometry":{"type":"Polygon","coordinates":[[[21.6848,40.5266],[21.687,40.5263],[21.6869,40.5272],[21.6848,40.5266]]]}},{"type":"Feature","properties":{"landuse":"green_public_spaces"},"geometry":{"type":"Polygon","coordinates":[[[21.6835,40.5074],[21.6878,40.5052],[21.6888,40.5065],[21.6835,40.5074]]]}},{"type":"Feature","properties":{"landuse":"farmland"},"geometry":{"type":"Polygon","coordinates":[[[21.7813,40.3183],[21.7818,40.3173],[21.7827,40.3189],[21.7813,40.3183]]]}},{"type":"Feature","properties":{"landuse":"orchard"},"geometry":{"type":"Polygon","coordinates":[[[22.0502,40.2481],[22.0525,40.2486],[22.0509,40.2494],[22.0502,40.2481]]]}},{"type":"Feature","properties":{"landuse":"orchard"},"geometry":{"type":"Polygon","coordinates":[[[22.0653,40.2514],[22.0629,40.2493],[22.0652,40.2481],[22.0653,40.2514]]]}},{"type":"Feature","properties":{"landuse":"orchard"},"geometry":{"type":"Polygon","coordinates":[[[22.0625,40.2517],[22.0559,40.2493],[22.0646,40.2519],[22.0625,40.2517]]]}},{"type":"Feature","properties":{"landuse":"farmland"},"geometry":{"type":"Polygon","coordinates":[[[22.0622,40.253],[22.0635,40.2544],[22.0586,40.2557],[22.0622,40.253]]]}},{"type":"Feature","properties":{"landuse":"farmland"},"geometry":{"type":"Polygon","coordinates":[[[22.0594,40.2556],[22.0653,40.2563],[22.0601,40.2579],[22.0594,40.2556]]]}},{"type":"Feature","properties":{"landuse":"farmland"},"geometry":{"type":"Polygon","coordinates":[[[22.0577,40.2541],[22.0588,40.2522],[22.0593,40.2534],[22.0577,40.2541]]]}},{"type":"Feature","properties":{"landuse":"orchard"},"geometry":{"type":"Polygon","coordinates":[[[22.0577,40.2541],[22.0532,40.2542],[22.0561,40.2514],[22.0577,40.2541]]]}},{"type":"Feature","properties":{"landuse":"farmland"},"geometry":{"type":"Polygon","coordinates":[[[22.053,40.2539],[22.0528,40.2529],[22.055,40.2531],[22.053,40.2539]]]}},{"type":"Feature","properties":{"landuse":"farmland"},"geometry":{"type":"Polygon","coordinates":[[[22.0509,40.2532],[22.0486,40.2563],[22.0426,40.2527],[22.0509,40.2532]]]}},{"type":"Feature","properties":{"landuse":"vineyard"},"geometry":{"type":"Polygon","coordinates":[[[22.0486,40.2563],[22.048,40.2545],[22.0521,40.2554],[22.0486,40.2563]]]}},{"type":"Feature","properties":{"landuse":"orchard"},"geometry":{"type":"Polygon","coordinates":[[[22.0528,40.2554],[22.0529,40.2563],[22.0504,40.2567],[22.0528,40.2554]]]}},{"type":"Feature","properties":{"landuse":"orchard"},"geometry":{"type":"Polygon","coordinates":[[[22.0461,40.2562],[22.0469,40.2575],[22.0457,40.2582],[22.0461,40.2562]]]}},{"type":"Feature","properties":{"landuse":"farmland"},"geometry":{"type":"Polygon","coordinates":[[[22.0415,40.2562],[22.043,40.2567],[22.0431,40.2581],[22.0415,40.2562]]]}},{"type":"Feature","properties":{"landuse":"orchard"},"geometry":{"type":"Polygon","coordinates":[[[22.0457,40.2559],[22.0437,40.2571],[22.0427,40.2557],[22.0457,40.2559]]]}},{"type":"Feature","properties":{"landuse":"farmland"},"geometry":{"type":"Polygon","coordinates":[[[22.0442,40.2583],[22.0422,40.2593],[22.0433,40.2572],[22.0442,40.2583]]]}},{"type":"Feature","properties":{"landuse":"orchard"},"geometry":{"type":"Polygon","coordinates":[[[22.0434,40.2551],[22.0409,40.2529],[22.0426,40.2527],[22.0434,40.2551]]]}},{"type":"Feature","properties":{"landuse":"farmland"},"geometry":{"type":"Polygon","coordinates":[[[22.0452,40.2515],[22.0514,40.2499],[22.0506,40.2524],[22.0452,40.2515]]]}},{"type":"Feature","properties":{"landuse":"orchard"},"geometry":{"type":"Polygon","coordinates":[[[22.0454,40.2524],[22.0469,40.2542],[22.0457,40.2542],[22.0454,40.2524]]]}},{"type":"Feature","properties":{"landuse":"farmland"},"geometry":{"type":"Polygon","coordinates":[[[22.0475,40.253],[22.0492,40.2523],[22.051,40.253],[22.0475,40.253]]]}},{"type":"Feature","properties":{"landuse":"orchard"},"geometry":{"type":"Polygon","coordinates":[[[22.0505,40.2516],[22.0505,40.2502],[22.0521,40.2505],[22.0505,40.2516]]]}},{"type":"Feature","properties":{"landuse":"orchard"},"geometry":{"type":"Polygon","coordinates":[[[22.0542,40.2524],[22.0532,40.2504],[22.0563,40.2512],[22.0542,40.2524]]]}},{"type":"Feature","properties":{"landuse":"farmland"},"geometry":{"type":"Polygon","coordinates":[[[22.0519,40.2499],[22.0547,40.2512],[22.0524,40.2516],[22.0519,40.2499]]]}},{"type":"Feature","properties":{"landuse":"farmland"},"geometry":{"type":"Polygon","coordinates":[[[22.0448,40.2504],[22.0448,40.2484],[22.0477,40.2494],[22.0448,40.2504]]]}},{"type":"Feature","properties":{"landuse":"orchard"},"geometry":{"type":"Polygon","coordinates":[[[22.0421,40.2487],[22.039,40.246],[22.0413,40.2438],[22.0444,40.2462],[22.0421,40.2487]]]}},{"type":"Feature","properties":{"landuse":"orchard"},"geometry":{"type":"Polygon","coordinates":[[[22.0458,40.2473],[22.0427,40.2439],[22.044,40.2423],[22.0458,40.2473]]]}},{"type":"Feature","properties":{"landuse":"farmland"},"geometry":{"type":"Polygon","coordinates":[[[22.0513,40.2468],[22.0514,40.2474],[22.0475,40.2466],[22.0513,40.2468]]]}},{"type":"Feature","properties":{"landuse":"orchard"},"geometry":{"type":"Polygon","coordinates":[[[22.047,40.2448],[22.0472,40.2426],[22.0503,40.2425],[22.047,40.2448]]]}},{"type":"Feature","properties":{"landuse":"farmland"},"geometry":{"type":"Polygon","coordinates":[[[22.0472,40.2445],[22.0481,40.2434],[22.0465,40.2458],[22.0472,40.2445]]]}},{"type":"Feature","properties":{"landuse":"farmland"},"geometry":{"type":"Polygon","coordinates":[[[22.0464,40.2436],[22.0436,40.2439],[22.0432,40.2409],[22.0464,40.2436]]]}},{"type":"Feature","properties":{"landuse":"orchard"},"geometry":{"type":"Polygon","coordinates":[[[22.0432,40.2409],[22.0413,40.2427],[22.0385,40.2409],[22.0432,40.2409]]]}},{"type":"Feature","properties":{"landuse":"farmland"},"geometry":{"type":"Polygon","coordinates":[[[22.0385,40.2409],[22.0386,40.24],[22.0413,40.2414],[22.0385,40.2409]]]}},{"type":"Feature","properties":{"landuse":"farmland"},"geometry":{"type":"Polygon","coordinates":[[[22.0398,40.2426],[22.0421,40.2426],[22.0415,40.2438],[22.0398,40.2426]]]}},{"type":"Feature","properties":{"landuse":"orchard"},"geometry":{"type":"Polygon","coordinates":[[[22.0395,40.2425],[22.0364,40.2427],[22.0365,40.2406],[22.0395,40.2425]]]}},{"type":"Feature","properties":{"landuse":"orchard"},"geometry":{"type":"Polygon","coordinates":[[[22.0374,40.245],[22.0364,40.244],[22.0385,40.2435],[22.0374,40.245]]]}},{"type":"Feature","properties":{"landuse":"farmland"},"geometry":{"type":"Polygon","coordinates":[[[22.0369,40.2447],[22.0364,40.2427],[22.0395,40.2425],[22.0369,40.2447]]]}},{"type":"Feature","properties":{"landuse":"farmland"},"geometry":{"type":"Polygon","coordinates":[[[22.0416,40.2482],[22.0419,40.247],[22.0428,40.2477],[22.0416,40.2482]]]}},{"type":"Feature","properties":{"landuse":"farmland"},"geometry":{"type":"Polygon","coordinates":[[[22.0413,40.2438],[22.038,40.2444],[22.0397,40.2427],[22.0413,40.2438]]]}},{"type":"Feature","properties":{"landuse":"farmland"},"geometry":{"type":"Polygon","coordinates":[[[22.0208,40.2043],[22.0233,40.2038],[22.0222,40.2056],[22.0208,40.2043]]]}},{"type":"Feature","properties":{"landuse":"orchard"},"geometry":{"type":"Polygon","coordinates":[[[22.0259,40.2074],[22.0253,40.2087],[22.0247,40.2067],[22.0259,40.2074]]]}},{"type":"Feature","properties":{"landuse":"farmland"},"geometry":{"type":"Polygon","coordinates":[[[22.0224,40.2056],[22.0243,40.2083],[22.0217,40.2135],[22.0224,40.2056]]]}},{"type":"Feature","properties":{"landuse":"farmland"},"geometry":{"type":"Polygon","coordinates":[[[22.0195,40.2122],[22.0201,40.2095],[22.0225,40.208],[22.0195,40.2122]]]}},{"type":"Feature","properties":{"landuse":"farmland"},"geometry":{"type":"Polygon","coordinates":[[[22.0196,40.2129],[22.0214,40.2139],[22.016,40.2166],[22.0196,40.2129]]]}},{"type":"Feature","properties":{"landuse":"orchard"},"geometry":{"type":"Polygon","coordinates":[[[22.0211,40.2142],[22.02,40.2148],[22.0194,40.2133],[22.0211,40.2142]]]}},{"type":"Feature","properties":{"landuse":"farmland"},"geometry":{"type":"Polygon","coordinates":[[[22.0191,40.2128],[22.0143,40.2156],[22.0144,40.2133],[22.0191,40.2128]]]}},{"type":"Feature","properties":{"landuse":"farmland"},"geometry":{"type":"Polygon","coordinates":[[[22.0138,40.2158],[22.0113,40.2175],[22.0098,40.2164],[22.0138,40.2158]]]}},{"type":"Feature","properties":{"landuse":"orchard"},"geometry":{"type":"Polygon","coordinates":[[[22.0098,40.2164],[22.0113,40.2175],[22.0092,40.2182],[22.0098,40.2164]]]}},{"type":"Feature","properties":{"landuse":"farmland"},"geometry":{"type":"Polygon","coordinates":[[[22.0077,40.2173],[22.0097,40.2186],[22.0065,40.2239],[22.0029,40.2228],[22.0077,40.2173]]]}},{"type":"Feature","properties":{"landuse":"orchard"},"geometry":{"type":"Polygon","coordinates":[[[22.0055,40.2189],[22.0081,40.2191],[22.0077,40.2197],[22.0055,40.2189]]]}},{"type":"Feature","properties":{"landuse":"orchard"},"geometry":{"type":"Polygon","coordinates":[[[22.0127,40.2166],[22.0143,40.2157],[22.0144,40.2174],[22.0127,40.2166]]]}},{"type":"Feature","properties":{"landuse":"farmland"},"geometry":{"type":"Polygon","coordinates":[[[22.0119,40.2172],[22.0132,40.2182],[22.0116,40.2192],[22.0119,40.2172]]]}},{"type":"Feature","properties":{"landuse":"farmland"},"geometry":{"type":"Polygon","coordinates":[[[22.0111,40.2195],[22.009,40.2209],[22.0099,40.2186],[22.0111,40.2195]]]}},{"type":"Feature","properties":{"landuse":"farmland"},"geometry":{"type":"Polygon","coordinates":[[[22.0092,40.2214],[22.0067,40.2264],[22.0076,40.2208],[22.0092,40.2214]]]}},{"type":"Feature","properties":{"landuse":"farmland"},"geometry":{"type":"Polygon","coordinates":[[[22.0023,40.2226],[22.0015,40.2248],[21.9974,40.2277],[22.0023,40.2226]]]}},{"type":"Feature","properties":{"landuse":"orchard"},"geometry":{"type":"Polygon","coordinates":[[[22.0042,40.2256],[22.003,40.2268],[22.003,40.2249],[22.0042,40.2256]]]}},{"type":"Feature","properties":{"landuse":"farmland"},"geometry":{"type":"Polygon","coordinates":[[[21.9999,40.2295],[21.9981,40.2277],[22.0025,40.2231],[22.0047,40.2248],[21.9999,40.2295]]]}},{"type":"Feature","properties":{"landuse":"farmland"},"geometry":{"type":"Polygon","coordinates":[[[21.9998,40.2331],[21.9974,40.2329],[21.9994,40.2299],[22.0046,40.2253],[22.0067,40.2266],[22.0052,40.2333],[21.9998,40.2331]]]}},{"type":"Feature","properties":{"landuse":"farmland"},"geometry":{"type":"Polygon","coordinates":[[[22.0064,40.23],[22.0064,40.229],[22.0075,40.2288],[22.0064,40.23]]]}},{"type":"Feature","properties":{"landuse":"farmland"},"geometry":{"type":"Polygon","coordinates":[[[22.0101,40.227],[22.0145,40.2227],[22.0152,40.2237],[22.0101,40.227]]]}},{"type":"Feature","properties":{"landuse":"farmland"},"geometry":{"type":"Polygon","coordinates":[[[22.0162,40.2232],[22.017,40.2195],[22.0187,40.2293],[22.0109,40.229],[22.0162,40.2232]]]}},{"type":"Feature","properties":{"landuse":"orchard"},"geometry":{"type":"Polygon","coordinates":[[[22.0158,40.2237],[22.0166,40.2242],[22.0157,40.2249],[22.0158,40.2237]]]}},{"type":"Feature","properties":{"landuse":"farmland"},"geometry":{"type":"Polygon","coordinates":[[[22.051,40.2357],[22.0519,40.2361],[22.0512,40.2372],[22.051,40.2357]]]}},{"type":"Feature","properties":{"landuse":"farmland"},"geometry":{"type":"Polygon","coordinates":[[[22.0508,40.2385],[22.0504,40.2396],[22.0489,40.2395],[22.0508,40.2385]]]}},{"type":"Feature","properties":{"landuse":"farmland"},"geometry":{"type":"Polygon","coordinates":[[[22.0518,40.2392],[22.0537,40.2372],[22.0554,40.2393],[22.0518,40.2392]]]}},{"type":"Feature","properties":{"landuse":"orchard"},"geometry":{"type":"Polygon","coordinates":[[[22.0555,40.2388],[22.0575,40.2395],[22.0548,40.2401],[22.0555,40.2388]]]}},{"type":"Feature","properties":{"landuse":"orchard"},"geometry":{"type":"Polygon","coordinates":[[[22.0519,40.2404],[22.054,40.239],[22.0584,40.2411],[22.0519,40.2404]]]}},{"type":"Feature","properties":{"landuse":"orchard"},"geometry":{"type":"Polygon","coordinates":[[[22.0592,40.2398],[22.0579,40.2395],[22.0592,40.2387],[22.0592,40.2398]]]}},{"type":"Feature","properties":{"landuse":"orchard"},"geometry":{"type":"Polygon","coordinates":[[[22.0586,40.2407],[22.0609,40.2404],[22.0612,40.2414],[22.0586,40.2407]]]}},{"type":"Feature","properties":{"landuse":"orchard"},"geometry":{"type":"Polygon","coordinates":[[[22.0602,40.2432],[22.0598,40.2426],[22.0627,40.2419],[22.0602,40.2432]]]}},{"type":"Feature","properties":{"landuse":"orchard"},"geometry":{"type":"Polygon","coordinates":[[[22.0594,40.2445],[22.0617,40.244],[22.0612,40.2459],[22.0594,40.2445]]]}},{"type":"Feature","properties":{"landuse":"farmland"},"geometry":{"type":"Polygon","coordinates":[[[22.0627,40.2441],[22.0623,40.2448],[22.0611,40.2443],[22.0627,40.2441]]]}},{"type":"Feature","properties":{"landuse":"orchard"},"geometry":{"type":"Polygon","coordinates":[[[22.0667,40.2427],[22.0687,40.2397],[22.0706,40.2411],[22.0667,40.2427]]]}},{"type":"Feature","properties":{"landuse":"farmland"},"geometry":{"type":"Polygon","coordinates":[[[22.0645,40.2398],[22.0676,40.2392],[22.0658,40.2408],[22.0645,40.2398]]]}},{"type":"Feature","properties":{"landuse":"farmland"},"geometry":{"type":"Polygon","coordinates":[[[22.0609,40.2404],[22.0642,40.2406],[22.0624,40.2415],[22.0609,40.2404]]]}},{"type":"Feature","properties":{"landuse":"farmland"},"geometry":{"type":"Polygon","coordinates":[[[22.07,40.2515],[22.0745,40.2513],[22.0717,40.2525],[22.07,40.2515]]]}},{"type":"Feature","properties":{"landuse":"farmland"},"geometry":{"type":"Polygon","coordinates":[[[22.0712,40.2494],[22.0754,40.251],[22.0723,40.2508],[22.0712,40.2494]]]}},{"type":"Feature","properties":{"landuse":"farmland"},"geometry":{"type":"Polygon","coordinates":[[[22.0743,40.2464],[22.0769,40.2472],[22.0749,40.2475],[22.0743,40.2464]]]}},{"type":"Feature","properties":{"landuse":"orchard"},"geometry":{"type":"Polygon","coordinates":[[[22.0742,40.2466],[22.0758,40.2479],[22.0731,40.2479],[22.0742,40.2466]]]}},{"type":"Feature","properties":{"landuse":"farmland"},"geometry":{"type":"Polygon","coordinates":[[[22.0688,40.246],[22.0696,40.2487],[22.0666,40.2487],[22.0688,40.246]]]}},{"type":"Feature","properties":{"landuse":"orchard"},"geometry":{"type":"Polygon","coordinates":[[[22.068,40.2502],[22.0669,40.2493],[22.0689,40.2489],[22.068,40.2502]]]}},{"type":"Feature","properties":{"landuse":"farmland"},"geometry":{"type":"Polygon","coordinates":[[[22.0753,40.2504],[22.0739,40.2485],[22.0756,40.2489],[22.0753,40.2504]]]}},{"type":"Feature","properties":{"landuse":"orchard"},"geometry":{"type":"Polygon","coordinates":[[[22.0667,40.2492],[22.0627,40.2468],[22.0683,40.2441],[22.0667,40.2492]]]}},{"type":"Feature","properties":{"landuse":"farmland"},"geometry":{"type":"Polygon","coordinates":[[[22.0627,40.2487],[22.0626,40.2476],[22.0645,40.2478],[22.0627,40.2487]]]}},{"type":"Feature","properties":{"landuse":"farmland"},"geometry":{"type":"Polygon","coordinates":[[[22.0635,40.2463],[22.0654,40.2454],[22.0654,40.2471],[22.0635,40.2463]]]}},{"type":"Feature","properties":{"landuse":"orchard"},"geometry":{"type":"Polygon","coordinates":[[[22.0661,40.244],[22.0688,40.2431],[22.0667,40.2447],[22.0661,40.244]]]}},{"type":"Feature","properties":{"landuse":"farmland"},"geometry":{"type":"Polygon","coordinates":[[[22.0731,40.2419],[22.0744,40.2435],[22.072,40.2435],[22.0731,40.2419]]]}},{"type":"Feature","properties":{"landuse":"orchard"},"geometry":{"type":"Polygon","coordinates":[[[22.0708,40.2427],[22.0754,40.2445],[22.0708,40.2486],[22.0708,40.2427]]]}},{"type":"Feature","properties":{"landuse":"farmland"},"geometry":{"type":"Polygon","coordinates":[[[22.0714,40.2485],[22.0727,40.2459],[22.0739,40.2467],[22.0714,40.2485]]]}},{"type":"Feature","properties":{"landuse":"farmland"},"geometry":{"type":"Polygon","coordinates":[[[22.0675,40.2515],[22.0683,40.2505],[22.0697,40.2511],[22.0675,40.2515]]]}},{"type":"Feature","properties":{"landuse":"farmland"},"geometry":{"type":"Polygon","coordinates":[[[22.0606,40.2499],[22.0618,40.2502],[22.0596,40.2513],[22.0606,40.2499]]]}},{"type":"Feature","properties":{"landuse":"farmland"},"geometry":{"type":"Polygon","coordinates":[[[22.0638,40.2533],[22.0655,40.2518],[22.0657,40.2529],[22.0638,40.2533]]]}},{"type":"Feature","properties":{"landuse":"farmland"},"geometry":{"type":"Polygon","coordinates":[[[22.054,40.2546],[22.0562,40.2543],[22.0558,40.2554],[22.054,40.2546]]]}},{"type":"Feature","properties":{"landuse":"farmland"},"geometry":{"type":"Polygon","coordinates":[[[22.0578,40.2528],[22.0559,40.2526],[22.0575,40.2506],[22.0578,40.2528]]]}},{"type":"Feature","properties":{"landuse":"farmland"},"geometry":{"type":"Polygon","coordinates":[[[22.0504,40.2567],[22.0518,40.257],[22.0498,40.2585],[22.0504,40.2567]]]}},{"type":"Feature","properties":{"landuse":"orchard"},"geometry":{"type":"Polygon","coordinates":[[[22.0551,40.2566],[22.0479,40.2618],[22.0467,40.2605],[22.0551,40.2566]]]}},{"type":"Feature","properties":{"landuse":"vineyard"},"geometry":{"type":"Polygon","coordinates":[[[22.0486,40.2591],[22.0471,40.2594],[22.0474,40.2599],[22.0463,40.2595],[22.0486,40.2591]]]}},{"type":"Feature","properties":{"landuse":"farmland"},"geometry":{"type":"Polygon","coordinates":[[[22.0457,40.2588],[22.0479,40.2582],[22.0448,40.2599],[22.0457,40.2588]]]}},{"type":"Feature","properties":{"landuse":"farmland"},"geometry":{"type":"Polygon","coordinates":[[[22.0445,40.2604],[22.0476,40.2602],[22.0458,40.261],[22.0445,40.2604]]]}},{"type":"Feature","properties":{"landuse":"vineyard"},"geometry":{"type":"Polygon","coordinates":[[[22.0447,40.2612],[22.0469,40.2608],[22.0435,40.2621],[22.0447,40.2612]]]}},{"type":"Feature","properties":{"landuse":"vineyard"},"geometry":{"type":"Polygon","coordinates":[[[22.0436,40.2634],[22.0438,40.2627],[22.0463,40.2628],[22.0436,40.2634]]]}},{"type":"Feature","properties":{"landuse":"farmland"},"geometry":{"type":"Polygon","coordinates":[[[22.0502,40.2603],[22.0491,40.2594],[22.0514,40.2597],[22.0502,40.2603]]]}},{"type":"Feature","properties":{"landuse":"farmland"},"geometry":{"type":"Polygon","coordinates":[[[22.0503,40.2588],[22.0522,40.2577],[22.0517,40.2596],[22.0503,40.2588]]]}},{"type":"Feature","properties":{"landuse":"farmland"},"geometry":{"type":"Polygon","coordinates":[[[22.057,40.2576],[22.0584,40.257],[22.0591,40.2582],[22.057,40.2576]]]}},{"type":"Feature","properties":{"landuse":"orchard"},"geometry":{"type":"Polygon","coordinates":[[[22.0584,40.257],[22.0594,40.2567],[22.0601,40.2579],[22.0584,40.257]]]}},{"type":"Feature","properties":{"landuse":"orchard"},"geometry":{"type":"Polygon","coordinates":[[[22.0355,40.2439],[22.0356,40.2461],[22.0337,40.2449],[22.0355,40.2439]]]}},{"type":"Feature","properties":{"landuse":"orchard"},"geometry":{"type":"Polygon","coordinates":[[[22.0367,40.2447],[22.0376,40.2459],[22.0359,40.2463],[22.0367,40.2447]]]}},{"type":"Feature","properties":{"landuse":"farmland"},"geometry":{"type":"Polygon","coordinates":[[[22.0406,40.2473],[22.0414,40.2482],[22.0386,40.2466],[22.0406,40.2473]]]}},{"type":"Feature","properties":{"landuse":"farmland"},"geometry":{"type":"Polygon","coordinates":[[[22.0374,40.249],[22.0344,40.2475],[22.038,40.2468],[22.0374,40.249]]]}},{"type":"Feature","properties":{"landuse":"orchard"},"geometry":{"type":"Polygon","coordinates":[[[22.0341,40.2387],[22.0366,40.2392],[22.0354,40.2426],[22.0329,40.2412],[22.0352,40.2412],[22.0341,40.2387]]]}},{"type":"Feature","properties":{"landuse":"orchard"},"geometry":{"type":"Polygon","coordinates":[[[22.0629,40.2494],[22.0612,40.2479],[22.0624,40.2469],[22.0629,40.2494]]]}},{"type":"Feature","properties":{"landuse":"farmland"},"geometry":{"type":"Polygon","coordinates":[[[22.0603,40.2496],[22.0586,40.2493],[22.0609,40.2482],[22.0603,40.2496]]]}},{"type":"Feature","properties":{"landuse":"orchard"},"geometry":{"type":"Polygon","coordinates":[[[22.0589,40.2496],[22.0558,40.2491],[22.0604,40.2483],[22.0589,40.2496]]]}},{"type":"Feature","properties":{"landuse":"orchard"},"geometry":{"type":"Polygon","coordinates":[[[22.0625,40.2467],[22.0616,40.2463],[22.0622,40.2452],[22.0625,40.2467]]]}},{"type":"Feature","properties":{"landuse":"orchard"},"geometry":{"type":"Polygon","coordinates":[[[22.06,40.2434],[22.0617,40.2424],[22.0626,40.243],[22.06,40.2434]]]}},{"type":"Feature","properties":{"landuse":"orchard"},"geometry":{"type":"Polygon","coordinates":[[[22.0516,40.2424],[22.0529,40.2408],[22.0543,40.2416],[22.0516,40.2424]]]}},{"type":"Feature","properties":{"landuse":"farmland"},"geometry":{"type":"Polygon","coordinates":[[[22.0549,40.2414],[22.0542,40.2435],[22.0531,40.2416],[22.0549,40.2414]]]}},{"type":"Feature","properties":{"landuse":"farmland"},"geometry":{"type":"Polygon","coordinates":[[[22.0538,40.2446],[22.056,40.2454],[22.0534,40.2459],[22.0538,40.2446]]]}},{"type":"Feature","properties":{"landuse":"farmland"},"geometry":{"type":"Polygon","coordinates":[[[22.0471,40.2485],[22.0471,40.2471],[22.0489,40.2475],[22.0471,40.2485]]]}},{"type":"Feature","properties":{"landuse":"farmland"},"geometry":{"type":"Polygon","coordinates":[[[22.0525,40.25],[22.0529,40.2486],[22.0543,40.2494],[22.0525,40.25]]]}},{"type":"Feature","properties":{"landuse":"orchard"},"geometry":{"type":"Polygon","coordinates":[[[22.0503,40.2425],[22.0479,40.2421],[22.0508,40.2401],[22.0503,40.2425]]]}},{"type":"Feature","properties":{"landuse":"orchard"},"geometry":{"type":"Polygon","coordinates":[[[22.0466,40.2418],[22.0473,40.2402],[22.0486,40.2412],[22.0466,40.2418]]]}},{"type":"Feature","properties":{"landuse":"orchard"},"geometry":{"type":"Polygon","coordinates":[[[22.0456,40.2413],[22.0445,40.2411],[22.0481,40.2393],[22.0456,40.2413]]]}},{"type":"Feature","properties":{"landuse":"orchard"},"geometry":{"type":"Polygon","coordinates":[[[22.0415,40.2334],[22.0419,40.2347],[22.0406,40.2356],[22.0415,40.2334]]]}},{"type":"Feature","properties":{"landuse":"farmland"},"geometry":{"type":"Polygon","coordinates":[[[22.0423,40.2362],[22.0416,40.2347],[22.0434,40.2352],[22.0423,40.2362]]]}},{"type":"Feature","properties":{"landuse":"farmland"},"geometry":{"type":"Polygon","coordinates":[[[22.0436,40.2351],[22.0463,40.2337],[22.0446,40.2353],[22.0436,40.2351]]]}},{"type":"Feature","properties":{"landuse":"farmland"},"geometry":{"type":"Polygon","coordinates":[[[22.0457,40.2382],[22.0489,40.2377],[22.0482,40.2393],[22.0457,40.2382]]]}},{"type":"Feature","properties":{"landuse":"orchard"},"geometry":{"type":"Polygon","coordinates":[[[22.0426,40.2372],[22.0467,40.2387],[22.0422,40.24],[22.0426,40.2372]]]}},{"type":"Feature","properties":{"landuse":"farmland"},"geometry":{"type":"Polygon","coordinates":[[[22.0448,40.2407],[22.0417,40.2407],[22.0444,40.2401],[22.0448,40.2407]]]}},{"type":"Feature","properties":{"landuse":"farmland"},"geometry":{"type":"Polygon","coordinates":[[[22.0355,40.238],[22.0368,40.2375],[22.0387,40.239],[22.0355,40.238]]]}},{"type":"Feature","properties":{"landuse":"orchard"},"geometry":{"type":"Polygon","coordinates":[[[22.0368,40.2375],[22.0389,40.2366],[22.0392,40.2383],[22.0368,40.2375]]]}},{"type":"Feature","properties":{"landuse":"orchard"},"geometry":{"type":"Polygon","coordinates":[[[22.0426,40.2373],[22.0421,40.2388],[22.0401,40.2374],[22.0426,40.2373]]]}},{"type":"Feature","properties":{"landuse":"farmland"},"geometry":{"type":"Polygon","coordinates":[[[22.0416,40.2393],[22.0404,40.2399],[22.0396,40.2386],[22.0416,40.2393]]]}},{"type":"Feature","properties":{"landuse":"farmland"},"geometry":{"type":"Polygon","coordinates":[[[22.0364,40.2417],[22.038,40.2419],[22.0371,40.2426],[22.0364,40.2417]]]}},{"type":"Feature","properties":{"landuse":"farmland"},"geometry":{"type":"Polygon","coordinates":[[[22.0271,40.2384],[22.027,40.2365],[22.028,40.2376],[22.0271,40.2384]]]}},{"type":"Feature","properties":{"landuse":"orchard"},"geometry":{"type":"Polygon","coordinates":[[[22.0268,40.2377],[22.0274,40.2382],[22.0257,40.2397],[22.0268,40.2377]]]}},{"type":"Feature","properties":{"landuse":"orchard"},"geometry":{"type":"Polygon","coordinates":[[[22.0268,40.2381],[22.0252,40.2371],[22.0271,40.2373],[22.0268,40.2381]]]}},{"type":"Feature","properties":{"landuse":"orchard"},"geometry":{"type":"Polygon","coordinates":[[[22.0286,40.2369],[22.028,40.2365],[22.03,40.2346],[22.0286,40.2369]]]}},{"type":"Feature","properties":{"landuse":"farmland"},"geometry":{"type":"Polygon","coordinates":[[[22.0262,40.2394],[22.0216,40.2372],[22.0227,40.2352],[22.0262,40.2394]]]}},{"type":"Feature","properties":{"landuse":"farmland"},"geometry":{"type":"Polygon","coordinates":[[[22.0515,40.2674],[22.0527,40.2658],[22.0535,40.2668],[22.0515,40.2674]]]}},{"type":"Feature","properties":{"landuse":"farmland"},"geometry":{"type":"Polygon","coordinates":[[[22.0539,40.2666],[22.0513,40.2661],[22.0594,40.2631],[22.0539,40.2666]]]}},{"type":"Feature","properties":{"landuse":"orchard"},"geometry":{"type":"Polygon","coordinates":[[[22.0565,40.2631],[22.0603,40.2628],[22.0575,40.2639],[22.0565,40.2631]]]}},{"type":"Feature","properties":{"landuse":"farmland"},"geometry":{"type":"Polygon","coordinates":[[[22.063,40.2636],[22.0613,40.2643],[22.0624,40.2627],[22.063,40.2636]]]}},{"type":"Feature","properties":{"landuse":"farmland"},"geometry":{"type":"Polygon","coordinates":[[[22.0591,40.2588],[22.0608,40.2578],[22.0615,40.2588],[22.0591,40.2588]]]}},{"type":"Feature","properties":{"landuse":"farmland"},"geometry":{"type":"Polygon","coordinates":[[[22.0618,40.2587],[22.0651,40.2572],[22.0639,40.2588],[22.0618,40.2587]]]}},{"type":"Feature","properties":{"landuse":"orchard"},"geometry":{"type":"Polygon","coordinates":[[[22.0628,40.2616],[22.0642,40.2599],[22.0644,40.2615],[22.0628,40.2616]]]}},{"type":"Feature","properties":{"landuse":"orchard"},"geometry":{"type":"Polygon","coordinates":[[[22.0626,40.2606],[22.0617,40.2617],[22.0601,40.2614],[22.0626,40.2606]]]}},{"type":"Feature","properties":{"landuse":"orchard"},"geometry":{"type":"Polygon","coordinates":[[[22.06,40.2619],[22.0627,40.2624],[22.0606,40.2631],[22.06,40.2619]]]}},{"type":"Feature","properties":{"landuse":"farmland"},"geometry":{"type":"Polygon","coordinates":[[[22.0647,40.2588],[22.0671,40.2579],[22.0668,40.2596],[22.0647,40.2588]]]}},{"type":"Feature","properties":{"landuse":"orchard"},"geometry":{"type":"Polygon","coordinates":[[[22.0653,40.2595],[22.0662,40.2616],[22.0645,40.2602],[22.0653,40.2595]]]}},{"type":"Feature","properties":{"landuse":"farmland"},"geometry":{"type":"Polygon","coordinates":[[[22.0671,40.261],[22.0665,40.2618],[22.0657,40.2606],[22.0671,40.261]]]}},{"type":"Feature","properties":{"landuse":"farmland"},"geometry":{"type":"Polygon","coordinates":[[[22.0637,40.2637],[22.0633,40.2631],[22.0663,40.2625],[22.0637,40.2637]]]}},{"type":"Feature","properties":{"landuse":"orchard"},"geometry":{"type":"Polygon","coordinates":[[[22.0588,40.2605],[22.0598,40.2593],[22.06,40.2608],[22.0588,40.2605]]]}},{"type":"Feature","properties":{"landuse":"farmland"},"geometry":{"type":"Polygon","coordinates":[[[22.06,40.2608],[22.0602,40.2597],[22.0642,40.2599],[22.06,40.2608]]]}},{"type":"Feature","properties":{"landuse":"orchard"},"geometry":{"type":"Polygon","coordinates":[[[22.0549,40.2571],[22.0563,40.2589],[22.0534,40.2584],[22.0549,40.2571]]]}},{"type":"Feature","properties":{"landuse":"farmland"},"geometry":{"type":"Polygon","coordinates":[[[22.0578,40.259],[22.0561,40.2603],[22.0552,40.2597],[22.0578,40.259]]]}},{"type":"Feature","properties":{"landuse":"orchard"},"geometry":{"type":"Polygon","coordinates":[[[22.0547,40.26],[22.0526,40.2605],[22.0532,40.2595],[22.0547,40.26]]]}},{"type":"Feature","properties":{"landuse":"farmland"},"geometry":{"type":"Polygon","coordinates":[[[22.0529,40.2589],[22.0527,40.2608],[22.0498,40.2619],[22.0529,40.2589]]]}},{"type":"Feature","properties":{"landuse":"vineyard"},"geometry":{"type":"Polygon","coordinates":[[[22.0491,40.2657],[22.0484,40.2632],[22.0527,40.2634],[22.0491,40.2657]]]}},{"type":"Feature","properties":{"landuse":"farmland"},"geometry":{"type":"Polygon","coordinates":[[[22.0501,40.2624],[22.0538,40.2618],[22.0504,40.2631],[22.0501,40.2624]]]}},{"type":"Feature","properties":{"landuse":"orchard"},"geometry":{"type":"Polygon","coordinates":[[[22.0512,40.2628],[22.0582,40.26],[22.0597,40.262],[22.0512,40.2628]]]}},{"type":"Feature","properties":{"landuse":"farmland"},"geometry":{"type":"Polygon","coordinates":[[[22.0478,40.2634],[22.0488,40.2652],[22.047,40.2656],[22.0478,40.2634]]]}},{"type":"Feature","properties":{"landuse":"farmland"},"geometry":{"type":"Polygon","coordinates":[[[22.0473,40.266],[22.049,40.2657],[22.0501,40.2672],[22.0473,40.266]]]}},{"type":"Feature","properties":{"landuse":"farmland"},"geometry":{"type":"Polygon","coordinates":[[[21.981,40.216],[21.9804,40.2144],[21.9823,40.2139],[21.981,40.216]]]}},{"type":"Feature","properties":{"landuse":"orchard"},"geometry":{"type":"Polygon","coordinates":[[[21.9827,40.2096],[21.9822,40.2108],[21.9815,40.2094],[21.9827,40.2096]]]}},{"type":"Feature","properties":{"landuse":"farmland"},"geometry":{"type":"Polygon","coordinates":[[[21.9774,40.2228],[21.9784,40.2224],[21.9777,40.2254],[21.9774,40.2228]]]}},{"type":"Feature","properties":{"landuse":"farmland"},"geometry":{"type":"Polygon","coordinates":[[[21.9957,40.1889],[21.9966,40.1889],[21.9952,40.1916],[21.9957,40.1889]]]}},{"type":"Feature","properties":{"landuse":"farmland"},"geometry":{"type":"Polygon","coordinates":[[[21.8017,40.2917],[21.8086,40.2897],[21.805,40.2947],[21.8017,40.2917]]]}},{"type":"Feature","properties":{"landuse":"farmland"},"geometry":{"type":"Polygon","coordinates":[[[21.7901,40.2883],[21.7902,40.2842],[21.7926,40.2896],[21.7901,40.2883]]]}},{"type":"Feature","properties":{"landuse":"farmland"},"geometry":{"type":"Polygon","coordinates":[[[21.8708,40.2919],[21.8694,40.2904],[21.8708,40.2904],[21.8708,40.2919]]]}},{"type":"Feature","properties":{"landuse":"orchard"},"geometry":{"type":"Polygon","coordinates":[[[21.8646,40.2849],[21.8663,40.2841],[21.8662,40.2852],[21.8646,40.2849]]]}},{"type":"Feature","properties":{"landuse":"farmland"},"geometry":{"type":"Polygon","coordinates":[[[21.8667,40.2857],[21.8668,40.2833],[21.8677,40.2842],[21.8667,40.2857]]]}},{"type":"Feature","properties":{"landuse":"farmland"},"geometry":{"type":"Polygon","coordinates":[[[21.8692,40.2838],[21.8703,40.2859],[21.8662,40.2874],[21.8692,40.2838]]]}},{"type":"Feature","properties":{"landuse":"farmland"},"geometry":{"type":"Polygon","coordinates":[[[21.8764,40.2816],[21.8747,40.2826],[21.8749,40.2807],[21.8764,40.2816]]]}},{"type":"Feature","properties":{"landuse":"farmland"},"geometry":{"type":"Polygon","coordinates":[[[21.8705,40.2839],[21.8702,40.2814],[21.871,40.2798],[21.8715,40.28],[21.8705,40.2839]]]}},{"type":"Feature","properties":{"landuse":"farmland"},"geometry":{"type":"Polygon","coordinates":[[[21.8706,40.2832],[21.8726,40.2786],[21.8736,40.283],[21.8706,40.2832]]]}},{"type":"Feature","properties":{"landuse":"farmland"},"geometry":{"type":"Polygon","coordinates":[[[21.8731,40.2839],[21.8709,40.2852],[21.8707,40.2838],[21.8731,40.2839]]]}},{"type":"Feature","properties":{"landuse":"farmland"},"geometry":{"type":"Polygon","coordinates":[[[21.8702,40.2921],[21.8707,40.2933],[21.8684,40.2943],[21.8702,40.2921]]]}},{"type":"Feature","properties":{"landuse":"farmland"},"geometry":{"type":"Polygon","coordinates":[[[21.8672,40.2942],[21.8657,40.2939],[21.8672,40.2928],[21.8672,40.2942]]]}},{"type":"Feature","properties":{"landuse":"farmland"},"geometry":{"type":"Polygon","coordinates":[[[21.8659,40.294],[21.864,40.2949],[21.8641,40.2938],[21.8659,40.294]]]}},{"type":"Feature","properties":{"landuse":"farmland"},"geometry":{"type":"Polygon","coordinates":[[[21.8617,40.2933],[21.8617,40.2947],[21.8605,40.2931],[21.8617,40.2933]]]}},{"type":"Feature","properties":{"landuse":"farmland"},"geometry":{"type":"Polygon","coordinates":[[[21.8568,40.2998],[21.8569,40.2982],[21.8584,40.2974],[21.8568,40.2998]]]}},{"type":"Feature","properties":{"landuse":"farmland"},"geometry":{"type":"Polygon","coordinates":[[[21.8727,40.2864],[21.8739,40.2842],[21.8814,40.2853],[21.8727,40.2864]]]}},{"type":"Feature","properties":{"landuse":"farmland"},"geometry":{"type":"Polygon","coordinates":[[[21.8751,40.2854],[21.8777,40.2849],[21.8746,40.2865],[21.8751,40.2854]]]}},{"type":"Feature","properties":{"landuse":"farmland"},"geometry":{"type":"Polygon","coordinates":[[[21.6619,40.7273],[21.661,40.7308],[21.6598,40.7295],[21.6619,40.7273]]]}},{"type":"Feature","properties":{"landuse":"farmland"},"geometry":{"type":"Polygon","coordinates":[[[21.664,40.7307],[21.6631,40.7313],[21.6617,40.7304],[21.664,40.7307]]]}},{"type":"Feature","properties":{"landuse":"farmland"},"geometry":{"type":"Polygon","coordinates":[[[21.3999,40.3412],[21.4009,40.3378],[21.4049,40.3384],[21.3999,40.3412]]]}},{"type":"Feature","properties":{"landuse":"farmland"},"geometry":{"type":"Polygon","coordinates":[[[21.3851,40.3307],[21.388,40.3299],[21.3871,40.3311],[21.3851,40.3307]]]}},{"type":"Feature","properties":{"landuse":"farmland"},"geometry":{"type":"Polygon","coordinates":[[[21.3885,40.3314],[21.389,40.3292],[21.3918,40.3287],[21.3885,40.3314]]]}},{"type":"Feature","properties":{"landuse":"farmland"},"geometry":{"type":"Polygon","coordinates":[[[21.3956,40.3403],[21.3947,40.3362],[21.398,40.3396],[21.3956,40.3403]]]}},{"type":"Feature","properties":{"landuse":"farmland"},"geometry":{"type":"Polygon","coordinates":[[[21.3977,40.3373],[21.3954,40.3353],[21.4011,40.3343],[21.3977,40.3373]]]}}]}