{"type":"FeatureCollection","features":[{"type":"Feature","properties":{"landuse":"farmland"},"geometry":{"type":"MultiPolygon","coordinates":[[[[25.2768,36.73],[25.2778,36.7296],[25.2776,36.7301],[25.2768,36.73]]],[[[25.2774,36.729],[25.2776,36.7289],[25.2778,36.7295],[25.2774,36.729]]],[[[25.2767,36.7283],[25.2766,36.7295],[25.2751,36.7291],[25.2767,36.7283]]],[[[25.2751,36.7284],[25.2763,36.7281],[25.2749,36.7288],[25.2751,36.7284]]]]}},{"type":"Feature","properties":{"landuse":"orchard"},"geometry":{"type":"Polygon","coordinates":[[[27.0214,36.9679],[27.0213,36.9657],[27.0228,36.965],[27.0214,36.9679]]]}},{"type":"Feature","properties":{"landuse":"orchard"},"geometry":{"type":"Polygon","coordinates":[[[27.0046,36.9776],[27.0042,36.9768],[27.0065,36.9759],[27.0046,36.9776]]]}},{"type":"Feature","properties":{"landuse":"green_public_spaces"},"geometry":{"type":"Polygon","coordinates":[[[26.9845,36.9432],[26.9587,36.9608],[26.95,36.956],[26.949,36.9461],[26.9578,36.9405],[26.9709,36.9398],[26.9845,36.9432]]]}},{"type":"Feature","properties":{"landuse":"green_public_spaces"},"geometry":{"type":"Polygon","coordinates":[[[25.3722,37.0869],[25.3738,37.0918],[25.3551,37.0819],[25.3603,37.0758],[25.368,37.0775],[25.3722,37.0869]]]}},{"type":"Feature","properties":{"landuse":"green_public_spaces"},"geometry":{"type":"Polygon","coordinates":[[[27.1855,36.8722],[27.1532,36.8628],[27.1604,36.854],[27.1748,36.8449],[27.1872,36.8446],[27.1959,36.8487],[27.194,36.8588],[27.1855,36.8722]]]}},{"type":"Feature","properties":{"landuse":"green_public_spaces"},"geometry":{"type":"Polygon","coordinates":[[[24.4959,37.1661],[24.4854,37.1661],[24.484,37.1638],[24.505,37.1561],[24.5045,37.1519],[24.5111,37.1498],[24.5079,37.1483],[24.5096,37.1454],[24.5162,37.1459],[24.5146,37.1549],[24.5097,37.1601],[24.4959,37.1661]]]}},{"type":"Feature","properties":{"landuse":"green_public_spaces"},"geometry":{"type":"Polygon","coordinates":[[[24.9564,37.8923],[24.9213,37.876],[24.9233,37.8669],[24.9171,37.8601],[24.9388,37.853],[24.9398,37.8568],[24.9494,37.8596],[24.9485,37.8666],[24.9568,37.8715],[24.9528,37.878],[24.9578,37.8811],[24.9564,37.8923]]]}},{"type":"Feature","properties":{"landuse":"green_public_spaces"},"geometry":{"type":"Polygon","coordinates":[[[28.1161,36.4159],[28.1155,36.419],[28.0678,36.4038],[28.057,36.3994],[28.0571,36.3961],[28.0635,36.3931],[28.0662,36.3955],[28.063,36.3986],[28.0698,36.4026],[28.1123,36.4158],[28.1158,36.41],[28.1161,36.4159]]]}},{"type":"Feature","properties":{"landuse":"green_public_spaces"},"geometry":{"type":"Polygon","coordinates":[[[26.8163,37.1784],[26.8177,37.18],[26.8106,37.181],[26.8098,37.1877],[26.8055,37.1874],[26.8028,37.1858],[26.8059,37.1781],[26.8035,37.1787],[26.8002,37.1698],[26.8029,37.1731],[26.8144,37.1681],[26.8105,37.1725],[26.8163,37.1784]]]}},{"type":"Feature","properties":{"landuse":"farmland"},"geometry":{"type":"Polygon","coordinates":[[[24.4753,36.7047],[24.4741,36.7043],[24.4787,36.704],[24.4753,36.7047]]]}},{"type":"Feature","properties":{"landuse":"farmland"},"geometry":{"type":"Polygon","coordinates":[[[24.4792,36.7025],[24.4792,36.7038],[24.4777,36.7034],[24.4792,36.7025]]]}},{"type":"Feature","properties":{"landuse":"farmland"},"geometry":{"type":"Polygon","coordinates":[[[24.477,36.7026],[24.4772,36.7014],[24.4779,36.7024],[24.477,36.7026]]]}},{"type":"Feature","properties":{"landuse":"farmland"},"geometry":{"type":"Polygon","coordinates":[[[24.482,36.7006],[24.4789,36.7019],[24.4796,36.7006],[24.482,36.7006]]]}},{"type":"Feature","properties":{"landuse":"farmland"},"geometry":{"type":"Polygon","coordinates":[[[24.4835,36.6985],[24.4892,36.6999],[24.4851,36.7007],[24.4835,36.6985]]]}},{"type":"Feature","properties":{"landuse":"green_public_spaces"},"geometry":{"type":"Polygon","coordinates":[[[28.1407,36.3991],[28.143,36.3987],[28.1427,36.4003],[28.1407,36.3991]]]}},{"type":"Feature","properties":{"landuse":"farmland"},"geometry":{"type":"Polygon","coordinates":[[[24.4619,36.7182],[24.4625,36.7173],[24.463,36.7187],[24.4619,36.7182]]]}},{"type":"Feature","properties":{"landuse":"farmland"},"geometry":{"type":"Polygon","coordinates":[[[26.9398,36.9567],[26.9405,36.956],[26.9422,36.9576],[26.9398,36.9567]]]}},{"type":"Feature","properties":{"landuse":"farmland"},"geometry":{"type":"Polygon","coordinates":[[[26.9445,36.9591],[26.9429,36.9586],[26.9437,36.9577],[26.9445,36.9591]]]}},{"type":"Feature","properties":{"landuse":"farmland"},"geometry":{"type":"Polygon","coordinates":[[[26.9288,36.9477],[26.93,36.948],[26.9263,36.9491],[26.9288,36.9477]]]}},{"type":"Feature","properties":{"landuse":"farmland"},"geometry":{"type":"Polygon","coordinates":[[[26.9449,36.9597],[26.9451,36.9586],[26.946,36.9593],[26.9449,36.9597]]]}},{"type":"Feature","properties":{"landuse":"farmland"},"geometry":{"type":"Polygon","coordinates":[[[24.4731,36.6712],[24.4745,36.6705],[24.4743,36.6716],[24.4731,36.6712]]]}},{"type":"Feature","properties":{"landuse":"farmland"},"geometry":{"type":"Polygon","coordinates":[[[24.4772,36.6727],[24.4787,36.672],[24.4791,36.6736],[24.4772,36.6727]]]}},{"type":"Feature","properties":{"landuse":"farmland"},"geometry":{"type":"Polygon","coordinates":[[[24.4665,36.6922],[24.4695,36.6956],[24.4662,36.6955],[24.4665,36.6922]]]}},{"type":"Feature","properties":{"landuse":"farmland"},"geometry":{"type":"Polygon","coordinates":[[[28.2225,36.407],[28.2252,36.4046],[28.2253,36.4073],[28.2225,36.407]]]}},{"type":"Feature","properties":{"landuse":"farmland"},"geometry":{"type":"Polygon","coordinates":[[[28.2155,36.4059],[28.2203,36.4047],[28.2207,36.4063],[28.2155,36.4059]]]}},{"type":"Feature","properties":{"landuse":"farmland"},"geometry":{"type":"Polygon","coordinates":[[[28.2223,36.4046],[28.2215,36.4015],[28.2246,36.4011],[28.2253,36.4044],[28.2223,36.4046]]]}},{"type":"Feature","properties":{"landuse":"farmland"},"geometry":{"type":"Polygon","coordinates":[[[28.2183,36.3997],[28.2186,36.3973],[28.2198,36.3995],[28.2183,36.3997]]]}},{"type":"Feature","properties":{"landuse":"farmland"},"geometry":{"type":"Polygon","coordinates":[[[28.2144,36.4029],[28.2175,36.4007],[28.2208,36.4017],[28.2144,36.4029]]]}},{"type":"Feature","properties":{"landuse":"farmland"},"geometry":{"type":"Polygon","coordinates":[[[28.2153,36.4043],[28.2193,36.4025],[28.2195,36.4031],[28.2153,36.4043]]]}},{"type":"Feature","properties":{"landuse":"farmland"},"geometry":{"type":"Polygon","coordinates":[[[28.2127,36.3978],[28.2114,36.3954],[28.2147,36.3961],[28.2127,36.3978]]]}},{"type":"Feature","properties":{"landuse":"farmland"},"geometry":{"type":"Polygon","coordinates":[[[28.2211,36.4007],[28.2211,36.3993],[28.2227,36.3995],[28.2211,36.4007]]]}},{"type":"Feature","properties":{"landuse":"farmland"},"geometry":{"type":"Polygon","coordinates":[[[28.2174,36.3987],[28.2146,36.3958],[28.2186,36.3971],[28.2174,36.3987]]]}},{"type":"Feature","properties":{"landuse":"orchard"},"geometry":{"type":"Polygon","coordinates":[[[28.0946,36.4028],[28.1012,36.4057],[28.0982,36.4061],[28.0946,36.4028]]]}},{"type":"Feature","properties":{"landuse":"orchard"},"geometry":{"type":"Polygon","coordinates":[[[28.1006,36.407],[28.1039,36.4046],[28.1022,36.4076],[28.1006,36.407]]]}},{"type":"Feature","properties":{"landuse":"orchard"},"geometry":{"type":"Polygon","coordinates":[[[28.1042,36.4073],[28.104,36.4063],[28.106,36.4069],[28.1042,36.4073]]]}},{"type":"Feature","properties":{"landuse":"orchard"},"geometry":{"type":"Polygon","coordinates":[[[28.0927,36.4015],[28.0891,36.4006],[28.0897,36.3999],[28.0927,36.4015]]]}},{"type":"Feature","properties":{"landuse":"orchard"},"geometry":{"type":"Polygon","coordinates":[[[28.1075,36.4043],[28.1085,36.4018],[28.1093,36.4028],[28.1075,36.4043]]]}},{"type":"Feature","properties":{"landuse":"orchard"},"geometry":{"type":"Polygon","coordinates":[[[28.1095,36.4025],[28.1122,36.4049],[28.1087,36.407],[28.1095,36.4025]]]}},{"type":"Feature","properties":{"landuse":"farmland"},"geometry":{"type":"Polygon","coordinates":[[[28.112,36.4065],[28.1113,36.4056],[28.1126,36.4056],[28.112,36.4065]]]}},{"type":"Feature","properties":{"landuse":"orchard"},"geometry":{"type":"Polygon","coordinates":[[[28.1128,36.404],[28.1106,36.403],[28.1131,36.4029],[28.1128,36.404]]]}},{"type":"Feature","properties":{"landuse":"farmland"},"geometry":{"type":"Polygon","coordinates":[[[28.1053,36.4105],[28.1065,36.4091],[28.1073,36.411],[28.1053,36.4105]]]}},{"type":"Feature","properties":{"landuse":"farmland"},"geometry":{"type":"Polygon","coordinates":[[[28.106,36.4137],[28.1097,36.4123],[28.1081,36.414],[28.106,36.4137]]]}},{"type":"Feature","properties":{"landuse":"farmland"},"geometry":{"type":"Polygon","coordinates":[[[28.1046,36.413],[28.1047,36.4114],[28.1077,36.4123],[28.1046,36.413]]]}},{"type":"Feature","properties":{"landuse":"farmland"},"geometry":{"type":"Polygon","coordinates":[[[28.0967,36.4108],[28.095,36.4102],[28.0969,36.4101],[28.0967,36.4108]]]}},{"type":"Feature","properties":{"landuse":"farmland"},"geometry":{"type":"Polygon","coordinates":[[[28.0935,36.4098],[28.092,36.4093],[28.0935,36.4091],[28.0935,36.4098]]]}},{"type":"Feature","properties":{"landuse":"farmland"},"geometry":{"type":"Polygon","coordinates":[[[28.109,36.4111],[28.1094,36.4098],[28.1107,36.4103],[28.109,36.4111]]]}},{"type":"Feature","properties":{"landuse":"farmland"},"geometry":{"type":"Polygon","coordinates":[[[28.1074,36.4111],[28.1082,36.4092],[28.1087,36.4111],[28.1074,36.4111]]]}},{"type":"Feature","properties":{"landuse":"farmland"},"geometry":{"type":"Polygon","coordinates":[[[28.1352,36.4197],[28.1389,36.4183],[28.1375,36.4208],[28.1352,36.4197]]]}},{"type":"Feature","properties":{"landuse":"farmland"},"geometry":{"type":"Polygon","coordinates":[[[28.1384,36.4207],[28.1392,36.4177],[28.1408,36.4204],[28.1384,36.4207]]]}},{"type":"Feature","properties":{"landuse":"farmland"},"geometry":{"type":"Polygon","coordinates":[[[28.1416,36.4202],[28.1434,36.4195],[28.1425,36.4216],[28.1416,36.4202]]]}},{"type":"Feature","properties":{"landuse":"farmland"},"geometry":{"type":"Polygon","coordinates":[[[28.1257,36.4175],[28.1264,36.4153],[28.1277,36.4171],[28.1257,36.4175]]]}},{"type":"Feature","properties":{"landuse":"farmland"},"geometry":{"type":"Polygon","coordinates":[[[28.1251,36.4174],[28.1243,36.4164],[28.1252,36.4152],[28.1251,36.4174]]]}},{"type":"Feature","properties":{"landuse":"farmland"},"geometry":{"type":"Polygon","coordinates":[[[28.1206,36.4179],[28.122,36.4166],[28.1218,36.4182],[28.1206,36.4179]]]}},{"type":"Feature","properties":{"landuse":"farmland"},"geometry":{"type":"Polygon","coordinates":[[[28.1226,36.419],[28.1224,36.4175],[28.1237,36.4189],[28.1226,36.419]]]}},{"type":"Feature","properties":{"landuse":"orchard"},"geometry":{"type":"Polygon","coordinates":[[[28.1408,36.4148],[28.1414,36.4137],[28.143,36.4153],[28.1408,36.4148]]]}},{"type":"Feature","properties":{"landuse":"farmland"},"geometry":{"type":"Polygon","coordinates":[[[25.4393,36.4202],[25.4465,36.418],[25.443,36.4221],[25.4369,36.4223],[25.4393,36.4202]]]}},{"type":"Feature","properties":{"landuse":"farmland"},"geometry":{"type":"Polygon","coordinates":[[[25.4379,36.4118],[25.44,36.4112],[25.4409,36.4125],[25.4379,36.4118]]]}},{"type":"Feature","properties":{"landuse":"farmland"},"geometry":{"type":"Polygon","coordinates":[[[25.438,36.4143],[25.4376,36.4137],[25.4396,36.4137],[25.438,36.4143]]]}},{"type":"Feature","properties":{"landuse":"farmland"},"geometry":{"type":"Polygon","coordinates":[[[25.437,36.4148],[25.4383,36.4147],[25.4369,36.4164],[25.437,36.4148]]]}},{"type":"Feature","properties":{"landuse":"farmland"},"geometry":{"type":"Polygon","coordinates":[[[25.4343,36.4166],[25.4346,36.4156],[25.4351,36.4168],[25.4343,36.4166]]]}},{"type":"Feature","properties":{"landuse":"farmland"},"geometry":{"type":"Polygon","coordinates":[[[25.4371,36.4212],[25.4352,36.4218],[25.4382,36.4203],[25.4371,36.4212]]]}},{"type":"Feature","properties":{"landuse":"orchard"},"geometry":{"type":"Polygon","coordinates":[[[24.9342,37.8302],[24.9367,37.8299],[24.9355,37.8312],[24.9342,37.8302]]]}},{"type":"Feature","properties":{"landuse":"orchard"},"geometry":{"type":"Polygon","coordinates":[[[28.2267,36.3942],[28.2279,36.3935],[28.2286,36.3945],[28.2267,36.3942]]]}},{"type":"Feature","properties":{"landuse":"farmland"},"geometry":{"type":"Polygon","coordinates":[[[25.3942,37.4479],[25.3946,37.4464],[25.3953,37.4479],[25.3942,37.4479]]]}},{"type":"Feature","properties":{"landuse":"farmland"},"geometry":{"type":"Polygon","coordinates":[[[25.3901,37.4474],[25.3888,37.4464],[25.3904,37.4455],[25.3901,37.4474]]]}},{"type":"Feature","properties":{"landuse":"farmland"},"geometry":{"type":"Polygon","coordinates":[[[25.4223,37.4558],[25.4214,37.4547],[25.4231,37.4547],[25.4223,37.4558]]]}},{"type":"Feature","properties":{"landuse":"farmland"},"geometry":{"type":"Polygon","coordinates":[[[25.4272,37.4557],[25.4259,37.4572],[25.4261,37.4555],[25.4272,37.4557]]]}},{"type":"Feature","properties":{"landuse":"farmland"},"geometry":{"type":"Polygon","coordinates":[[[25.4232,37.4573],[25.425,37.4575],[25.4241,37.4587],[25.4232,37.4573]]]}},{"type":"Feature","properties":{"landuse":"farmland"},"geometry":{"type":"Polygon","coordinates":[[[25.4208,37.4597],[25.4212,37.4587],[25.4223,37.4588],[25.4208,37.4597]]]}},{"type":"Feature","properties":{"landuse":"farmland"},"geometry":{"type":"Polygon","coordinates":[[[25.4168,37.4525],[25.4176,37.4526],[25.417,37.4537],[25.4168,37.4525]]]}},{"type":"Feature","properties":{"landuse":"farmland"},"geometry":{"type":"Polygon","coordinates":[[[25.417,37.4537],[25.4178,37.4527],[25.419,37.4538],[25.417,37.4537]]]}},{"type":"Feature","properties":{"landuse":"farmland"},"geometry":{"type":"Polygon","coordinates":[[[25.4138,37.4375],[25.4144,37.4363],[25.4155,37.4373],[25.4138,37.4375]]]}},{"type":"Feature","properties":{"landuse":"farmland"},"geometry":{"type":"Polygon","coordinates":[[[25.4153,37.4384],[25.4152,37.4377],[25.4169,37.4382],[25.4153,37.4384]]]}},{"type":"Feature","properties":{"landuse":"farmland"},"geometry":{"type":"Polygon","coordinates":[[[25.4158,37.4374],[25.4146,37.4364],[25.4165,37.4363],[25.4158,37.4374]]]}},{"type":"Feature","properties":{"landuse":"farmland"},"geometry":{"type":"Polygon","coordinates":[[[25.4208,37.4412],[25.4187,37.4402],[25.4198,37.439],[25.4208,37.4412]]]}},{"type":"Feature","properties":{"landuse":"farmland"},"geometry":{"type":"Polygon","coordinates":[[[25.4158,37.4429],[25.4172,37.4447],[25.4157,37.4452],[25.4158,37.4429]]]}},{"type":"Feature","properties":{"landuse":"farmland"},"geometry":{"type":"Polygon","coordinates":[[[25.417,37.4451],[25.4164,37.4462],[25.4142,37.4458],[25.417,37.4451]]]}},{"type":"Feature","properties":{"landuse":"farmland"},"geometry":{"type":"Polygon","coordinates":[[[25.4146,37.4399],[25.4169,37.4413],[25.4154,37.443],[25.4146,37.4399]]]}},{"type":"Feature","properties":{"landuse":"farmland"},"geometry":{"type":"Polygon","coordinates":[[[25.4132,37.4452],[25.4113,37.4451],[25.4142,37.4431],[25.4132,37.4452]]]}},{"type":"Feature","properties":{"landuse":"farmland"},"geometry":{"type":"Polygon","coordinates":[[[25.4132,37.4452],[25.4144,37.4432],[25.4147,37.4455],[25.4132,37.4452]]]}},{"type":"Feature","properties":{"landuse":"farmland"},"geometry":{"type":"Polygon","coordinates":[[[25.406,37.4424],[25.405,37.4411],[25.4063,37.4409],[25.406,37.4424]]]}},{"type":"Feature","properties":{"landuse":"farmland"},"geometry":{"type":"Polygon","coordinates":[[[25.4043,37.4416],[25.402,37.4423],[25.4034,37.441],[25.4043,37.4416]]]}},{"type":"Feature","properties":{"landuse":"farmland"},"geometry":{"type":"Polygon","coordinates":[[[25.4037,37.44],[25.406,37.4408],[25.4037,37.441],[25.4037,37.44]]]}},{"type":"Feature","properties":{"landuse":"farmland"},"geometry":{"type":"Polygon","coordinates":[[[25.4141,37.4422],[25.4111,37.4449],[25.4108,37.4422],[25.4141,37.4422]]]}},{"type":"Feature","properties":{"landuse":"farmland"},"geometry":{"type":"Polygon","coordinates":[[[25.3923,37.4652],[25.3929,37.466],[25.3911,37.4664],[25.3923,37.4652]]]}},{"type":"Feature","properties":{"landuse":"farmland"},"geometry":{"type":"Polygon","coordinates":[[[25.3924,37.4648],[25.394,37.4652],[25.3934,37.4665],[25.3924,37.4648]]]}},{"type":"Feature","properties":{"landuse":"farmland"},"geometry":{"type":"Polygon","coordinates":[[[28.1208,36.3927],[28.1214,36.3911],[28.1222,36.3924],[28.1208,36.3927]]]}},{"type":"Feature","properties":{"landuse":"farmland"},"geometry":{"type":"Polygon","coordinates":[[[28.1186,36.3912],[28.1192,36.3891],[28.1199,36.3907],[28.1186,36.3912]]]}},{"type":"Feature","properties":{"landuse":"orchard"},"geometry":{"type":"Polygon","coordinates":[[[27.1904,36.8785],[27.1915,36.8772],[27.1924,36.8789],[27.1904,36.8785]]]}},{"type":"Feature","properties":{"landuse":"orchard"},"geometry":{"type":"Polygon","coordinates":[[[27.1877,36.8772],[27.1884,36.8763],[27.1889,36.8777],[27.1877,36.8772]]]}},{"type":"Feature","properties":{"landuse":"orchard"},"geometry":{"type":"Polygon","coordinates":[[[24.945,37.4289],[24.9454,37.4279],[24.9461,37.4283],[24.945,37.4289]]]}},{"type":"Feature","properties":{"landuse":"orchard"},"geometry":{"type":"Polygon","coordinates":[[[25.4412,36.4389],[25.4421,36.4382],[25.4421,36.4392],[25.4412,36.4389]]]}},{"type":"Feature","properties":{"landuse":"vineyard"},"geometry":{"type":"Polygon","coordinates":[[[25.4,36.4703],[25.4002,36.4732],[25.3984,36.4718],[25.4,36.4703]]]}},{"type":"Feature","properties":{"landuse":"vineyard"},"geometry":{"type":"Polygon","coordinates":[[[25.3947,36.4714],[25.3963,36.471],[25.3959,36.472],[25.3947,36.4714]]]}},{"type":"Feature","properties":{"landuse":"vineyard"},"geometry":{"type":"Polygon","coordinates":[[[25.3944,36.4732],[25.394,36.4754],[25.3929,36.4724],[25.3944,36.4732]]]}},{"type":"Feature","properties":{"landuse":"orchard"},"geometry":{"type":"Polygon","coordinates":[[[25.3852,36.4728],[25.384,36.4739],[25.3838,36.4728],[25.3852,36.4728]]]}},{"type":"Feature","properties":{"landuse":"vineyard"},"geometry":{"type":"Polygon","coordinates":[[[25.3972,36.475],[25.3984,36.4779],[25.3978,36.478],[25.3972,36.475]]]}},{"type":"Feature","properties":{"landuse":"farmland"},"geometry":{"type":"Polygon","coordinates":[[[25.3769,37.446],[25.3786,37.4459],[25.3769,37.4471],[25.3769,37.446]]]}},{"type":"Feature","properties":{"landuse":"farmland"},"geometry":{"type":"Polygon","coordinates":[[[24.9396,37.4245],[24.9392,37.4257],[24.9375,37.4253],[24.9396,37.4245]]]}},{"type":"Feature","properties":{"landuse":"farmland"},"geometry":{"type":"Polygon","coordinates":[[[24.9405,37.4254],[24.939,37.426],[24.9395,37.4251],[24.9405,37.4254]]]}},{"type":"Feature","properties":{"landuse":"farmland"},"geometry":{"type":"Polygon","coordinates":[[[24.9417,37.4248],[24.9409,37.4246],[24.9423,37.4224],[24.9417,37.4248]]]}},{"type":"Feature","properties":{"landuse":"orchard"},"geometry":{"type":"Polygon","coordinates":[[[24.483,36.7045],[24.484,36.7047],[24.4814,36.707],[24.483,36.7045]]]}},{"type":"Feature","properties":{"landuse":"farmland"},"geometry":{"type":"Polygon","coordinates":[[[27.1525,36.8626],[27.1909,36.8746],[27.1899,36.8783],[27.187,36.8822],[27.1492,36.8713],[27.1525,36.8626]]]}},{"type":"Feature","properties":{"landuse":"farmland"},"geometry":{"type":"Polygon","coordinates":[[[27.1903,36.8778],[27.191,36.8747],[27.2003,36.8749],[27.1988,36.8783],[27.207,36.8805],[27.2014,36.8824],[27.1903,36.8778]]]}},{"type":"Feature","properties":{"landuse":"farmland"},"geometry":{"type":"Polygon","coordinates":[[[27.1506,36.8779],[27.1529,36.8722],[27.1563,36.873],[27.1539,36.879],[27.1506,36.8779]]]}},{"type":"Feature","properties":{"landuse":"farmland"},"geometry":{"type":"Polygon","coordinates":[[[27.1828,36.8804],[27.1797,36.8868],[27.17,36.8807],[27.1609,36.8831],[27.1532,36.8798],[27.1607,36.8799],[27.1547,36.878],[27.1572,36.8733],[27.1647,36.8752],[27.1628,36.8791],[27.1648,36.8752],[27.1828,36.8804]]]}},{"type":"Feature","properties":{"landuse":"orchard"},"geometry":{"type":"Polygon","coordinates":[[[27.1385,36.7856],[27.139,36.784],[27.1394,36.7846],[27.1385,36.7856]]]}},{"type":"Feature","properties":{"landuse":"farmland"},"geometry":{"type":"Polygon","coordinates":[[[27.1329,36.7905],[27.1391,36.7891],[27.1401,36.7911],[27.1329,36.7905]]]}},{"type":"Feature","properties":{"landuse":"farmland"},"geometry":{"type":"Polygon","coordinates":[[[27.124,36.7671],[27.1275,36.7691],[27.1229,36.7726],[27.124,36.7671]]]}},{"type":"Feature","properties":{"landuse":"farmland"},"geometry":{"type":"Polygon","coordinates":[[[27.1071,36.7618],[27.1103,36.7617],[27.1081,36.7654],[27.1071,36.7618]]]}},{"type":"Feature","properties":{"landuse":"farmland"},"geometry":{"type":"Polygon","coordinates":[[[27.1109,36.7637],[27.1108,36.7621],[27.1126,36.7633],[27.1109,36.7637]]]}},{"type":"Feature","properties":{"landuse":"orchard"},"geometry":{"type":"Polygon","coordinates":[[[27.1618,36.8661],[27.1601,36.8653],[27.1615,36.8647],[27.1618,36.8661]]]}},{"type":"Feature","properties":{"landuse":"farmland"},"geometry":{"type":"Polygon","coordinates":[[[25.4385,36.3421],[25.4393,36.3451],[25.4366,36.3428],[25.4385,36.3421]]]}},{"type":"Feature","properties":{"landuse":"orchard"},"geometry":{"type":"Polygon","coordinates":[[[25.3915,36.4756],[25.3916,36.4732],[25.3924,36.4749],[25.3915,36.4756]]]}},{"type":"Feature","properties":{"landuse":"orchard"},"geometry":{"type":"Polygon","coordinates":[[[27.0067,36.9766],[27.008,36.977],[27.0071,36.9775],[27.0067,36.9766]]]}},{"type":"Feature","properties":{"landuse":"orchard"},"geometry":{"type":"Polygon","coordinates":[[[27.0021,36.978],[27.0009,36.9764],[27.0026,36.977],[27.0021,36.978]]]}},{"type":"Feature","properties":{"landuse":"orchard"},"geometry":{"type":"Polygon","coordinates":[[[26.9988,36.9756],[26.9999,36.9749],[27.0007,36.9765],[26.9988,36.9756]]]}},{"type":"Feature","properties":{"landuse":"orchard"},"geometry":{"type":"Polygon","coordinates":[[[27.0074,36.9752],[27.0087,36.9741],[27.0091,36.9752],[27.0074,36.9752]]]}},{"type":"Feature","properties":{"landuse":"orchard"},"geometry":{"type":"Polygon","coordinates":[[[27.008,36.9758],[27.0094,36.9754],[27.0094,36.9766],[27.008,36.9758]]]}},{"type":"Feature","properties":{"landuse":"orchard"},"geometry":{"type":"Polygon","coordinates":[[[27.0118,36.976],[27.0121,36.9748],[27.0139,36.9752],[27.0118,36.976]]]}},{"type":"Feature","properties":{"landuse":"orchard"},"geometry":{"type":"Polygon","coordinates":[[[27.0161,36.9765],[27.0182,36.9759],[27.0167,36.9773],[27.0161,36.9765]]]}},{"type":"Feature","properties":{"landuse":"orchard"},"geometry":{"type":"Polygon","coordinates":[[[27.01,36.9771],[27.0152,36.9758],[27.0109,36.9778],[27.01,36.9771]]]}},{"type":"Feature","properties":{"landuse":"orchard"},"geometry":{"type":"Polygon","coordinates":[[[27.0087,36.9742],[27.0153,36.9737],[27.0103,36.9754],[27.0087,36.9742]]]}},{"type":"Feature","properties":{"landuse":"orchard"},"geometry":{"type":"Polygon","coordinates":[[[27.0199,36.9751],[27.0181,36.9756],[27.0175,36.9746],[27.0199,36.9751]]]}},{"type":"Feature","properties":{"landuse":"orchard"},"geometry":{"type":"Polygon","coordinates":[[[27.0154,36.975],[27.0141,36.9746],[27.0151,36.9739],[27.0154,36.975]]]}},{"type":"Feature","properties":{"landuse":"farmland"},"geometry":{"type":"Polygon","coordinates":[[[27.1741,36.8694],[27.1776,36.8668],[27.1828,36.8681],[27.1794,36.8715],[27.1741,36.8694]]]}},{"type":"Feature","properties":{"landuse":"farmland"},"geometry":{"type":"Polygon","coordinates":[[[27.1861,36.8716],[27.1839,36.8715],[27.1878,36.8687],[27.1861,36.8716]]]}},{"type":"Feature","properties":{"landuse":"farmland"},"geometry":{"type":"Polygon","coordinates":[[[27.1869,36.8728],[27.1898,36.8725],[27.1893,36.8738],[27.1869,36.8728]]]}},{"type":"Feature","properties":{"landuse":"farmland"},"geometry":{"type":"Polygon","coordinates":[[[27.1901,36.8725],[27.1868,36.871],[27.1902,36.8672],[27.1901,36.8725]]]}},{"type":"Feature","properties":{"landuse":"orchard"},"geometry":{"type":"Polygon","coordinates":[[[27.1898,36.8733],[27.1906,36.8713],[27.1911,36.8725],[27.1898,36.8733]]]}},{"type":"Feature","properties":{"landuse":"farmland"},"geometry":{"type":"Polygon","coordinates":[[[27.1908,36.8713],[27.1918,36.8725],[27.1911,36.8734],[27.1908,36.8713]]]}},{"type":"Feature","properties":{"landuse":"farmland"},"geometry":{"type":"Polygon","coordinates":[[[27.1942,36.8752],[27.1968,36.8721],[27.1999,36.8744],[27.1942,36.8752]]]}},{"type":"Feature","properties":{"landuse":"farmland"},"geometry":{"type":"Polygon","coordinates":[[[27.192,36.8734],[27.1934,36.8673],[27.1964,36.8726],[27.192,36.8734]]]}},{"type":"Feature","properties":{"landuse":"farmland"},"geometry":{"type":"Polygon","coordinates":[[[27.2004,36.8749],[27.1981,36.8725],[27.2046,36.871],[27.2004,36.8749]]]}},{"type":"Feature","properties":{"landuse":"farmland"},"geometry":{"type":"Polygon","coordinates":[[[27.2046,36.871],[27.1994,36.8645],[27.2055,36.8668],[27.2046,36.871]]]}},{"type":"Feature","properties":{"landuse":"farmland"},"geometry":{"type":"Polygon","coordinates":[[[27.2024,36.8694],[27.1969,36.8716],[27.1968,36.8643],[27.2024,36.8694]]]}},{"type":"Feature","properties":{"landuse":"farmland"},"geometry":{"type":"Polygon","coordinates":[[[27.1953,36.8687],[27.1892,36.8651],[27.1996,36.8564],[27.2012,36.8619],[27.1953,36.8687]]]}},{"type":"Feature","properties":{"landuse":"farmland"},"geometry":{"type":"Polygon","coordinates":[[[27.2058,36.8669],[27.2006,36.8649],[27.2086,36.8588],[27.2058,36.8669]]]}},{"type":"Feature","properties":{"landuse":"farmland"},"geometry":{"type":"Polygon","coordinates":[[[27.3428,36.8836],[27.3405,36.8827],[27.3418,36.8806],[27.3428,36.8836]]]}},{"type":"Feature","properties":{"landuse":"farmland"},"geometry":{"type":"Polygon","coordinates":[[[27.3399,36.8831],[27.3384,36.8832],[27.3379,36.8818],[27.3399,36.8831]]]}},{"type":"Feature","properties":{"landuse":"farmland"},"geometry":{"type":"Polygon","coordinates":[[[27.3444,36.879],[27.3485,36.8786],[27.3464,36.8821],[27.3444,36.879]]]}},{"type":"Feature","properties":{"landuse":"farmland"},"geometry":{"type":"Polygon","coordinates":[[[27.3452,36.8779],[27.3423,36.8801],[27.3415,36.8767],[27.3452,36.8779]]]}},{"type":"Feature","properties":{"landuse":"farmland"},"geometry":{"type":"Polygon","coordinates":[[[27.3256,36.8841],[27.3235,36.8827],[27.3251,36.8828],[27.3256,36.8841]]]}},{"type":"Feature","properties":{"landuse":"farmland"},"geometry":{"type":"Polygon","coordinates":[[[27.3459,36.8769],[27.344,36.8756],[27.3465,36.8761],[27.3459,36.8769]]]}},{"type":"Feature","properties":{"landuse":"orchard"},"geometry":{"type":"Polygon","coordinates":[[[27.341,36.8741],[27.3435,36.8735],[27.3415,36.8748],[27.341,36.8741]]]}},{"type":"Feature","properties":{"landuse":"orchard"},"geometry":{"type":"Polygon","coordinates":[[[27.1322,36.7868],[27.1321,36.7899],[27.1311,36.7881],[27.1322,36.7868]]]}},{"type":"Feature","properties":{"landuse":"farmland"},"geometry":{"type":"Polygon","coordinates":[[[27.14,36.7798],[27.1381,36.7813],[27.1381,36.7797],[27.14,36.7798]]]}},{"type":"Feature","properties":{"landuse":"orchard"},"geometry":{"type":"Polygon","coordinates":[[[27.2068,36.8537],[27.2086,36.8538],[27.2085,36.8549],[27.2068,36.8537]]]}},{"type":"Feature","properties":{"landuse":"orchard"},"geometry":{"type":"Polygon","coordinates":[[[27.2058,36.852],[27.2026,36.8518],[27.2027,36.8502],[27.2058,36.852]]]}},{"type":"Feature","properties":{"landuse":"orchard"},"geometry":{"type":"Polygon","coordinates":[[[27.2053,36.8516],[27.2074,36.8502],[27.2074,36.8521],[27.2053,36.8516]]]}},{"type":"Feature","properties":{"landuse":"farmland"},"geometry":{"type":"Polygon","coordinates":[[[27.1629,36.8664],[27.1664,36.8651],[27.165,36.8666],[27.1629,36.8664]]]}},{"type":"Feature","properties":{"landuse":"orchard"},"geometry":{"type":"Polygon","coordinates":[[[27.1648,36.8668],[27.1693,36.8661],[27.1672,36.8678],[27.1648,36.8668]]]}},{"type":"Feature","properties":{"landuse":"orchard"},"geometry":{"type":"Polygon","coordinates":[[[27.1694,36.8683],[27.1721,36.8646],[27.1716,36.8684],[27.1694,36.8683]]]}},{"type":"Feature","properties":{"landuse":"orchard"},"geometry":{"type":"Polygon","coordinates":[[[27.1719,36.8685],[27.1728,36.8673],[27.1732,36.8691],[27.1719,36.8685]]]}},{"type":"Feature","properties":{"landuse":"farmland"},"geometry":{"type":"Polygon","coordinates":[[[27.1775,36.8522],[27.173,36.8494],[27.1824,36.846],[27.1775,36.8522]]]}},{"type":"Feature","properties":{"landuse":"farmland"},"geometry":{"type":"Polygon","coordinates":[[[27.173,36.8494],[27.1722,36.8492],[27.1761,36.8463],[27.173,36.8494]]]}},{"type":"Feature","properties":{"landuse":"farmland"},"geometry":{"type":"Polygon","coordinates":[[[27.172,36.8491],[27.1715,36.8481],[27.1738,36.8466],[27.172,36.8491]]]}},{"type":"Feature","properties":{"landuse":"farmland"},"geometry":{"type":"Polygon","coordinates":[[[25.3796,37.0766],[25.38,37.0794],[25.3788,37.0796],[25.3796,37.0766]]]}},{"type":"Feature","properties":{"landuse":"farmland"},"geometry":{"type":"Polygon","coordinates":[[[25.379,37.0772],[25.378,37.0797],[25.3772,37.0792],[25.379,37.0772]]]}},{"type":"Feature","properties":{"landuse":"farmland"},"geometry":{"type":"Polygon","coordinates":[[[25.3801,37.0796],[25.3799,37.0785],[25.3824,37.0783],[25.3801,37.0796]]]}},{"type":"Feature","properties":{"landuse":"farmland"},"geometry":{"type":"Polygon","coordinates":[[[25.3807,37.0772],[25.3832,37.0764],[25.3828,37.0773],[25.3807,37.0772]]]}},{"type":"Feature","properties":{"landuse":"farmland"},"geometry":{"type":"Polygon","coordinates":[[[25.384,37.0745],[25.388,37.0747],[25.3889,37.0784],[25.3823,37.0816],[25.384,37.0745]]]}},{"type":"Feature","properties":{"landuse":"farmland"},"geometry":{"type":"Polygon","coordinates":[[[25.3808,37.0747],[25.3824,37.0747],[25.3832,37.0759],[25.3808,37.0747]]]}},{"type":"Feature","properties":{"landuse":"orchard"},"geometry":{"type":"Polygon","coordinates":[[[25.1648,37.0922],[25.1629,37.091],[25.1644,37.0907],[25.1648,37.0922]]]}},{"type":"Feature","properties":{"landuse":"orchard"},"geometry":{"type":"Polygon","coordinates":[[[25.1659,37.0927],[25.1648,37.091],[25.1673,37.0921],[25.1659,37.0927]]]}},{"type":"Feature","properties":{"landuse":"farmland"},"geometry":{"type":"Polygon","coordinates":[[[25.4389,36.3963],[25.4389,36.3955],[25.4402,36.3961],[25.4389,36.3963]]]}},{"type":"Feature","properties":{"landuse":"farmland"},"geometry":{"type":"Polygon","coordinates":[[[25.4582,36.4039],[25.456,36.4027],[25.4581,36.401],[25.4582,36.4039]]]}},{"type":"Feature","properties":{"landuse":"farmland"},"geometry":{"type":"Polygon","coordinates":[[[25.3754,37.0919],[25.3734,37.0908],[25.3802,37.0874],[25.3754,37.0919]]]}},{"type":"Feature","properties":{"landuse":"farmland"},"geometry":{"type":"Polygon","coordinates":[[[25.373,37.0887],[25.3728,37.0876],[25.3746,37.0872],[25.373,37.0887]]]}},{"type":"Feature","properties":{"landuse":"farmland"},"geometry":{"type":"Polygon","coordinates":[[[25.3822,37.0973],[25.3843,37.0969],[25.3823,37.0984],[25.3822,37.0973]]]}},{"type":"Feature","properties":{"landuse":"farmland"},"geometry":{"type":"Polygon","coordinates":[[[25.3872,37.1001],[25.3866,37.0972],[25.3891,37.0978],[25.3872,37.1001]]]}},{"type":"Feature","properties":{"landuse":"farmland"},"geometry":{"type":"Polygon","coordinates":[[[25.3882,37.1018],[25.3895,37.099],[25.3946,37.0998],[25.3882,37.1018]]]}},{"type":"Feature","properties":{"landuse":"farmland"},"geometry":{"type":"Polygon","coordinates":[[[25.3888,37.0973],[25.3922,37.0967],[25.3902,37.0978],[25.3888,37.0973]]]}},{"type":"Feature","properties":{"landuse":"farmland"},"geometry":{"type":"Polygon","coordinates":[[[25.388,37.0938],[25.3901,37.0951],[25.3877,37.0955],[25.388,37.0938]]]}},{"type":"Feature","properties":{"landuse":"farmland"},"geometry":{"type":"Polygon","coordinates":[[[25.3914,37.0975],[25.391,37.0983],[25.3893,37.098],[25.3914,37.0975]]]}},{"type":"Feature","properties":{"landuse":"farmland"},"geometry":{"type":"Polygon","coordinates":[[[25.3924,37.099],[25.3927,37.0951],[25.397,37.0954],[25.3924,37.099]]]}},{"type":"Feature","properties":{"landuse":"farmland"},"geometry":{"type":"Polygon","coordinates":[[[25.397,37.0911],[25.3998,37.0882],[25.3959,37.0924],[25.397,37.0911]]]}},{"type":"Feature","properties":{"landuse":"farmland"},"geometry":{"type":"Polygon","coordinates":[[[25.3962,37.0936],[25.3957,37.0928],[25.3979,37.0935],[25.3962,37.0936]]]}},{"type":"Feature","properties":{"landuse":"farmland"},"geometry":{"type":"Polygon","coordinates":[[[25.3993,37.0933],[25.4042,37.0884],[25.4018,37.0944],[25.3993,37.0933]]]}},{"type":"Feature","properties":{"landuse":"farmland"},"geometry":{"type":"Polygon","coordinates":[[[25.4031,37.0887],[25.401,37.0886],[25.4006,37.0872],[25.4031,37.0887]]]}},{"type":"Feature","properties":{"landuse":"farmland"},"geometry":{"type":"Polygon","coordinates":[[[25.398,37.0935],[25.3996,37.0954],[25.395,37.0945],[25.398,37.0935]]]}},{"type":"Feature","properties":{"landuse":"farmland"},"geometry":{"type":"Polygon","coordinates":[[[25.3988,37.0965],[25.3993,37.0975],[25.3977,37.0972],[25.3988,37.0965]]]}},{"type":"Feature","properties":{"landuse":"farmland"},"geometry":{"type":"Polygon","coordinates":[[[25.3838,37.1048],[25.3861,37.1048],[25.3852,37.1054],[25.3838,37.1048]]]}},{"type":"Feature","properties":{"landuse":"farmland"},"geometry":{"type":"Polygon","coordinates":[[[25.4633,36.3665],[25.4627,36.3683],[25.4608,36.3689],[25.4633,36.3665]]]}},{"type":"Feature","properties":{"landuse":"farmland"},"geometry":{"type":"Polygon","coordinates":[[[25.1602,37.0891],[25.1602,37.0878],[25.1627,37.088],[25.1602,37.0891]]]}},{"type":"Feature","properties":{"landuse":"farmland"},"geometry":{"type":"Polygon","coordinates":[[[25.3865,37.1055],[25.3893,37.1063],[25.3871,37.1065],[25.3865,37.1055]]]}},{"type":"Feature","properties":{"landuse":"orchard"},"geometry":{"type":"Polygon","coordinates":[[[27.1459,36.8538],[27.1463,36.8551],[27.1443,36.8552],[27.1459,36.8538]]]}},{"type":"Feature","properties":{"landuse":"orchard"},"geometry":{"type":"Polygon","coordinates":[[[24.9268,37.8303],[24.9272,37.8289],[24.9301,37.8316],[24.9268,37.8303]]]}},{"type":"Feature","properties":{"landuse":"farmland"},"geometry":{"type":"Polygon","coordinates":[[[24.9262,37.8297],[24.928,37.8257],[24.9386,37.8336],[24.9262,37.8297]]]}},{"type":"Feature","properties":{"landuse":"farmland"},"geometry":{"type":"Polygon","coordinates":[[[24.9384,37.8344],[24.9371,37.8361],[24.9373,37.8339],[24.9384,37.8344]]]}},{"type":"Feature","properties":{"landuse":"farmland"},"geometry":{"type":"Polygon","coordinates":[[[24.9387,37.8343],[24.9402,37.8332],[24.9401,37.836],[24.9387,37.8343]]]}},{"type":"Feature","properties":{"landuse":"orchard"},"geometry":{"type":"Polygon","coordinates":[[[24.9256,37.834],[24.9264,37.8333],[24.9284,37.8342],[24.9256,37.834]]]}},{"type":"Feature","properties":{"landuse":"orchard"},"geometry":{"type":"Polygon","coordinates":[[[24.9261,37.8247],[24.9308,37.8224],[24.9351,37.8285],[24.9261,37.8247]]]}},{"type":"Feature","properties":{"landuse":"orchard"},"geometry":{"type":"Polygon","coordinates":[[[24.9383,37.8361],[24.9393,37.8353],[24.94,37.8369],[24.9383,37.8361]]]}},{"type":"Feature","properties":{"landuse":"farmland"},"geometry":{"type":"Polygon","coordinates":[[[24.9322,37.8291],[24.9406,37.8316],[24.9339,37.8319],[24.9322,37.8291]]]}},{"type":"Feature","properties":{"landuse":"orchard"},"geometry":{"type":"Polygon","coordinates":[[[24.9202,37.8222],[24.9221,37.8239],[24.9184,37.8265],[24.921,37.8274],[24.9168,37.8249],[24.9202,37.8222]]]}},{"type":"Feature","properties":{"landuse":"orchard"},"geometry":{"type":"Polygon","coordinates":[[[24.9215,37.8253],[24.9233,37.8248],[24.9228,37.8271],[24.9215,37.8253]]]}},{"type":"Feature","properties":{"landuse":"orchard"},"geometry":{"type":"Polygon","coordinates":[[[24.9298,37.8351],[24.9286,37.8393],[24.9267,37.8386],[24.9298,37.8351]]]}},{"type":"Feature","properties":{"landuse":"farmland"},"geometry":{"type":"Polygon","coordinates":[[[24.9276,37.8347],[24.9296,37.834],[24.9292,37.8359],[24.9276,37.8347]]]}},{"type":"Feature","properties":{"landuse":"orchard"},"geometry":{"type":"Polygon","coordinates":[[[24.9373,37.8548],[24.9373,37.8529],[24.939,37.8536],[24.9373,37.8548]]]}},{"type":"Feature","properties":{"landuse":"farmland"},"geometry":{"type":"Polygon","coordinates":[[[24.9337,37.8517],[24.9363,37.854],[24.931,37.8528],[24.9337,37.8517]]]}},{"type":"Feature","properties":{"landuse":"orchard"},"geometry":{"type":"Polygon","coordinates":[[[24.9358,37.8531],[24.9341,37.8533],[24.933,37.8523],[24.9358,37.8531]]]}},{"type":"Feature","properties":{"landuse":"orchard"},"geometry":{"type":"Polygon","coordinates":[[[24.9281,37.8527],[24.9301,37.8521],[24.9293,37.8537],[24.9281,37.8527]]]}}]}