{"type":"FeatureCollection","features":[{"type":"Feature","properties":{"landuse":"green_public_spaces"},"geometry":{"type":"Polygon","coordinates":[[[20.8584,39.6393],[20.8566,39.6428],[20.8518,39.6428],[20.8552,39.6382],[20.8584,39.6393]]]}},{"type":"Feature","properties":{"landuse":"farmland"},"geometry":{"type":"Polygon","coordinates":[[[20.9629,39.1346],[20.9628,39.1316],[20.9848,39.1181],[20.9817,39.1386],[20.9751,39.1502],[20.9608,39.1391],[20.9629,39.1346]]]}},{"type":"Feature","properties":{"landuse":"farmland"},"geometry":{"type":"Polygon","coordinates":[[[20.9354,39.1819],[20.9189,39.1894],[20.9032,39.1857],[20.9136,39.1931],[20.8925,39.2101],[20.8862,39.2062],[20.8876,39.1921],[20.884,39.1806],[20.8919,39.1729],[20.8978,39.1715],[20.8948,39.1735],[20.9008,39.1767],[20.9062,39.1697],[20.9285,39.1645],[20.9302,39.1686],[20.9396,39.1656],[20.9427,39.1689],[20.9354,39.1819]]]}},{"type":"Feature","properties":{"landuse":"farmland"},"geometry":{"type":"Polygon","coordinates":[[[20.9947,39.1334],[20.9999,39.1275],[21.0014,39.1303],[20.9947,39.1334]]]}},{"type":"Feature","properties":{"landuse":"green_public_spaces"},"geometry":{"type":"Polygon","coordinates":[[[21.0052,39.1624],[20.9944,39.1638],[20.9997,39.1581],[21.0051,39.1596],[21.0052,39.1624]]]}},{"type":"Feature","properties":{"landuse":"farmland"},"geometry":{"type":"Polygon","coordinates":[[[20.9832,39.137],[20.9816,39.1369],[20.9821,39.1349],[20.9832,39.137]]]}},{"type":"Feature","properties":{"landuse":"farmland"},"geometry":{"type":"Polygon","coordinates":[[[20.9816,39.1393],[20.983,39.1372],[20.9813,39.1403],[20.9816,39.1393]]]}},{"type":"Feature","properties":{"landuse":"farmland"},"geometry":{"type":"Polygon","coordinates":[[[20.9823,39.1343],[20.9828,39.1301],[20.9839,39.1345],[20.9823,39.1343]]]}},{"type":"Feature","properties":{"landuse":"farmland"},"geometry":{"type":"Polygon","coordinates":[[[20.9879,39.1352],[20.9838,39.1316],[20.9908,39.1231],[20.9939,39.1265],[20.9879,39.1352]]]}},{"type":"Feature","properties":{"landuse":"farmland"},"geometry":{"type":"Polygon","coordinates":[[[20.9778,39.1474],[20.9841,39.1351],[20.9879,39.1353],[20.9894,39.1401],[20.9778,39.1474]]]}},{"type":"Feature","properties":{"landuse":"orchard"},"geometry":{"type":"Polygon","coordinates":[[[21.081,39.0641],[21.0847,39.0634],[21.0833,39.0713],[21.081,39.0641]]]}},{"type":"Feature","properties":{"landuse":"farmland"},"geometry":{"type":"Polygon","coordinates":[[[20.8245,39.6983],[20.8278,39.6963],[20.8299,39.698],[20.8245,39.6983]]]}},{"type":"Feature","properties":{"landuse":"green_public_spaces"},"geometry":{"type":"Polygon","coordinates":[[[20.9923,39.1631],[20.9956,39.1588],[20.9948,39.1615],[20.9923,39.1631]]]}},{"type":"Feature","properties":{"landuse":"farmland"},"geometry":{"type":"Polygon","coordinates":[[[20.9029,39.2025],[20.9018,39.2065],[20.8982,39.2074],[20.9029,39.2025]]]}},{"type":"Feature","properties":{"landuse":"farmland"},"geometry":{"type":"Polygon","coordinates":[[[20.9014,39.2067],[20.9013,39.2097],[20.8988,39.2088],[20.9014,39.2067]]]}},{"type":"Feature","properties":{"landuse":"farmland"},"geometry":{"type":"Polygon","coordinates":[[[20.8487,39.6256],[20.8507,39.627],[20.8507,39.6307],[20.8487,39.6256]]]}},{"type":"Feature","properties":{"landuse":"farmland"},"geometry":{"type":"Polygon","coordinates":[[[20.8461,39.6242],[20.8398,39.629],[20.8404,39.6251],[20.8461,39.6242]]]}},{"type":"Feature","properties":{"landuse":"farmland"},"geometry":{"type":"Polygon","coordinates":[[[20.8469,39.6326],[20.8442,39.6316],[20.8459,39.6282],[20.8469,39.6326]]]}},{"type":"Feature","properties":{"landuse":"farmland"},"geometry":{"type":"Polygon","coordinates":[[[20.8432,39.6301],[20.845,39.6268],[20.8475,39.627],[20.8432,39.6301]]]}},{"type":"Feature","properties":{"landuse":"farmland"},"geometry":{"type":"Polygon","coordinates":[[[20.8385,39.6346],[20.8411,39.63],[20.8439,39.6314],[20.8385,39.6346]]]}},{"type":"Feature","properties":{"landuse":"farmland"},"geometry":{"type":"Polygon","coordinates":[[[20.8387,39.6352],[20.8421,39.6357],[20.8394,39.6368],[20.8387,39.6352]]]}},{"type":"Feature","properties":{"landuse":"farmland"},"geometry":{"type":"Polygon","coordinates":[[[20.8415,39.6344],[20.8461,39.637],[20.8439,39.6383],[20.8415,39.6344]]]}},{"type":"Feature","properties":{"landuse":"farmland"},"geometry":{"type":"Polygon","coordinates":[[[20.8463,39.6376],[20.8447,39.6403],[20.8436,39.6385],[20.8463,39.6376]]]}},{"type":"Feature","properties":{"landuse":"farmland"},"geometry":{"type":"Polygon","coordinates":[[[20.8515,39.622],[20.8526,39.6197],[20.8547,39.6201],[20.8515,39.622]]]}},{"type":"Feature","properties":{"landuse":"farmland"},"geometry":{"type":"Polygon","coordinates":[[[20.8512,39.6202],[20.853,39.6187],[20.8521,39.6205],[20.8512,39.6202]]]}},{"type":"Feature","properties":{"landuse":"farmland"},"geometry":{"type":"Polygon","coordinates":[[[20.8512,39.6202],[20.8498,39.6198],[20.8519,39.6187],[20.8512,39.6202]]]}},{"type":"Feature","properties":{"landuse":"farmland"},"geometry":{"type":"Polygon","coordinates":[[[20.8479,39.6202],[20.847,39.6167],[20.8495,39.6164],[20.8479,39.6202]]]}},{"type":"Feature","properties":{"landuse":"farmland"},"geometry":{"type":"Polygon","coordinates":[[[20.8433,39.6075],[20.8497,39.6157],[20.8471,39.6163],[20.8433,39.6075]]]}},{"type":"Feature","properties":{"landuse":"farmland"},"geometry":{"type":"Polygon","coordinates":[[[20.8449,39.6083],[20.8442,39.6075],[20.846,39.6073],[20.8449,39.6083]]]}},{"type":"Feature","properties":{"landuse":"farmland"},"geometry":{"type":"Polygon","coordinates":[[[20.8452,39.6087],[20.8512,39.6083],[20.8466,39.6106],[20.8452,39.6087]]]}},{"type":"Feature","properties":{"landuse":"farmland"},"geometry":{"type":"Polygon","coordinates":[[[20.8477,39.6103],[20.8507,39.6139],[20.8495,39.6142],[20.8477,39.6103]]]}},{"type":"Feature","properties":{"landuse":"farmland"},"geometry":{"type":"Polygon","coordinates":[[[20.8507,39.6139],[20.8491,39.6098],[20.8538,39.6168],[20.8503,39.6185],[20.8507,39.6139]]]}},{"type":"Feature","properties":{"landuse":"farmland"},"geometry":{"type":"Polygon","coordinates":[[[20.853,39.6184],[20.8558,39.6168],[20.8563,39.6187],[20.853,39.6184]]]}},{"type":"Feature","properties":{"landuse":"farmland"},"geometry":{"type":"Polygon","coordinates":[[[20.8507,39.6092],[20.8525,39.6105],[20.8514,39.6108],[20.8507,39.6092]]]}},{"type":"Feature","properties":{"landuse":"farmland"},"geometry":{"type":"Polygon","coordinates":[[[20.8518,39.6118],[20.8551,39.6163],[20.8538,39.6166],[20.8518,39.6118]]]}},{"type":"Feature","properties":{"landuse":"farmland"},"geometry":{"type":"Polygon","coordinates":[[[20.8554,39.6167],[20.8519,39.6089],[20.8556,39.611],[20.8554,39.6167]]]}},{"type":"Feature","properties":{"landuse":"farmland"},"geometry":{"type":"Polygon","coordinates":[[[20.8581,39.614],[20.8564,39.6128],[20.858,39.6124],[20.8581,39.614]]]}},{"type":"Feature","properties":{"landuse":"farmland"},"geometry":{"type":"Polygon","coordinates":[[[20.8548,39.6073],[20.8536,39.6068],[20.8581,39.604],[20.8548,39.6073]]]}},{"type":"Feature","properties":{"landuse":"farmland"},"geometry":{"type":"Polygon","coordinates":[[[20.8539,39.6065],[20.8566,39.6033],[20.8584,39.6039],[20.8539,39.6065]]]}},{"type":"Feature","properties":{"landuse":"farmland"},"geometry":{"type":"Polygon","coordinates":[[[20.8532,39.604],[20.857,39.6017],[20.854,39.6048],[20.8532,39.604]]]}},{"type":"Feature","properties":{"landuse":"farmland"},"geometry":{"type":"Polygon","coordinates":[[[20.8483,39.6071],[20.8529,39.6041],[20.8537,39.6049],[20.8483,39.6071]]]}},{"type":"Feature","properties":{"landuse":"farmland"},"geometry":{"type":"Polygon","coordinates":[[[20.8478,39.6071],[20.8491,39.6048],[20.8501,39.6058],[20.8478,39.6071]]]}},{"type":"Feature","properties":{"landuse":"farmland"},"geometry":{"type":"Polygon","coordinates":[[[20.855,39.6028],[20.8522,39.6032],[20.8542,39.602],[20.855,39.6028]]]}},{"type":"Feature","properties":{"landuse":"farmland"},"geometry":{"type":"Polygon","coordinates":[[[20.8525,39.6043],[20.8506,39.6055],[20.8523,39.5998],[20.8549,39.6002],[20.8525,39.6043]]]}},{"type":"Feature","properties":{"landuse":"farmland"},"geometry":{"type":"Polygon","coordinates":[[[20.8436,39.6055],[20.8458,39.6028],[20.8463,39.6039],[20.8436,39.6055]]]}},{"type":"Feature","properties":{"landuse":"farmland"},"geometry":{"type":"Polygon","coordinates":[[[20.8464,39.6034],[20.8477,39.5985],[20.8516,39.5993],[20.8464,39.6034]]]}},{"type":"Feature","properties":{"landuse":"farmland"},"geometry":{"type":"Polygon","coordinates":[[[20.8613,39.6013],[20.8607,39.5994],[20.8619,39.5992],[20.8613,39.6013]]]}},{"type":"Feature","properties":{"landuse":"farmland"},"geometry":{"type":"Polygon","coordinates":[[[20.8593,39.5999],[20.8535,39.5985],[20.8584,39.5984],[20.8593,39.5999]]]}},{"type":"Feature","properties":{"landuse":"farmland"},"geometry":{"type":"Polygon","coordinates":[[[20.8574,39.5983],[20.8588,39.5977],[20.8588,39.5984],[20.8574,39.5983]]]}},{"type":"Feature","properties":{"landuse":"farmland"},"geometry":{"type":"Polygon","coordinates":[[[20.8473,39.595],[20.8609,39.5967],[20.849,39.5987],[20.8504,39.5967],[20.8477,39.5975],[20.8473,39.595]]]}},{"type":"Feature","properties":{"landuse":"green_public_spaces"},"geometry":{"type":"Polygon","coordinates":[[[20.7873,39.703],[20.7882,39.702],[20.7891,39.7034],[20.7873,39.703]]]}},{"type":"Feature","properties":{"landuse":"farmland"},"geometry":{"type":"Polygon","coordinates":[[[20.8681,39.6029],[20.8666,39.6037],[20.8641,39.603],[20.8681,39.6029]]]}},{"type":"Feature","properties":{"landuse":"orchard"},"geometry":{"type":"Polygon","coordinates":[[[20.8625,39.1881],[20.8616,39.187],[20.8642,39.1876],[20.8625,39.1881]]]}},{"type":"Feature","properties":{"landuse":"farmland"},"geometry":{"type":"Polygon","coordinates":[[[20.8911,39.1395],[20.9205,39.1515],[20.9227,39.1552],[20.9175,39.16],[20.9207,39.1615],[20.9177,39.1615],[20.9188,39.1656],[20.915,39.1645],[20.9171,39.1669],[20.8989,39.1711],[20.8927,39.1699],[20.8896,39.1736],[20.8928,39.1657],[20.8899,39.161],[20.8922,39.1562],[20.8902,39.1561],[20.8911,39.1395]]]}},{"type":"Feature","properties":{"landuse":"farmland"},"geometry":{"type":"Polygon","coordinates":[[[20.8901,39.1545],[20.8868,39.1727],[20.874,39.1614],[20.8814,39.1604],[20.8859,39.1549],[20.8901,39.1545]]]}},{"type":"Feature","properties":{"landuse":"orchard"},"geometry":{"type":"Polygon","coordinates":[[[20.8839,39.1626],[20.881,39.1624],[20.8841,39.1616],[20.8839,39.1626]]]}},{"type":"Feature","properties":{"landuse":"farmland"},"geometry":{"type":"Polygon","coordinates":[[[20.8785,39.1706],[20.8819,39.1753],[20.8758,39.1714],[20.8785,39.1706]]]}},{"type":"Feature","properties":{"landuse":"farmland"},"geometry":{"type":"Polygon","coordinates":[[[20.8734,39.1672],[20.876,39.1697],[20.8721,39.1693],[20.8734,39.1672]]]}},{"type":"Feature","properties":{"landuse":"farmland"},"geometry":{"type":"Polygon","coordinates":[[[20.8791,39.1679],[20.882,39.1712],[20.8792,39.1714],[20.8791,39.1679]]]}},{"type":"Feature","properties":{"landuse":"orchard"},"geometry":{"type":"Polygon","coordinates":[[[20.9767,39.1575],[20.9756,39.1574],[20.976,39.1565],[20.9767,39.1575]]]}},{"type":"Feature","properties":{"landuse":"orchard"},"geometry":{"type":"Polygon","coordinates":[[[20.9748,39.1551],[20.974,39.1538],[20.9759,39.1545],[20.9748,39.1551]]]}},{"type":"Feature","properties":{"landuse":"farmland"},"geometry":{"type":"Polygon","coordinates":[[[20.869,39.6041],[20.8722,39.6059],[20.8695,39.6109],[20.8661,39.6109],[20.869,39.6041]]]}},{"type":"Feature","properties":{"landuse":"farmland"},"geometry":{"type":"Polygon","coordinates":[[[20.8644,39.6069],[20.8655,39.6061],[20.8653,39.6077],[20.8644,39.6069]]]}},{"type":"Feature","properties":{"landuse":"farmland"},"geometry":{"type":"Polygon","coordinates":[[[20.8656,39.6133],[20.8642,39.6126],[20.8651,39.611],[20.8656,39.6133]]]}},{"type":"Feature","properties":{"landuse":"farmland"},"geometry":{"type":"Polygon","coordinates":[[[20.8664,39.6121],[20.8675,39.6113],[20.8675,39.6132],[20.8664,39.6121]]]}},{"type":"Feature","properties":{"landuse":"farmland"},"geometry":{"type":"Polygon","coordinates":[[[20.867,39.6156],[20.8656,39.6156],[20.866,39.6133],[20.867,39.6156]]]}},{"type":"Feature","properties":{"landuse":"farmland"},"geometry":{"type":"Polygon","coordinates":[[[20.868,39.611],[20.8695,39.6131],[20.868,39.6132],[20.868,39.611]]]}},{"type":"Feature","properties":{"landuse":"farmland"},"geometry":{"type":"Polygon","coordinates":[[[20.8685,39.6153],[20.8671,39.6133],[20.8684,39.6133],[20.8685,39.6153]]]}},{"type":"Feature","properties":{"landuse":"farmland"},"geometry":{"type":"Polygon","coordinates":[[[20.8686,39.6183],[20.8687,39.62],[20.8673,39.62],[20.8686,39.6183]]]}},{"type":"Feature","properties":{"landuse":"farmland"},"geometry":{"type":"Polygon","coordinates":[[[20.8672,39.6204],[20.8657,39.6179],[20.8671,39.6179],[20.8672,39.6204]]]}},{"type":"Feature","properties":{"landuse":"farmland"},"geometry":{"type":"Polygon","coordinates":[[[20.8707,39.6168],[20.8685,39.6134],[20.8704,39.6136],[20.8707,39.6168]]]}},{"type":"Feature","properties":{"landuse":"farmland"},"geometry":{"type":"Polygon","coordinates":[[[20.8698,39.6206],[20.8708,39.6136],[20.8734,39.6175],[20.8698,39.6206]]]}},{"type":"Feature","properties":{"landuse":"farmland"},"geometry":{"type":"Polygon","coordinates":[[[20.8696,39.6103],[20.8724,39.6132],[20.8698,39.6135],[20.8696,39.6103]]]}},{"type":"Feature","properties":{"landuse":"farmland"},"geometry":{"type":"Polygon","coordinates":[[[20.8707,39.6213],[20.8728,39.6137],[20.8758,39.6135],[20.878,39.6162],[20.8707,39.6213]]]}},{"type":"Feature","properties":{"landuse":"orchard"},"geometry":{"type":"Polygon","coordinates":[[[20.9871,39.1458],[20.9884,39.1436],[20.9892,39.1441],[20.9871,39.1458]]]}},{"type":"Feature","properties":{"landuse":"orchard"},"geometry":{"type":"Polygon","coordinates":[[[21.0985,39.0771],[21.0968,39.0759],[21.0985,39.0756],[21.0985,39.0771]]]}},{"type":"Feature","properties":{"landuse":"farmland"},"geometry":{"type":"Polygon","coordinates":[[[20.8588,39.7009],[20.8568,39.6949],[20.8603,39.6951],[20.8588,39.7009]]]}},{"type":"Feature","properties":{"landuse":"farmland"},"geometry":{"type":"Polygon","coordinates":[[[21.1887,39.7617],[21.1894,39.7625],[21.1877,39.7633],[21.1887,39.7617]]]}}]}