{"type":"FeatureCollection","features":[{"type":"Feature","properties":{"landuse":"orchard"},"geometry":{"type":"MultiPolygon","coordinates":[[[[24.7529,40.7125],[24.7531,40.7109],[24.755,40.7109],[24.7529,40.7125]]],[[[24.7526,40.7219],[24.7457,40.7203],[24.7409,40.7267],[24.7379,40.7249],[24.7414,40.724],[24.7369,40.7198],[24.7384,40.7157],[24.7334,40.7114],[24.7395,40.7117],[24.7361,40.7095],[24.7424,40.7052],[24.7526,40.7095],[24.7493,40.7118],[24.7535,40.7148],[24.7526,40.7219]],[[24.7437,40.7165],[24.7445,40.7173],[24.745,40.7166],[24.7437,40.7165]],[[24.7402,40.7157],[24.7432,40.7153],[24.7397,40.7145],[24.7402,40.7157]],[[24.7437,40.7146],[24.7434,40.7155],[24.7439,40.7156],[24.7437,40.7146]],[[24.7439,40.7134],[24.7437,40.7141],[24.7475,40.715],[24.7439,40.7134]],[[24.7477,40.7197],[24.7482,40.7199],[24.7481,40.7194],[24.7477,40.7197]],[[24.7464,40.7197],[24.7471,40.7198],[24.747,40.7194],[24.7464,40.7197]]],[[[24.7342,40.7007],[24.7356,40.701],[24.735,40.7015],[24.7342,40.7007]]],[[[24.7379,40.7013],[24.7415,40.7018],[24.7398,40.7024],[24.7379,40.7013]]],[[[24.7364,40.7009],[24.7371,40.7011],[24.737,40.7018],[24.7364,40.7009]]],[[[24.7423,40.7003],[24.7418,40.6999],[24.7428,40.7006],[24.7423,40.7003]]],[[[24.743,40.7025],[24.7416,40.7008],[24.7426,40.7013],[24.743,40.7025]]],[[[24.7448,40.7022],[24.7451,40.702],[24.7456,40.7026],[24.7448,40.7022]]],[[[24.7437,40.7031],[24.7455,40.7038],[24.7449,40.7045],[24.7437,40.7031]]],[[[24.7406,40.7042],[24.7395,40.7048],[24.7398,40.7041],[24.7406,40.7042]]],[[[24.7404,40.7054],[24.7409,40.7048],[24.7411,40.7051],[24.7404,40.7054]]],[[[24.7521,40.7258],[24.7545,40.7261],[24.7538,40.7274],[24.7521,40.7258]]],[[[24.7369,40.706],[24.7377,40.706],[24.7376,40.7064],[24.7369,40.706]]],[[[24.743,40.7048],[24.7428,40.7036],[24.7442,40.7045],[24.743,40.7048]]],[[[24.7546,40.7126],[24.7558,40.7141],[24.7515,40.7136],[24.7546,40.7126]]],[[[24.7507,40.7224],[24.7528,40.723],[24.7487,40.7249],[24.7457,40.7219],[24.7507,40.7224]]]]}},{"type":"Feature","properties":{"landuse":"orchard"},"geometry":{"type":"MultiPolygon","coordinates":[[[[24.7614,40.7057],[24.7608,40.7047],[24.7628,40.7044],[24.7614,40.7057]]],[[[24.7604,40.7049],[24.7607,40.7053],[24.7601,40.7054],[24.7604,40.7049]]]]}},{"type":"Feature","properties":{"landuse":"farmland"},"geometry":{"type":"Polygon","coordinates":[[[24.3057,41.0011],[24.2959,40.9939],[24.2817,40.9614],[24.3235,40.9527],[24.3276,40.9607],[24.3184,40.9683],[24.3153,40.9762],[24.3154,40.9799],[24.3214,40.9811],[24.3057,41.0011]]]}},{"type":"Feature","properties":{"landuse":"farmland"},"geometry":{"type":"Polygon","coordinates":[[[25.9226,40.86],[25.9105,40.8676],[25.9111,40.8746],[25.9066,40.8738],[25.9066,40.8614],[25.9226,40.86]]]}},{"type":"Feature","properties":{"landuse":"farmland"},"geometry":{"type":"Polygon","coordinates":[[[25.9088,40.859],[25.9132,40.8581],[25.9115,40.8554],[25.925,40.8576],[25.9088,40.859]]]}},{"type":"Feature","properties":{"landuse":"farmland"},"geometry":{"type":"Polygon","coordinates":[[[26.3221,41.2112],[26.3276,41.2184],[26.3184,41.2324],[26.3153,41.2316],[26.3138,41.2189],[26.3093,41.2159],[26.3221,41.2112]]]}},{"type":"Feature","properties":{"landuse":"farmland"},"geometry":{"type":"Polygon","coordinates":[[[25.3708,41.0884],[25.3758,41.0893],[25.3776,41.0977],[25.3681,41.0995],[25.3624,41.0923],[25.3708,41.0884]]]}},{"type":"Feature","properties":{"landuse":"farmland"},"geometry":{"type":"Polygon","coordinates":[[[25.3704,41.0883],[25.3619,41.0914],[25.3538,41.0844],[25.3704,41.0883]]]}},{"type":"Feature","properties":{"landuse":"farmland"},"geometry":{"type":"Polygon","coordinates":[[[25.3708,41.0882],[25.3555,41.0851],[25.3534,41.0809],[25.3675,41.0825],[25.3708,41.0882]]]}},{"type":"Feature","properties":{"landuse":"farmland"},"geometry":{"type":"Polygon","coordinates":[[[23.9663,41.1862],[23.98,41.183],[23.9647,41.1952],[23.9663,41.1862]]]}},{"type":"Feature","properties":{"landuse":"farmland"},"geometry":{"type":"Polygon","coordinates":[[[24.2722,40.9633],[24.2779,40.9212],[24.2871,40.9235],[24.2913,40.9307],[24.3032,40.9311],[24.3463,40.9486],[24.3503,40.9548],[24.3569,40.9562],[24.3548,40.9634],[24.3416,40.966],[24.3329,40.9665],[24.3257,40.963],[24.328,40.9601],[24.324,40.952],[24.2722,40.9633]]]}},{"type":"Feature","properties":{"landuse":"green_public_spaces"},"geometry":{"type":"Polygon","coordinates":[[[25.3752,41.0921],[25.3682,41.0999],[25.3728,41.1073],[25.3713,41.1104],[25.3561,41.1063],[25.3363,41.0774],[25.3371,41.0573],[25.3565,41.0511],[25.3679,41.0777],[25.3778,41.0907],[25.3752,41.0921]]]}},{"type":"Feature","properties":{"landuse":"orchard"},"geometry":{"type":"Polygon","coordinates":[[[24.7448,40.7297],[24.7396,40.7297],[24.7448,40.7267],[24.7448,40.7297]]]}},{"type":"Feature","properties":{"landuse":"green_public_spaces"},"geometry":{"type":"Polygon","coordinates":[[[25.3985,41.1162],[25.398,41.115],[25.3994,41.1156],[25.3985,41.1162]]]}},{"type":"Feature","properties":{"landuse":"orchard"},"geometry":{"type":"Polygon","coordinates":[[[24.7578,40.734],[24.7609,40.7342],[24.759,40.7351],[24.7578,40.734]]]}},{"type":"Feature","properties":{"landuse":"green_public_spaces"},"geometry":{"type":"Polygon","coordinates":[[[24.7016,40.9855],[24.7028,40.9846],[24.7029,40.9853],[24.7016,40.9855]]]}},{"type":"Feature","properties":{"landuse":"farmland"},"geometry":{"type":"Polygon","coordinates":[[[24.4684,40.9508],[24.4746,40.9529],[24.4756,40.9602],[24.4815,40.9612],[24.4803,40.963],[24.4664,40.9561],[24.4684,40.9508]]]}},{"type":"Feature","properties":{"landuse":"farmland"},"geometry":{"type":"Polygon","coordinates":[[[24.4708,40.9642],[24.4718,40.9631],[24.473,40.9636],[24.4708,40.9642]]]}},{"type":"Feature","properties":{"landuse":"farmland"},"geometry":{"type":"Polygon","coordinates":[[[24.4622,40.9663],[24.4683,40.9657],[24.4666,40.9671],[24.4622,40.9663]]]}},{"type":"Feature","properties":{"landuse":"farmland"},"geometry":{"type":"Polygon","coordinates":[[[24.4703,40.9623],[24.4712,40.9612],[24.4727,40.962],[24.4703,40.9623]]]}},{"type":"Feature","properties":{"landuse":"farmland"},"geometry":{"type":"Polygon","coordinates":[[[24.4676,40.9698],[24.4657,40.9687],[24.4704,40.9669],[24.4676,40.9698]]]}},{"type":"Feature","properties":{"landuse":"orchard"},"geometry":{"type":"Polygon","coordinates":[[[24.4594,40.9651],[24.4605,40.9641],[24.4609,40.965],[24.4594,40.9651]]]}},{"type":"Feature","properties":{"landuse":"farmland"},"geometry":{"type":"Polygon","coordinates":[[[24.4647,40.9643],[24.4642,40.9628],[24.465,40.963],[24.4647,40.9643]]]}},{"type":"Feature","properties":{"landuse":"orchard"},"geometry":{"type":"Polygon","coordinates":[[[24.457,40.9657],[24.4585,40.9655],[24.4573,40.9669],[24.457,40.9657]]]}},{"type":"Feature","properties":{"landuse":"orchard"},"geometry":{"type":"Polygon","coordinates":[[[24.4635,40.9645],[24.463,40.9631],[24.4645,40.9643],[24.4635,40.9645]]]}},{"type":"Feature","properties":{"landuse":"farmland"},"geometry":{"type":"Polygon","coordinates":[[[24.4656,40.9641],[24.465,40.9618],[24.4681,40.9623],[24.4656,40.9641]]]}},{"type":"Feature","properties":{"landuse":"farmland"},"geometry":{"type":"Polygon","coordinates":[[[24.4555,40.9651],[24.4583,40.9636],[24.4594,40.9651],[24.4555,40.9651]]]}},{"type":"Feature","properties":{"landuse":"farmland"},"geometry":{"type":"Polygon","coordinates":[[[24.457,40.9657],[24.456,40.9672],[24.4557,40.966],[24.457,40.9657]]]}},{"type":"Feature","properties":{"landuse":"orchard"},"geometry":{"type":"Polygon","coordinates":[[[24.4644,40.966],[24.464,40.9646],[24.4651,40.966],[24.4644,40.966]]]}},{"type":"Feature","properties":{"landuse":"farmland"},"geometry":{"type":"Polygon","coordinates":[[[24.4623,40.9647],[24.4619,40.9634],[24.4635,40.9645],[24.4623,40.9647]]]}},{"type":"Feature","properties":{"landuse":"farmland"},"geometry":{"type":"Polygon","coordinates":[[[24.4551,40.9681],[24.4549,40.9695],[24.4538,40.9692],[24.4551,40.9681]]]}},{"type":"Feature","properties":{"landuse":"farmland"},"geometry":{"type":"Polygon","coordinates":[[[24.4551,40.9718],[24.457,40.9678],[24.4561,40.9714],[24.4551,40.9718]]]}},{"type":"Feature","properties":{"landuse":"farmland"},"geometry":{"type":"Polygon","coordinates":[[[24.4612,40.966],[24.4609,40.965],[24.4622,40.9658],[24.4612,40.966]]]}},{"type":"Feature","properties":{"landuse":"farmland"},"geometry":{"type":"Polygon","coordinates":[[[24.4538,40.9692],[24.4542,40.9715],[24.4518,40.9705],[24.4538,40.9692]]]}},{"type":"Feature","properties":{"landuse":"farmland"},"geometry":{"type":"Polygon","coordinates":[[[26.3126,41.2112],[26.3095,41.1937],[26.299,41.182],[26.2973,41.1746],[26.3007,41.1638],[26.3075,41.1601],[26.3095,41.1608],[26.3061,41.1789],[26.3212,41.1898],[26.3184,41.1947],[26.3147,41.1949],[26.3175,41.196],[26.3216,41.211],[26.3133,41.2147],[26.3126,41.2112]]]}},{"type":"Feature","properties":{"landuse":"green_public_spaces"},"geometry":{"type":"Polygon","coordinates":[[[26.5356,41.504],[26.5369,41.5031],[26.5368,41.5051],[26.5356,41.504]]]}},{"type":"Feature","properties":{"landuse":"green_public_spaces"},"geometry":{"type":"Polygon","coordinates":[[[26.5353,41.5004],[26.5366,41.5003],[26.537,41.5029],[26.5353,41.5004]]]}},{"type":"Feature","properties":{"landuse":"green_public_spaces"},"geometry":{"type":"Polygon","coordinates":[[[24.8911,41.144],[24.8899,41.1434],[24.8955,41.1414],[24.8911,41.144]]]}},{"type":"Feature","properties":{"landuse":"farmland"},"geometry":{"type":"Polygon","coordinates":[[[23.9987,41.1526],[24.0025,41.1731],[23.9962,41.1723],[23.998,41.1776],[23.9822,41.1818],[23.9833,41.1796],[23.9723,41.1722],[23.9737,41.1653],[23.9987,41.1526]]]}},{"type":"Feature","properties":{"landuse":"farmland"},"geometry":{"type":"Polygon","coordinates":[[[24.2727,40.9271],[24.2727,40.921],[24.275,40.9215],[24.2727,40.9271]]]}},{"type":"Feature","properties":{"landuse":"farmland"},"geometry":{"type":"Polygon","coordinates":[[[24.2817,40.8232],[24.282,40.8219],[24.2837,40.8228],[24.2817,40.8232]]]}},{"type":"Feature","properties":{"landuse":"farmland"},"geometry":{"type":"Polygon","coordinates":[[[25.3879,41.1195],[25.3877,41.1184],[25.3898,41.1182],[25.3879,41.1195]]]}},{"type":"Feature","properties":{"landuse":"orchard"},"geometry":{"type":"Polygon","coordinates":[[[24.353,40.9698],[24.3546,40.9678],[24.3553,40.97],[24.353,40.9698]]]}},{"type":"Feature","properties":{"landuse":"green_public_spaces"},"geometry":{"type":"Polygon","coordinates":[[[25.8872,40.864],[25.8869,40.8626],[25.8892,40.8623],[25.8895,40.8637],[25.8872,40.864]]]}},{"type":"Feature","properties":{"landuse":"orchard"},"geometry":{"type":"Polygon","coordinates":[[[26.1521,40.873],[26.153,40.8738],[26.1498,40.8747],[26.1521,40.873]]]}},{"type":"Feature","properties":{"landuse":"orchard"},"geometry":{"type":"Polygon","coordinates":[[[26.1711,40.9075],[26.1704,40.9068],[26.1716,40.906],[26.1711,40.9075]]]}},{"type":"Feature","properties":{"landuse":"farmland"},"geometry":{"type":"Polygon","coordinates":[[[24.6952,40.9719],[24.6968,40.9712],[24.697,40.9729],[24.6952,40.9719]]]}},{"type":"Feature","properties":{"landuse":"green_public_spaces"},"geometry":{"type":"Polygon","coordinates":[[[25.8811,40.8576],[25.8817,40.8549],[25.883,40.8557],[25.8811,40.8576]]]}},{"type":"Feature","properties":{"landuse":"orchard"},"geometry":{"type":"Polygon","coordinates":[[[24.3304,40.9719],[24.3309,40.9713],[24.332,40.9718],[24.3315,40.9724],[24.3304,40.9719]]]}},{"type":"Feature","properties":{"landuse":"orchard"},"geometry":{"type":"Polygon","coordinates":[[[24.7157,40.7835],[24.7164,40.782],[24.716,40.7845],[24.7157,40.7835]]]}},{"type":"Feature","properties":{"landuse":"orchard"},"geometry":{"type":"Polygon","coordinates":[[[24.7161,40.7811],[24.7158,40.7797],[24.7179,40.7794],[24.7161,40.7811]]]}},{"type":"Feature","properties":{"landuse":"orchard"},"geometry":{"type":"Polygon","coordinates":[[[24.7143,40.7788],[24.7176,40.7789],[24.7156,40.7794],[24.7143,40.7788]]]}},{"type":"Feature","properties":{"landuse":"orchard"},"geometry":{"type":"Polygon","coordinates":[[[24.0884,41.1251],[24.0875,41.1252],[24.0875,41.1234],[24.0884,41.1234],[24.0884,41.1251]]]}},{"type":"Feature","properties":{"landuse":"orchard"},"geometry":{"type":"Polygon","coordinates":[[[24.0899,41.1234],[24.09,41.1251],[24.0889,41.1251],[24.0899,41.1234]]]}},{"type":"Feature","properties":{"landuse":"orchard"},"geometry":{"type":"Polygon","coordinates":[[[24.0913,41.1251],[24.0904,41.1251],[24.0904,41.1234],[24.0913,41.1251]]]}},{"type":"Feature","properties":{"landuse":"orchard"},"geometry":{"type":"Polygon","coordinates":[[[24.1056,41.1298],[24.104,41.1298],[24.104,41.1293],[24.1056,41.1293],[24.1056,41.1298]]]}}]}