{"type":"FeatureCollection","features":[{"type":"Feature","properties":{"landuse":"farmland"},"geometry":{"type":"Polygon","coordinates":[[[24.6388,40.9248],[24.6429,40.9246],[24.6382,40.9294],[24.6388,40.9248]]]}},{"type":"Feature","properties":{"landuse":"farmland"},"geometry":{"type":"Polygon","coordinates":[[[24.6364,40.9311],[24.6364,40.9287],[24.638,40.9296],[24.6364,40.9311]]]}},{"type":"Feature","properties":{"landuse":"farmland"},"geometry":{"type":"Polygon","coordinates":[[[24.6442,40.9239],[24.6417,40.9224],[24.6483,40.9161],[24.6501,40.9184],[24.6442,40.9239]]]}},{"type":"Feature","properties":{"landuse":"farmland"},"geometry":{"type":"Polygon","coordinates":[[[24.6443,40.9165],[24.6462,40.9176],[24.6395,40.9212],[24.6443,40.9165]]]}},{"type":"Feature","properties":{"landuse":"farmland"},"geometry":{"type":"Polygon","coordinates":[[[24.6406,40.9198],[24.6385,40.9188],[24.6436,40.914],[24.6406,40.9198]]]}},{"type":"Feature","properties":{"landuse":"farmland"},"geometry":{"type":"Polygon","coordinates":[[[24.6373,40.9201],[24.6384,40.9189],[24.6402,40.92],[24.6373,40.9201]]]}},{"type":"Feature","properties":{"landuse":"farmland"},"geometry":{"type":"Polygon","coordinates":[[[24.1307,41.1658],[24.1299,41.1677],[24.131,41.1656],[24.1399,41.1718],[24.137,41.175],[24.1389,41.1836],[24.1153,41.1877],[24.1168,41.1775],[24.1278,41.1643],[24.1307,41.1658]],[[24.1312,41.1685],[24.1303,41.1686],[24.1307,41.1688],[24.1312,41.1685]]]}},{"type":"Feature","properties":{"landuse":"green_public_spaces"},"geometry":{"type":"Polygon","coordinates":[[[24.4363,40.9667],[24.4358,40.973],[24.4279,40.9823],[24.428,40.9877],[24.4075,40.9914],[24.3934,40.9841],[24.3914,40.9748],[24.3865,40.9701],[24.362,40.9604],[24.372,40.9476],[24.3554,40.9485],[24.3499,40.9416],[24.3556,40.9346],[24.3706,40.9348],[24.3741,40.938],[24.3841,40.9383],[24.3907,40.9439],[24.3987,40.9426],[24.4048,40.9473],[24.4171,40.9446],[24.4235,40.955],[24.4393,40.9571],[24.4417,40.9497],[24.4487,40.9481],[24.4464,40.9535],[24.4503,40.9542],[24.4442,40.9636],[24.4363,40.9667]]]}},{"type":"Feature","properties":{"landuse":"green_public_spaces"},"geometry":{"type":"Polygon","coordinates":[[[25.4064,41.1175],[25.4067,41.1165],[25.4087,41.1175],[25.4064,41.1175]]]}},{"type":"Feature","properties":{"landuse":"green_public_spaces"},"geometry":{"type":"Polygon","coordinates":[[[25.3985,41.1162],[25.398,41.115],[25.3994,41.1156],[25.3985,41.1162]]]}},{"type":"Feature","properties":{"landuse":"farmland"},"geometry":{"type":"Polygon","coordinates":[[[24.6543,40.9165],[24.652,40.9117],[24.6537,40.91],[24.6543,40.9165]]]}},{"type":"Feature","properties":{"landuse":"green_public_spaces"},"geometry":{"type":"Polygon","coordinates":[[[24.1417,41.1506],[24.1404,41.1487],[24.1438,41.1492],[24.1417,41.1506]]]}},{"type":"Feature","properties":{"landuse":"green_public_spaces"},"geometry":{"type":"Polygon","coordinates":[[[24.1448,41.148],[24.1467,41.1467],[24.1469,41.1489],[24.1448,41.148]]]}},{"type":"Feature","properties":{"landuse":"green_public_spaces"},"geometry":{"type":"Polygon","coordinates":[[[24.1471,41.1595],[24.1407,41.1572],[24.1454,41.1553],[24.1471,41.1595]]]}},{"type":"Feature","properties":{"landuse":"green_public_spaces"},"geometry":{"type":"Polygon","coordinates":[[[24.1219,41.1534],[24.1218,41.151],[24.1233,41.1533],[24.1219,41.1534]]]}},{"type":"Feature","properties":{"landuse":"farmland"},"geometry":{"type":"Polygon","coordinates":[[[24.6365,40.9197],[24.6392,40.9149],[24.643,40.914],[24.6365,40.9197]]]}},{"type":"Feature","properties":{"landuse":"farmland"},"geometry":{"type":"Polygon","coordinates":[[[24.6364,40.9313],[24.6413,40.9268],[24.6436,40.928],[24.6381,40.9332],[24.6364,40.9313]]]}},{"type":"Feature","properties":{"landuse":"farmland"},"geometry":{"type":"Polygon","coordinates":[[[24.6417,40.9263],[24.6476,40.9242],[24.6438,40.9279],[24.6417,40.9263]]]}},{"type":"Feature","properties":{"landuse":"orchard"},"geometry":{"type":"Polygon","coordinates":[[[24.4594,40.9651],[24.4605,40.9641],[24.4609,40.965],[24.4594,40.9651]]]}},{"type":"Feature","properties":{"landuse":"orchard"},"geometry":{"type":"Polygon","coordinates":[[[24.457,40.9657],[24.4585,40.9655],[24.4573,40.9669],[24.457,40.9657]]]}},{"type":"Feature","properties":{"landuse":"orchard"},"geometry":{"type":"Polygon","coordinates":[[[24.4635,40.9645],[24.463,40.9631],[24.4645,40.9643],[24.4635,40.9645]]]}},{"type":"Feature","properties":{"landuse":"farmland"},"geometry":{"type":"Polygon","coordinates":[[[24.4555,40.9651],[24.4583,40.9636],[24.4594,40.9651],[24.4555,40.9651]]]}},{"type":"Feature","properties":{"landuse":"farmland"},"geometry":{"type":"Polygon","coordinates":[[[24.457,40.9657],[24.456,40.9672],[24.4557,40.966],[24.457,40.9657]]]}},{"type":"Feature","properties":{"landuse":"farmland"},"geometry":{"type":"Polygon","coordinates":[[[24.4623,40.9647],[24.4619,40.9634],[24.4635,40.9645],[24.4623,40.9647]]]}},{"type":"Feature","properties":{"landuse":"farmland"},"geometry":{"type":"Polygon","coordinates":[[[24.4551,40.9681],[24.4549,40.9695],[24.4538,40.9692],[24.4551,40.9681]]]}},{"type":"Feature","properties":{"landuse":"farmland"},"geometry":{"type":"Polygon","coordinates":[[[24.4612,40.966],[24.4609,40.965],[24.4622,40.9658],[24.4612,40.966]]]}},{"type":"Feature","properties":{"landuse":"green_public_spaces"},"geometry":{"type":"Polygon","coordinates":[[[24.8911,41.144],[24.8899,41.1434],[24.8955,41.1414],[24.8911,41.144]]]}},{"type":"Feature","properties":{"landuse":"farmland"},"geometry":{"type":"Polygon","coordinates":[[[24.1242,41.1479],[24.1225,41.1489],[24.1222,41.1457],[24.1242,41.1479]]]}},{"type":"Feature","properties":{"landuse":"farmland"},"geometry":{"type":"Polygon","coordinates":[[[24.1207,41.1486],[24.1204,41.1451],[24.1225,41.1485],[24.1207,41.1486]]]}},{"type":"Feature","properties":{"landuse":"farmland"},"geometry":{"type":"Polygon","coordinates":[[[24.1381,41.1683],[24.1296,41.1646],[24.1358,41.1611],[24.1381,41.1683]]]}},{"type":"Feature","properties":{"landuse":"farmland"},"geometry":{"type":"Polygon","coordinates":[[[24.1304,41.1618],[24.1286,41.1634],[24.1274,41.1625],[24.1304,41.1618]]]}},{"type":"Feature","properties":{"landuse":"farmland"},"geometry":{"type":"Polygon","coordinates":[[[25.3879,41.1195],[25.3877,41.1184],[25.3898,41.1182],[25.3879,41.1195]]]}},{"type":"Feature","properties":{"landuse":"farmland"},"geometry":{"type":"Polygon","coordinates":[[[24.6146,40.9106],[24.6057,40.9059],[24.6107,40.9075],[24.6146,40.9106]]]}},{"type":"Feature","properties":{"landuse":"farmland"},"geometry":{"type":"Polygon","coordinates":[[[24.6321,40.9307],[24.6167,40.9347],[24.6134,40.9339],[24.6154,40.9279],[24.6098,40.9265],[24.6161,40.9198],[24.6337,40.9289],[24.6321,40.9307]]]}},{"type":"Feature","properties":{"landuse":"farmland"},"geometry":{"type":"Polygon","coordinates":[[[24.6134,40.9339],[24.6022,40.9347],[24.6098,40.9265],[24.6154,40.9279],[24.6134,40.9339]]]}},{"type":"Feature","properties":{"landuse":"farmland"},"geometry":{"type":"Polygon","coordinates":[[[24.6281,40.935],[24.632,40.932],[24.6362,40.9335],[24.6281,40.935]]]}}]}