{"type":"FeatureCollection","features":[{"type":"Feature","properties":{"landuse":"orchard"},"geometry":{"type":"Polygon","coordinates":[[[20.9068,37.7706],[20.9053,37.7703],[20.9066,37.7677],[20.9068,37.7706]],[[20.9061,37.77],[20.9064,37.77],[20.9063,37.7696],[20.9061,37.77]],[[20.9061,37.7703],[20.9064,37.7702],[20.9061,37.7701],[20.9061,37.7703]]]}},{"type":"Feature","properties":{"landuse":"green_public_spaces"},"geometry":{"type":"MultiPolygon","coordinates":[[[[19.9242,39.6249],[19.9238,39.6237],[19.9254,39.6236],[19.9242,39.6249]]],[[[19.9237,39.6236],[19.9244,39.6213],[19.9255,39.623],[19.9237,39.6236]]]]}},{"type":"Feature","properties":{"landuse":"green_public_spaces"},"geometry":{"type":"Polygon","coordinates":[[[19.9237,39.6236],[19.9244,39.6213],[19.9255,39.623],[19.9237,39.6236]]]}},{"type":"Feature","properties":{"landuse":"green_public_spaces"},"geometry":{"type":"Polygon","coordinates":[[[20.9057,37.7368],[20.9113,37.7373],[20.9075,37.7373],[20.9057,37.7368]]]}},{"type":"Feature","properties":{"landuse":"green_public_spaces"},"geometry":{"type":"Polygon","coordinates":[[[19.9271,39.6106],[19.9218,39.6118],[19.9228,39.611],[19.9271,39.6106]]]}},{"type":"Feature","properties":{"landuse":"orchard"},"geometry":{"type":"Polygon","coordinates":[[[20.0959,39.404],[20.092,39.4099],[20.0827,39.4116],[20.0787,39.4026],[20.0818,39.4003],[20.0811,39.3853],[20.0865,39.3841],[20.0893,39.3785],[20.0937,39.383],[20.0966,39.3784],[20.1004,39.3789],[20.1032,39.3847],[20.1009,39.3757],[20.0891,39.3735],[20.0945,39.3715],[20.0936,39.369],[20.1024,39.3663],[20.1071,39.3699],[20.1148,39.3692],[20.1182,39.3746],[20.1157,39.3762],[20.1104,39.3767],[20.1064,39.3719],[20.1045,39.3745],[20.1146,39.3795],[20.1069,39.39],[20.1048,39.3887],[20.1063,39.3907],[20.0959,39.404]]]}},{"type":"Feature","properties":{"landuse":"orchard"},"geometry":{"type":"Polygon","coordinates":[[[20.0924,39.4133],[20.0939,39.4125],[20.095,39.4133],[20.0924,39.4133]]]}},{"type":"Feature","properties":{"landuse":"orchard"},"geometry":{"type":"Polygon","coordinates":[[[20.0938,39.4076],[20.0944,39.4117],[20.0909,39.4133],[20.0938,39.4076]]]}},{"type":"Feature","properties":{"landuse":"orchard"},"geometry":{"type":"Polygon","coordinates":[[[20.0901,39.4135],[20.0946,39.4153],[20.0937,39.4174],[20.0859,39.4193],[20.0901,39.4135]]]}},{"type":"Feature","properties":{"landuse":"green_public_spaces"},"geometry":{"type":"Polygon","coordinates":[[[19.9041,39.5637],[19.9047,39.5621],[19.9097,39.563],[19.9041,39.5637]]]}},{"type":"Feature","properties":{"landuse":"orchard"},"geometry":{"type":"Polygon","coordinates":[[[19.934,39.4747],[19.9339,39.4733],[19.9353,39.4741],[19.934,39.4747]]]}},{"type":"Feature","properties":{"landuse":"green_public_spaces"},"geometry":{"type":"Polygon","coordinates":[[[19.9209,39.6131],[19.9209,39.6167],[19.9211,39.6122],[19.9209,39.6131]]]}},{"type":"Feature","properties":{"landuse":"green_public_spaces"},"geometry":{"type":"Polygon","coordinates":[[[19.9227,39.604],[19.9249,39.6015],[19.9276,39.6035],[19.9268,39.6091],[19.9229,39.6078],[19.9227,39.604]]]}},{"type":"Feature","properties":{"landuse":"farmland"},"geometry":{"type":"Polygon","coordinates":[[[20.8822,37.7496],[20.8826,37.7482],[20.8832,37.7487],[20.8822,37.7496]]]}},{"type":"Feature","properties":{"landuse":"farmland"},"geometry":{"type":"Polygon","coordinates":[[[20.8825,37.7494],[20.8838,37.7495],[20.8829,37.7517],[20.8825,37.7494]]]}},{"type":"Feature","properties":{"landuse":"orchard"},"geometry":{"type":"Polygon","coordinates":[[[20.9088,37.7695],[20.9069,37.7676],[20.9079,37.7668],[20.9088,37.7695]]]}},{"type":"Feature","properties":{"landuse":"orchard"},"geometry":{"type":"Polygon","coordinates":[[[20.9151,37.7667],[20.9143,37.7662],[20.9151,37.7645],[20.9151,37.7667]]]}},{"type":"Feature","properties":{"landuse":"orchard"},"geometry":{"type":"Polygon","coordinates":[[[20.9089,37.7698],[20.9095,37.7704],[20.9084,37.7711],[20.9089,37.7698]]]}},{"type":"Feature","properties":{"landuse":"orchard"},"geometry":{"type":"Polygon","coordinates":[[[19.9224,39.483],[19.9217,39.4842],[19.9219,39.4819],[19.9224,39.483]]]}},{"type":"Feature","properties":{"landuse":"orchard"},"geometry":{"type":"Polygon","coordinates":[[[19.9223,39.4863],[19.9235,39.4883],[19.9155,39.4879],[19.9223,39.4863]]]}},{"type":"Feature","properties":{"landuse":"orchard"},"geometry":{"type":"Polygon","coordinates":[[[19.9193,39.4903],[19.9209,39.4879],[19.9267,39.4893],[19.9193,39.4903]]]}},{"type":"Feature","properties":{"landuse":"orchard"},"geometry":{"type":"Polygon","coordinates":[[[19.9048,39.5275],[19.907,39.527],[19.9072,39.5281],[19.9048,39.5275]]]}},{"type":"Feature","properties":{"landuse":"orchard"},"geometry":{"type":"Polygon","coordinates":[[[19.9096,39.5272],[19.9084,39.5274],[19.9089,39.5261],[19.9096,39.5272]]]}},{"type":"Feature","properties":{"landuse":"farmland"},"geometry":{"type":"Polygon","coordinates":[[[19.92,39.4757],[19.917,39.4757],[19.9191,39.4744],[19.92,39.4757]]]}},{"type":"Feature","properties":{"landuse":"farmland"},"geometry":{"type":"Polygon","coordinates":[[[19.9287,39.4845],[19.9289,39.4859],[19.926,39.4848],[19.9287,39.4845]]]}},{"type":"Feature","properties":{"landuse":"orchard"},"geometry":{"type":"Polygon","coordinates":[[[20.4714,38.1897],[20.4708,38.1877],[20.4719,38.188],[20.4714,38.1897]]]}},{"type":"Feature","properties":{"landuse":"farmland"},"geometry":{"type":"Polygon","coordinates":[[[20.5724,38.626],[20.5732,38.6248],[20.5758,38.6271],[20.5724,38.626]]]}},{"type":"Feature","properties":{"landuse":"farmland"},"geometry":{"type":"Polygon","coordinates":[[[20.5777,38.6395],[20.5762,38.638],[20.5818,38.6395],[20.5777,38.6395]]]}},{"type":"Feature","properties":{"landuse":"orchard"},"geometry":{"type":"Polygon","coordinates":[[[20.6995,38.8239],[20.6984,38.822],[20.7012,38.8226],[20.6995,38.8239]]]}},{"type":"Feature","properties":{"landuse":"orchard"},"geometry":{"type":"Polygon","coordinates":[[[20.8792,37.7511],[20.8808,37.751],[20.88,37.7517],[20.8792,37.7511]]]}},{"type":"Feature","properties":{"landuse":"farmland"},"geometry":{"type":"Polygon","coordinates":[[[20.8892,37.7574],[20.8917,37.7555],[20.8926,37.7577],[20.8892,37.7574]]]}},{"type":"Feature","properties":{"landuse":"farmland"},"geometry":{"type":"Polygon","coordinates":[[[20.8926,37.7718],[20.8923,37.7733],[20.8914,37.7727],[20.8926,37.7718]]]}},{"type":"Feature","properties":{"landuse":"orchard"},"geometry":{"type":"Polygon","coordinates":[[[20.8925,37.7653],[20.8961,37.7634],[20.8963,37.7642],[20.8925,37.7653]]]}},{"type":"Feature","properties":{"landuse":"orchard"},"geometry":{"type":"Polygon","coordinates":[[[20.8966,37.7652],[20.8963,37.764],[20.8984,37.7637],[20.8966,37.7652]]]}},{"type":"Feature","properties":{"landuse":"orchard"},"geometry":{"type":"Polygon","coordinates":[[[20.9017,37.7704],[20.9026,37.7682],[20.9048,37.7681],[20.9017,37.7704]]]}},{"type":"Feature","properties":{"landuse":"vineyard"},"geometry":{"type":"Polygon","coordinates":[[[20.8626,37.7722],[20.8639,37.7724],[20.8626,37.7736],[20.8626,37.7722]]]}},{"type":"Feature","properties":{"landuse":"orchard"},"geometry":{"type":"Polygon","coordinates":[[[20.861,37.7749],[20.8619,37.7758],[20.8602,37.7759],[20.861,37.7749]]]}},{"type":"Feature","properties":{"landuse":"orchard"},"geometry":{"type":"Polygon","coordinates":[[[20.8603,37.7692],[20.855,37.7705],[20.8562,37.768],[20.8603,37.7692]]]}},{"type":"Feature","properties":{"landuse":"orchard"},"geometry":{"type":"Polygon","coordinates":[[[20.8543,37.7509],[20.8591,37.7531],[20.8547,37.7551],[20.8543,37.7509]]]}},{"type":"Feature","properties":{"landuse":"orchard"},"geometry":{"type":"Polygon","coordinates":[[[20.8583,37.7508],[20.8601,37.7501],[20.8606,37.7511],[20.8583,37.7508]]]}},{"type":"Feature","properties":{"landuse":"orchard"},"geometry":{"type":"Polygon","coordinates":[[[20.8582,37.7503],[20.8548,37.7509],[20.8552,37.7499],[20.8582,37.7503]]]}},{"type":"Feature","properties":{"landuse":"orchard"},"geometry":{"type":"Polygon","coordinates":[[[20.8481,37.7531],[20.849,37.7512],[20.8527,37.7535],[20.8481,37.7531]]]}},{"type":"Feature","properties":{"landuse":"orchard"},"geometry":{"type":"Polygon","coordinates":[[[20.8563,37.7432],[20.8565,37.7445],[20.8549,37.7437],[20.8563,37.7432]]]}},{"type":"Feature","properties":{"landuse":"orchard"},"geometry":{"type":"Polygon","coordinates":[[[20.4809,38.1761],[20.4799,38.1803],[20.4787,38.1777],[20.4809,38.1761]]]}},{"type":"Feature","properties":{"landuse":"orchard"},"geometry":{"type":"Polygon","coordinates":[[[19.8961,39.5792],[19.8977,39.5788],[19.8983,39.5801],[19.8961,39.5792]]]}},{"type":"Feature","properties":{"landuse":"orchard"},"geometry":{"type":"Polygon","coordinates":[[[20.6784,38.7023],[20.676,38.7023],[20.6846,38.7015],[20.6784,38.7023]]]}},{"type":"Feature","properties":{"landuse":"orchard"},"geometry":{"type":"Polygon","coordinates":[[[20.7196,38.8118],[20.7182,38.8114],[20.7206,38.8088],[20.7196,38.8118]]]}},{"type":"Feature","properties":{"landuse":"farmland"},"geometry":{"type":"Polygon","coordinates":[[[20.7188,38.8107],[20.7166,38.8097],[20.7195,38.809],[20.7188,38.8107]]]}},{"type":"Feature","properties":{"landuse":"orchard"},"geometry":{"type":"Polygon","coordinates":[[[20.7181,38.8089],[20.7182,38.8076],[20.7196,38.8082],[20.7181,38.8089]]]}},{"type":"Feature","properties":{"landuse":"orchard"},"geometry":{"type":"Polygon","coordinates":[[[20.8697,37.7772],[20.868,37.7758],[20.8708,37.7763],[20.8697,37.7772]]]}},{"type":"Feature","properties":{"landuse":"orchard"},"geometry":{"type":"Polygon","coordinates":[[[20.8735,37.7769],[20.8746,37.7787],[20.8715,37.7782],[20.8735,37.7769]]]}},{"type":"Feature","properties":{"landuse":"orchard"},"geometry":{"type":"Polygon","coordinates":[[[20.8704,37.7792],[20.8709,37.7779],[20.8742,37.7793],[20.8704,37.7792]]]}},{"type":"Feature","properties":{"landuse":"farmland"},"geometry":{"type":"Polygon","coordinates":[[[20.8733,37.7766],[20.8743,37.7762],[20.8747,37.7778],[20.8733,37.7766]]]}},{"type":"Feature","properties":{"landuse":"farmland"},"geometry":{"type":"Polygon","coordinates":[[[20.8744,37.7761],[20.8757,37.7756],[20.8752,37.7771],[20.8744,37.7761]]]}},{"type":"Feature","properties":{"landuse":"farmland"},"geometry":{"type":"Polygon","coordinates":[[[20.8779,37.7749],[20.8791,37.7757],[20.8783,37.776],[20.8779,37.7749]]]}},{"type":"Feature","properties":{"landuse":"orchard"},"geometry":{"type":"Polygon","coordinates":[[[20.8819,37.7741],[20.8819,37.7719],[20.8828,37.7729],[20.8819,37.7741]]]}},{"type":"Feature","properties":{"landuse":"orchard"},"geometry":{"type":"Polygon","coordinates":[[[20.8852,37.7759],[20.8871,37.7775],[20.8852,37.7781],[20.8852,37.7759]]]}},{"type":"Feature","properties":{"landuse":"orchard"},"geometry":{"type":"Polygon","coordinates":[[[20.7076,38.8148],[20.7085,38.8139],[20.7096,38.8149],[20.7076,38.8148]]]}},{"type":"Feature","properties":{"landuse":"orchard"},"geometry":{"type":"Polygon","coordinates":[[[19.9282,39.4881],[19.9263,39.4878],[19.9285,39.487],[19.9282,39.4881]]]}},{"type":"Feature","properties":{"landuse":"green_public_spaces"},"geometry":{"type":"Polygon","coordinates":[[[19.8576,39.6298],[19.8572,39.6288],[19.8588,39.6287],[19.8576,39.6298]]]}},{"type":"Feature","properties":{"landuse":"orchard"},"geometry":{"type":"Polygon","coordinates":[[[20.5644,38.6313],[20.5657,38.6332],[20.5633,38.6323],[20.5644,38.6313]]]}},{"type":"Feature","properties":{"landuse":"orchard"},"geometry":{"type":"Polygon","coordinates":[[[20.6101,38.6294],[20.6143,38.6327],[20.6105,38.6308],[20.6101,38.6294]]]}},{"type":"Feature","properties":{"landuse":"farmland"},"geometry":{"type":"Polygon","coordinates":[[[20.6027,38.6307],[20.6046,38.6319],[20.6034,38.6322],[20.6027,38.6307]]]}},{"type":"Feature","properties":{"landuse":"orchard"},"geometry":{"type":"Polygon","coordinates":[[[20.6045,38.632],[20.6057,38.6341],[20.6037,38.6322],[20.6045,38.632]]]}},{"type":"Feature","properties":{"landuse":"orchard"},"geometry":{"type":"Polygon","coordinates":[[[20.6029,38.641],[20.6021,38.6394],[20.6038,38.6393],[20.6029,38.641]]]}},{"type":"Feature","properties":{"landuse":"orchard"},"geometry":{"type":"Polygon","coordinates":[[[20.7121,38.8088],[20.7088,38.8073],[20.7159,38.8097],[20.7121,38.8088]]]}},{"type":"Feature","properties":{"landuse":"orchard"},"geometry":{"type":"Polygon","coordinates":[[[20.7128,38.8118],[20.7135,38.8102],[20.7156,38.8105],[20.7128,38.8118]]]}},{"type":"Feature","properties":{"landuse":"orchard"},"geometry":{"type":"Polygon","coordinates":[[[20.7118,38.8133],[20.7113,38.8145],[20.7108,38.8133],[20.7118,38.8133]]]}},{"type":"Feature","properties":{"landuse":"orchard"},"geometry":{"type":"Polygon","coordinates":[[[20.7132,38.8136],[20.7119,38.8121],[20.7138,38.8121],[20.7132,38.8136]]]}},{"type":"Feature","properties":{"landuse":"farmland"},"geometry":{"type":"Polygon","coordinates":[[[20.7179,38.8137],[20.7151,38.8136],[20.7169,38.8169],[20.7129,38.8151],[20.7164,38.8094],[20.7179,38.8137]]]}},{"type":"Feature","properties":{"landuse":"farmland"},"geometry":{"type":"Polygon","coordinates":[[[20.7181,38.8089],[20.7162,38.8077],[20.7181,38.8077],[20.7181,38.8089]]]}},{"type":"Feature","properties":{"landuse":"orchard"},"geometry":{"type":"Polygon","coordinates":[[[20.7127,38.8035],[20.7121,38.8043],[20.7107,38.8035],[20.7127,38.8035]]]}},{"type":"Feature","properties":{"landuse":"orchard"},"geometry":{"type":"Polygon","coordinates":[[[20.7062,38.8048],[20.7077,38.8063],[20.7029,38.8041],[20.7062,38.8048]]]}},{"type":"Feature","properties":{"landuse":"orchard"},"geometry":{"type":"Polygon","coordinates":[[[20.6988,38.8011],[20.6996,38.8024],[20.6975,38.8015],[20.6988,38.8011]]]}},{"type":"Feature","properties":{"landuse":"farmland"},"geometry":{"type":"Polygon","coordinates":[[[20.7169,38.8066],[20.7154,38.8043],[20.7191,38.8041],[20.7169,38.8066]]]}},{"type":"Feature","properties":{"landuse":"orchard"},"geometry":{"type":"Polygon","coordinates":[[[20.7068,38.8014],[20.7088,38.8014],[20.7075,38.8029],[20.7068,38.8014]]]}},{"type":"Feature","properties":{"landuse":"orchard"},"geometry":{"type":"Polygon","coordinates":[[[20.7031,38.8035],[20.7019,38.8016],[20.7035,38.8019],[20.7031,38.8035]]]}},{"type":"Feature","properties":{"landuse":"orchard"},"geometry":{"type":"Polygon","coordinates":[[[20.7034,38.7998],[20.7,38.7984],[20.7044,38.7986],[20.7051,38.7959],[20.7083,38.7991],[20.706,38.8017],[20.7034,38.7998]]]}},{"type":"Feature","properties":{"landuse":"orchard"},"geometry":{"type":"Polygon","coordinates":[[[20.6973,38.7978],[20.6991,38.8009],[20.6972,38.8006],[20.6973,38.7978]]]}},{"type":"Feature","properties":{"landuse":"orchard"},"geometry":{"type":"Polygon","coordinates":[[[20.698,38.8247],[20.6965,38.8256],[20.6957,38.8249],[20.698,38.8247]]]}},{"type":"Feature","properties":{"landuse":"orchard"},"geometry":{"type":"Polygon","coordinates":[[[20.6951,38.8263],[20.6944,38.8254],[20.6958,38.8255],[20.6951,38.8263]]]}},{"type":"Feature","properties":{"landuse":"orchard"},"geometry":{"type":"Polygon","coordinates":[[[20.6928,38.8054],[20.6947,38.8082],[20.6918,38.81],[20.6928,38.8054]]]}},{"type":"Feature","properties":{"landuse":"orchard"},"geometry":{"type":"Polygon","coordinates":[[[20.6847,38.7318],[20.6828,38.7315],[20.6845,38.731],[20.6847,38.7318]]]}},{"type":"Feature","properties":{"landuse":"orchard"},"geometry":{"type":"Polygon","coordinates":[[[20.7151,38.7212],[20.7141,38.719],[20.7169,38.7205],[20.7151,38.7212]]]}},{"type":"Feature","properties":{"landuse":"orchard"},"geometry":{"type":"Polygon","coordinates":[[[20.7208,38.7171],[20.7226,38.7173],[20.7199,38.718],[20.7208,38.7171]]]}},{"type":"Feature","properties":{"landuse":"orchard"},"geometry":{"type":"Polygon","coordinates":[[[20.7091,38.7188],[20.708,38.7217],[20.7063,38.7204],[20.7091,38.7188]]]}},{"type":"Feature","properties":{"landuse":"orchard"},"geometry":{"type":"Polygon","coordinates":[[[20.6852,38.8345],[20.6841,38.8327],[20.6865,38.8332],[20.6852,38.8345]]]}},{"type":"Feature","properties":{"landuse":"farmland"},"geometry":{"type":"Polygon","coordinates":[[[20.7153,38.8459],[20.7146,38.8447],[20.7172,38.8452],[20.7153,38.8459]]]}},{"type":"Feature","properties":{"landuse":"orchard"},"geometry":{"type":"Polygon","coordinates":[[[20.6775,38.6864],[20.6792,38.6878],[20.678,38.6889],[20.6775,38.6864]]]}},{"type":"Feature","properties":{"landuse":"orchard"},"geometry":{"type":"Polygon","coordinates":[[[20.6934,38.6949],[20.6903,38.6961],[20.6905,38.6899],[20.6934,38.6949]]]}},{"type":"Feature","properties":{"landuse":"orchard"},"geometry":{"type":"Polygon","coordinates":[[[20.6991,38.6922],[20.703,38.6976],[20.7014,38.699],[20.6982,38.6968],[20.6991,38.6922]]]}},{"type":"Feature","properties":{"landuse":"orchard"},"geometry":{"type":"Polygon","coordinates":[[[20.6995,38.692],[20.7011,38.692],[20.7005,38.6931],[20.6995,38.692]]]}},{"type":"Feature","properties":{"landuse":"orchard"},"geometry":{"type":"Polygon","coordinates":[[[20.702,38.6926],[20.7055,38.6957],[20.7047,38.699],[20.702,38.6926]]]}},{"type":"Feature","properties":{"landuse":"orchard"},"geometry":{"type":"Polygon","coordinates":[[[20.6972,38.6986],[20.6995,38.6989],[20.6889,38.7005],[20.6891,38.6967],[20.6927,38.6954],[20.6972,38.6986]]]}},{"type":"Feature","properties":{"landuse":"orchard"},"geometry":{"type":"Polygon","coordinates":[[[20.6881,38.6905],[20.6866,38.689],[20.6891,38.6882],[20.6881,38.6905]]]}},{"type":"Feature","properties":{"landuse":"orchard"},"geometry":{"type":"Polygon","coordinates":[[[20.7037,38.6985],[20.7036,38.7009],[20.6971,38.7008],[20.7037,38.6985]]]}},{"type":"Feature","properties":{"landuse":"farmland"},"geometry":{"type":"Polygon","coordinates":[[[20.7452,38.8365],[20.7324,38.8282],[20.7369,38.8213],[20.7339,38.816],[20.7284,38.815],[20.7324,38.8079],[20.7438,38.8172],[20.7453,38.8216],[20.7406,38.8224],[20.7416,38.8261],[20.745,38.8249],[20.7452,38.8365]]]}},{"type":"Feature","properties":{"landuse":"orchard"},"geometry":{"type":"Polygon","coordinates":[[[20.7458,38.8277],[20.747,38.8266],[20.7482,38.827],[20.7482,38.8278],[20.7458,38.8277]]]}},{"type":"Feature","properties":{"landuse":"farmland"},"geometry":{"type":"Polygon","coordinates":[[[20.7346,38.8084],[20.7327,38.8043],[20.7359,38.7987],[20.743,38.8011],[20.7422,38.794],[20.7564,38.7969],[20.7674,38.8033],[20.7532,38.8078],[20.7437,38.817],[20.7346,38.8084]]]}},{"type":"Feature","properties":{"landuse":"orchard"},"geometry":{"type":"Polygon","coordinates":[[[20.7359,38.8112],[20.736,38.8105],[20.7401,38.8103],[20.7359,38.8112]]]}},{"type":"Feature","properties":{"landuse":"farmland"},"geometry":{"type":"Polygon","coordinates":[[[20.7464,38.814],[20.7552,38.8235],[20.7438,38.8201],[20.7464,38.814]]]}},{"type":"Feature","properties":{"landuse":"orchard"},"geometry":{"type":"Polygon","coordinates":[[[20.7511,38.8284],[20.7496,38.8288],[20.7492,38.8274],[20.7511,38.8284]]]}},{"type":"Feature","properties":{"landuse":"orchard"},"geometry":{"type":"Polygon","coordinates":[[[20.7475,38.8289],[20.7491,38.8309],[20.7464,38.8334],[20.7475,38.8289]]]}},{"type":"Feature","properties":{"landuse":"farmland"},"geometry":{"type":"Polygon","coordinates":[[[20.7457,38.8294],[20.7456,38.828],[20.7474,38.8284],[20.7457,38.8294]]]}},{"type":"Feature","properties":{"landuse":"farmland"},"geometry":{"type":"Polygon","coordinates":[[[20.7459,38.8298],[20.7472,38.8307],[20.7463,38.8312],[20.7459,38.8298]]]}},{"type":"Feature","properties":{"landuse":"orchard"},"geometry":{"type":"Polygon","coordinates":[[[20.7003,38.6998],[20.6971,38.7007],[20.6994,38.7058],[20.6909,38.7017],[20.7003,38.6998]]]}},{"type":"Feature","properties":{"landuse":"orchard"},"geometry":{"type":"Polygon","coordinates":[[[20.6904,38.7023],[20.6934,38.7041],[20.691,38.7041],[20.6904,38.7023]]]}},{"type":"Feature","properties":{"landuse":"orchard"},"geometry":{"type":"Polygon","coordinates":[[[20.8623,37.7394],[20.8693,37.7353],[20.8672,37.7397],[20.8623,37.7394]]]}},{"type":"Feature","properties":{"landuse":"orchard"},"geometry":{"type":"Polygon","coordinates":[[[20.8565,37.7422],[20.8575,37.7443],[20.8566,37.7444],[20.8565,37.7422]]]}},{"type":"Feature","properties":{"landuse":"orchard"},"geometry":{"type":"Polygon","coordinates":[[[20.8566,37.7364],[20.8598,37.7396],[20.8559,37.7381],[20.8566,37.7364]]]}},{"type":"Feature","properties":{"landuse":"orchard"},"geometry":{"type":"Polygon","coordinates":[[[20.8553,37.7338],[20.8591,37.7345],[20.8614,37.738],[20.8553,37.7338]]]}},{"type":"Feature","properties":{"landuse":"orchard"},"geometry":{"type":"Polygon","coordinates":[[[20.8553,37.749],[20.8566,37.7475],[20.8582,37.7497],[20.8553,37.749]]]}},{"type":"Feature","properties":{"landuse":"farmland"},"geometry":{"type":"Polygon","coordinates":[[[20.8572,37.7469],[20.8599,37.7466],[20.8619,37.7487],[20.8572,37.7469]]]}},{"type":"Feature","properties":{"landuse":"farmland"},"geometry":{"type":"Polygon","coordinates":[[[20.8596,37.7429],[20.8575,37.7443],[20.8572,37.7428],[20.8596,37.7429]]]}},{"type":"Feature","properties":{"landuse":"farmland"},"geometry":{"type":"Polygon","coordinates":[[[19.9165,39.598],[19.9176,39.5981],[19.9161,39.5991],[19.9165,39.598]]]}},{"type":"Feature","properties":{"landuse":"farmland"},"geometry":{"type":"Polygon","coordinates":[[[19.9168,39.6003],[19.9189,39.6004],[19.918,39.6015],[19.9168,39.6003]]]}},{"type":"Feature","properties":{"landuse":"farmland"},"geometry":{"type":"Polygon","coordinates":[[[19.9168,39.6026],[19.9191,39.6024],[19.9179,39.6039],[19.9168,39.6026]]]}},{"type":"Feature","properties":{"landuse":"orchard"},"geometry":{"type":"Polygon","coordinates":[[[19.9113,39.5745],[19.908,39.5766],[19.9095,39.5741],[19.9113,39.5745]]]}},{"type":"Feature","properties":{"landuse":"orchard"},"geometry":{"type":"Polygon","coordinates":[[[19.9073,39.5792],[19.9081,39.5806],[19.9061,39.5823],[19.9073,39.5792]]]}},{"type":"Feature","properties":{"landuse":"orchard"},"geometry":{"type":"Polygon","coordinates":[[[19.9014,39.5787],[19.8979,39.5781],[19.8995,39.5761],[19.9014,39.5787]]]}},{"type":"Feature","properties":{"landuse":"orchard"},"geometry":{"type":"Polygon","coordinates":[[[19.9032,39.5839],[19.8998,39.5854],[19.9006,39.5831],[19.9032,39.5839]]]}},{"type":"Feature","properties":{"landuse":"orchard"},"geometry":{"type":"Polygon","coordinates":[[[19.9633,39.4596],[19.9654,39.4613],[19.9568,39.4609],[19.9588,39.4616],[19.9491,39.4682],[19.9488,39.4646],[19.9528,39.4623],[19.9501,39.4584],[19.9633,39.4596]]]}},{"type":"Feature","properties":{"landuse":"orchard"},"geometry":{"type":"Polygon","coordinates":[[[19.955,39.4674],[19.9562,39.4632],[19.9592,39.4659],[19.955,39.4674]]]}},{"type":"Feature","properties":{"landuse":"orchard"},"geometry":{"type":"Polygon","coordinates":[[[19.9485,39.463],[19.9457,39.4638],[19.9455,39.4632],[19.9485,39.463]]]}},{"type":"Feature","properties":{"landuse":"orchard"},"geometry":{"type":"Polygon","coordinates":[[[19.9466,39.4683],[19.9385,39.468],[19.9433,39.4629],[19.9482,39.4666],[19.9466,39.4683]]]}},{"type":"Feature","properties":{"landuse":"orchard"},"geometry":{"type":"Polygon","coordinates":[[[19.9416,39.4636],[19.9407,39.4629],[19.9433,39.4628],[19.9416,39.4636]]]}},{"type":"Feature","properties":{"landuse":"orchard"},"geometry":{"type":"Polygon","coordinates":[[[19.9376,39.471],[19.9365,39.471],[19.9371,39.4698],[19.9376,39.471]]]}},{"type":"Feature","properties":{"landuse":"farmland"},"geometry":{"type":"Polygon","coordinates":[[[20.7141,38.7941],[20.7135,38.7963],[20.7113,38.7962],[20.7141,38.7941]]]}},{"type":"Feature","properties":{"landuse":"orchard"},"geometry":{"type":"Polygon","coordinates":[[[20.7135,38.7963],[20.7137,38.7951],[20.7154,38.7957],[20.7135,38.7963]]]}},{"type":"Feature","properties":{"landuse":"farmland"},"geometry":{"type":"Polygon","coordinates":[[[20.7132,38.7978],[20.7122,38.7973],[20.7142,38.7974],[20.7132,38.7978]]]}},{"type":"Feature","properties":{"landuse":"farmland"},"geometry":{"type":"Polygon","coordinates":[[[20.7165,38.7977],[20.7156,38.7974],[20.7161,38.796],[20.7165,38.7977]]]}},{"type":"Feature","properties":{"landuse":"orchard"},"geometry":{"type":"Polygon","coordinates":[[[20.7086,38.8019],[20.7084,38.7993],[20.7136,38.8005],[20.7114,38.8009],[20.7132,38.8032],[20.7086,38.8019]]]}},{"type":"Feature","properties":{"landuse":"farmland"},"geometry":{"type":"Polygon","coordinates":[[[20.7167,38.802],[20.7159,38.8006],[20.7179,38.8005],[20.7167,38.802]]]}},{"type":"Feature","properties":{"landuse":"farmland"},"geometry":{"type":"Polygon","coordinates":[[[20.7167,38.8021],[20.7191,38.8041],[20.7175,38.804],[20.7167,38.8021]]]}},{"type":"Feature","properties":{"landuse":"orchard"},"geometry":{"type":"Polygon","coordinates":[[[20.694,38.7046],[20.6949,38.7038],[20.6965,38.7054],[20.694,38.7046]]]}},{"type":"Feature","properties":{"landuse":"orchard"},"geometry":{"type":"Polygon","coordinates":[[[20.6935,38.7043],[20.6958,38.7058],[20.6946,38.7077],[20.6935,38.7043]]]}},{"type":"Feature","properties":{"landuse":"orchard"},"geometry":{"type":"Polygon","coordinates":[[[20.6994,38.7063],[20.7008,38.7056],[20.7009,38.7062],[20.6994,38.7063]]]}},{"type":"Feature","properties":{"landuse":"orchard"},"geometry":{"type":"Polygon","coordinates":[[[20.7031,38.7044],[20.703,38.7057],[20.7015,38.7055],[20.7031,38.7044]]]}},{"type":"Feature","properties":{"landuse":"orchard"},"geometry":{"type":"Polygon","coordinates":[[[20.7031,38.7073],[20.7051,38.7097],[20.703,38.7123],[20.6975,38.7115],[20.7022,38.7084],[20.7009,38.7063],[20.7031,38.7073]]]}},{"type":"Feature","properties":{"landuse":"orchard"},"geometry":{"type":"Polygon","coordinates":[[[20.7047,38.7122],[20.707,38.7118],[20.7091,38.7132],[20.7047,38.7122]]]}},{"type":"Feature","properties":{"landuse":"orchard"},"geometry":{"type":"Polygon","coordinates":[[[20.703,38.7128],[20.7074,38.7134],[20.7046,38.7142],[20.703,38.7128]]]}},{"type":"Feature","properties":{"landuse":"orchard"},"geometry":{"type":"Polygon","coordinates":[[[20.711,38.7148],[20.7103,38.7134],[20.7138,38.7124],[20.711,38.7148]]]}},{"type":"Feature","properties":{"landuse":"orchard"},"geometry":{"type":"Polygon","coordinates":[[[20.7093,38.7132],[20.7089,38.7123],[20.7108,38.712],[20.7093,38.7132]]]}},{"type":"Feature","properties":{"landuse":"orchard"},"geometry":{"type":"Polygon","coordinates":[[[20.7003,38.7145],[20.7017,38.7126],[20.7027,38.7131],[20.7003,38.7145]]]}},{"type":"Feature","properties":{"landuse":"orchard"},"geometry":{"type":"Polygon","coordinates":[[[20.7033,38.7146],[20.7017,38.7145],[20.703,38.7129],[20.7033,38.7146]]]}},{"type":"Feature","properties":{"landuse":"orchard"},"geometry":{"type":"Polygon","coordinates":[[[20.7017,38.7157],[20.7037,38.7147],[20.7063,38.7154],[20.7017,38.7157]]]}},{"type":"Feature","properties":{"landuse":"orchard"},"geometry":{"type":"Polygon","coordinates":[[[20.7096,38.7138],[20.7037,38.7146],[20.7087,38.7133],[20.7096,38.7138]]]}},{"type":"Feature","properties":{"landuse":"orchard"},"geometry":{"type":"Polygon","coordinates":[[[20.7095,38.714],[20.7066,38.7153],[20.707,38.7144],[20.7095,38.714]]]}},{"type":"Feature","properties":{"landuse":"orchard"},"geometry":{"type":"Polygon","coordinates":[[[20.707,38.7165],[20.7061,38.7155],[20.7099,38.7147],[20.707,38.7165]]]}},{"type":"Feature","properties":{"landuse":"orchard"},"geometry":{"type":"Polygon","coordinates":[[[20.6977,38.7123],[20.702,38.7123],[20.6993,38.7143],[20.6977,38.7123]]]}},{"type":"Feature","properties":{"landuse":"orchard"},"geometry":{"type":"Polygon","coordinates":[[[20.6973,38.7115],[20.698,38.7064],[20.7004,38.7068],[20.6973,38.7115]]]}},{"type":"Feature","properties":{"landuse":"orchard"},"geometry":{"type":"Polygon","coordinates":[[[20.6899,38.7074],[20.6924,38.7073],[20.6913,38.7081],[20.6899,38.7074]]]}},{"type":"Feature","properties":{"landuse":"orchard"},"geometry":{"type":"Polygon","coordinates":[[[20.6961,38.7121],[20.6878,38.7129],[20.6957,38.707],[20.6961,38.7121]]]}},{"type":"Feature","properties":{"landuse":"orchard"},"geometry":{"type":"Polygon","coordinates":[[[20.693,38.7133],[20.6967,38.7143],[20.6946,38.7159],[20.693,38.7133]]]}},{"type":"Feature","properties":{"landuse":"orchard"},"geometry":{"type":"Polygon","coordinates":[[[20.6971,38.7159],[20.6998,38.716],[20.6986,38.7229],[20.7014,38.7225],[20.6977,38.7238],[20.6951,38.7213],[20.6971,38.7159]]]}},{"type":"Feature","properties":{"landuse":"orchard"},"geometry":{"type":"Polygon","coordinates":[[[20.6946,38.7204],[20.6933,38.7196],[20.6951,38.7192],[20.6946,38.7204]]]}},{"type":"Feature","properties":{"landuse":"orchard"},"geometry":{"type":"Polygon","coordinates":[[[20.7076,38.7164],[20.7103,38.7153],[20.7093,38.7166],[20.7076,38.7164]]]}},{"type":"Feature","properties":{"landuse":"orchard"},"geometry":{"type":"Polygon","coordinates":[[[20.7128,38.7181],[20.7138,38.7169],[20.7152,38.7181],[20.7128,38.7181]]]}},{"type":"Feature","properties":{"landuse":"orchard"},"geometry":{"type":"Polygon","coordinates":[[[20.6844,38.7126],[20.6822,38.713],[20.6832,38.7123],[20.6844,38.7126]]]}},{"type":"Feature","properties":{"landuse":"orchard"},"geometry":{"type":"Polygon","coordinates":[[[20.6883,38.7107],[20.6883,38.7087],[20.6895,38.7084],[20.6883,38.7107]]]}},{"type":"Feature","properties":{"landuse":"orchard"},"geometry":{"type":"Polygon","coordinates":[[[20.6806,38.7123],[20.6837,38.7095],[20.6789,38.7084],[20.6805,38.707],[20.6839,38.7084],[20.6838,38.7122],[20.6806,38.7123]]]}},{"type":"Feature","properties":{"landuse":"orchard"},"geometry":{"type":"Polygon","coordinates":[[[20.6816,38.7136],[20.6798,38.7134],[20.6798,38.7122],[20.6816,38.7136]]]}},{"type":"Feature","properties":{"landuse":"orchard"},"geometry":{"type":"Polygon","coordinates":[[[20.5974,38.6464],[20.5961,38.6454],[20.5957,38.6423],[20.5974,38.6464]]]}},{"type":"Feature","properties":{"landuse":"orchard"},"geometry":{"type":"Polygon","coordinates":[[[20.7073,38.798],[20.7063,38.7953],[20.7113,38.7962],[20.7073,38.798]]]}},{"type":"Feature","properties":{"landuse":"orchard"},"geometry":{"type":"Polygon","coordinates":[[[20.7113,38.7993],[20.7114,38.797],[20.7131,38.7982],[20.7113,38.7993]]]}},{"type":"Feature","properties":{"landuse":"orchard"},"geometry":{"type":"Polygon","coordinates":[[[20.0805,39.378],[20.0829,39.3799],[20.0809,39.3824],[20.0797,39.3768],[20.0824,39.3764],[20.0805,39.378]]]}},{"type":"Feature","properties":{"landuse":"orchard"},"geometry":{"type":"Polygon","coordinates":[[[20.0827,39.3824],[20.087,39.3786],[20.0882,39.3816],[20.0827,39.3824]]]}},{"type":"Feature","properties":{"landuse":"orchard"},"geometry":{"type":"Polygon","coordinates":[[[20.0795,39.3793],[20.0772,39.3781],[20.0781,39.3766],[20.0795,39.3793]]]}},{"type":"Feature","properties":{"landuse":"orchard"},"geometry":{"type":"Polygon","coordinates":[[[20.0812,39.3725],[20.084,39.3719],[20.084,39.374],[20.0812,39.3725]]]}},{"type":"Feature","properties":{"landuse":"orchard"},"geometry":{"type":"Polygon","coordinates":[[[20.0843,39.375],[20.0867,39.3741],[20.0852,39.3761],[20.0843,39.375]]]}},{"type":"Feature","properties":{"landuse":"orchard"},"geometry":{"type":"Polygon","coordinates":[[[20.0877,39.3776],[20.0861,39.3766],[20.0882,39.3767],[20.0877,39.3776]]]}},{"type":"Feature","properties":{"landuse":"orchard"},"geometry":{"type":"Polygon","coordinates":[[[20.0843,39.3776],[20.0833,39.3779],[20.0828,39.376],[20.0841,39.3761],[20.0843,39.3776]]]}},{"type":"Feature","properties":{"landuse":"orchard"},"geometry":{"type":"Polygon","coordinates":[[[20.0864,39.3728],[20.0863,39.3713],[20.0876,39.3726],[20.0864,39.3728]]]}},{"type":"Feature","properties":{"landuse":"orchard"},"geometry":{"type":"Polygon","coordinates":[[[20.0696,39.3771],[20.0757,39.376],[20.0731,39.3778],[20.0761,39.3788],[20.0748,39.3809],[20.0717,39.38],[20.0782,39.3813],[20.0762,39.385],[20.0712,39.385],[20.0746,39.3868],[20.0722,39.3902],[20.0674,39.3845],[20.0729,39.3824],[20.0671,39.3812],[20.0638,39.3861],[20.0661,39.38],[20.0692,39.3806],[20.0692,39.3783],[20.0664,39.3793],[20.0743,39.3796],[20.0696,39.3771]]]}},{"type":"Feature","properties":{"landuse":"orchard"},"geometry":{"type":"Polygon","coordinates":[[[20.0764,39.3768],[20.078,39.3795],[20.0769,39.3804],[20.0764,39.3768]]]}},{"type":"Feature","properties":{"landuse":"orchard"},"geometry":{"type":"Polygon","coordinates":[[[20.0765,39.3845],[20.0812,39.3848],[20.0765,39.3922],[20.0741,39.391],[20.0765,39.3845]]]}},{"type":"Feature","properties":{"landuse":"orchard"},"geometry":{"type":"Polygon","coordinates":[[[20.0709,39.3898],[20.0723,39.3919],[20.0695,39.3923],[20.0709,39.3898]]]}},{"type":"Feature","properties":{"landuse":"orchard"},"geometry":{"type":"Polygon","coordinates":[[[20.0763,39.3927],[20.0748,39.3934],[20.0738,39.3927],[20.0763,39.3927]]]}},{"type":"Feature","properties":{"landuse":"orchard"},"geometry":{"type":"Polygon","coordinates":[[[20.0716,39.3945],[20.0752,39.3939],[20.0735,39.3957],[20.0716,39.3945]]]}},{"type":"Feature","properties":{"landuse":"orchard"},"geometry":{"type":"Polygon","coordinates":[[[20.0622,39.3902],[20.0596,39.3861],[20.0648,39.3883],[20.0622,39.3902]]]}},{"type":"Feature","properties":{"landuse":"orchard"},"geometry":{"type":"Polygon","coordinates":[[[20.0656,39.3947],[20.0671,39.3935],[20.0682,39.3945],[20.0656,39.3947]]]}},{"type":"Feature","properties":{"landuse":"orchard"},"geometry":{"type":"Polygon","coordinates":[[[20.0583,39.3958],[20.0615,39.3949],[20.06,39.3959],[20.0583,39.3958]]]}},{"type":"Feature","properties":{"landuse":"orchard"},"geometry":{"type":"Polygon","coordinates":[[[20.0606,39.3964],[20.0609,39.3953],[20.0623,39.3974],[20.0606,39.3964]]]}},{"type":"Feature","properties":{"landuse":"orchard"},"geometry":{"type":"Polygon","coordinates":[[[20.0632,39.3941],[20.0618,39.3962],[20.0596,39.394],[20.0632,39.3941]]]}},{"type":"Feature","properties":{"landuse":"orchard"},"geometry":{"type":"Polygon","coordinates":[[[20.0529,39.397],[20.0577,39.3995],[20.0655,39.3958],[20.0669,39.4044],[20.0633,39.4075],[20.0529,39.397]]]}},{"type":"Feature","properties":{"landuse":"orchard"},"geometry":{"type":"Polygon","coordinates":[[[20.0674,39.4078],[20.0645,39.4123],[20.064,39.4083],[20.0674,39.4078]]]}},{"type":"Feature","properties":{"landuse":"orchard"},"geometry":{"type":"Polygon","coordinates":[[[20.085,39.4204],[20.0945,39.4197],[20.0886,39.4204],[20.0927,39.4219],[20.0902,39.4234],[20.0846,39.4225],[20.085,39.4204]]]}},{"type":"Feature","properties":{"landuse":"orchard"},"geometry":{"type":"Polygon","coordinates":[[[20.0887,39.4147],[20.0868,39.4135],[20.089,39.4133],[20.0887,39.4147]]]}},{"type":"Feature","properties":{"landuse":"orchard"},"geometry":{"type":"Polygon","coordinates":[[[20.0869,39.4154],[20.0826,39.4125],[20.0868,39.4133],[20.0869,39.4154]]]}},{"type":"Feature","properties":{"landuse":"orchard"},"geometry":{"type":"Polygon","coordinates":[[[19.9059,39.5658],[19.9069,39.5648],[19.9069,39.566],[19.9059,39.5658]]]}},{"type":"Feature","properties":{"landuse":"orchard"},"geometry":{"type":"Polygon","coordinates":[[[19.9194,39.5322],[19.9175,39.5321],[19.9195,39.5314],[19.9194,39.5322]]]}},{"type":"Feature","properties":{"landuse":"orchard"},"geometry":{"type":"Polygon","coordinates":[[[19.8909,39.5408],[19.8918,39.5396],[19.8945,39.5396],[19.8909,39.5408]]]}},{"type":"Feature","properties":{"landuse":"orchard"},"geometry":{"type":"Polygon","coordinates":[[[19.8889,39.5401],[19.8897,39.539],[19.8899,39.5403],[19.8889,39.5401]]]}},{"type":"Feature","properties":{"landuse":"orchard"},"geometry":{"type":"Polygon","coordinates":[[[19.8914,39.5379],[19.8876,39.5351],[19.8881,39.5307],[19.8948,39.5332],[19.8916,39.5341],[19.8914,39.5379]]]}},{"type":"Feature","properties":{"landuse":"orchard"},"geometry":{"type":"Polygon","coordinates":[[[19.8938,39.466],[19.8981,39.4648],[19.8968,39.4631],[19.8989,39.4648],[19.9035,39.4588],[19.9052,39.4604],[19.9061,39.4629],[19.8997,39.4657],[19.9027,39.4673],[19.8981,39.4658],[19.8993,39.4691],[19.8966,39.4668],[19.8995,39.4712],[19.892,39.4699],[19.8938,39.466]]]}},{"type":"Feature","properties":{"landuse":"orchard"},"geometry":{"type":"Polygon","coordinates":[[[19.9013,39.4642],[19.9023,39.4657],[19.9004,39.4653],[19.9013,39.4642]]]}},{"type":"Feature","properties":{"landuse":"orchard"},"geometry":{"type":"Polygon","coordinates":[[[19.9047,39.4674],[19.9079,39.4686],[19.9035,39.4724],[19.9047,39.4674]]]}}]}