{"type":"FeatureCollection","features":[{"type":"Feature","properties":{"landuse":"vineyard"},"geometry":{"type":"Polygon","coordinates":[[[7.815,45.5843],[7.8158,45.5802],[7.8191,45.5817],[7.815,45.5843]],[[7.8173,45.5831],[7.8177,45.5829],[7.8174,45.5827],[7.8173,45.5831]],[[7.8178,45.5827],[7.8181,45.5828],[7.8183,45.5825],[7.8178,45.5827]]]}},{"type":"Feature","properties":{"landuse":"vineyard"},"geometry":{"type":"Polygon","coordinates":[[[7.7722,45.6086],[7.7734,45.6083],[7.7713,45.6102],[7.7722,45.6086]],[[7.7711,45.6094],[7.7716,45.6098],[7.7726,45.6092],[7.7711,45.6094]]]}},{"type":"Feature","properties":{"landuse":"vineyard"},"geometry":{"type":"Polygon","coordinates":[[[7.8145,45.5785],[7.8157,45.582],[7.8083,45.5837],[7.8094,45.5797],[7.8145,45.5785]],[[7.8136,45.5801],[7.8138,45.5788],[7.8129,45.5795],[7.8136,45.5801]]]}},{"type":"Feature","properties":{"landuse":"greenhouse_horticulture"},"geometry":{"type":"Polygon","coordinates":[[[7.6868,45.6553],[7.6883,45.6557],[7.687,45.6563],[7.6868,45.6553]],[[7.6879,45.6564],[7.6882,45.6566],[7.6882,45.6564],[7.6879,45.6564]],[[7.6877,45.6563],[7.6878,45.6564],[7.6879,45.6563],[7.6877,45.6563]],[[7.6876,45.6563],[7.6877,45.6563],[7.6878,45.6562],[7.6876,45.6563]]]}},{"type":"Feature","properties":{"landuse":"vineyard"},"geometry":{"type":"Polygon","coordinates":[[[7.4247,45.7417],[7.4248,45.7407],[7.4275,45.7417],[7.4247,45.7417]]]}},{"type":"Feature","properties":{"landuse":"green_public_spaces"},"geometry":{"type":"Polygon","coordinates":[[[7.3543,45.7351],[7.3591,45.7329],[7.3593,45.7356],[7.3543,45.7351]]]}},{"type":"Feature","properties":{"landuse":"green_public_spaces"},"geometry":{"type":"Polygon","coordinates":[[[7.4903,45.7383],[7.4921,45.7389],[7.4899,45.7397],[7.4903,45.7383]]]}},{"type":"Feature","properties":{"landuse":"vineyard"},"geometry":{"type":"Polygon","coordinates":[[[7.7384,45.6208],[7.7401,45.6206],[7.7394,45.6213],[7.7384,45.6208]]]}},{"type":"Feature","properties":{"landuse":"green_public_spaces"},"geometry":{"type":"Polygon","coordinates":[[[7.6529,45.7504],[7.6531,45.7483],[7.6563,45.7496],[7.6529,45.7504]]]}},{"type":"Feature","properties":{"landuse":"green_public_spaces"},"geometry":{"type":"Polygon","coordinates":[[[7.3344,45.7516],[7.3289,45.7514],[7.334,45.7477],[7.3344,45.7516]]]}},{"type":"Feature","properties":{"landuse":"vineyard"},"geometry":{"type":"Polygon","coordinates":[[[7.4645,45.7434],[7.4707,45.7432],[7.4693,45.7437],[7.4645,45.7434]]]}},{"type":"Feature","properties":{"landuse":"green_public_spaces"},"geometry":{"type":"Polygon","coordinates":[[[7.6919,45.6716],[7.6904,45.67],[7.6931,45.6707],[7.6919,45.6716]]]}},{"type":"Feature","properties":{"landuse":"vineyard"},"geometry":{"type":"Polygon","coordinates":[[[7.8068,45.5872],[7.8051,45.5864],[7.8094,45.586],[7.8068,45.5872]]]}},{"type":"Feature","properties":{"landuse":"vineyard"},"geometry":{"type":"Polygon","coordinates":[[[7.8078,45.5872],[7.817,45.5849],[7.8128,45.5873],[7.8078,45.5872]]]}},{"type":"Feature","properties":{"landuse":"vineyard"},"geometry":{"type":"Polygon","coordinates":[[[7.8134,45.582],[7.8145,45.5812],[7.8143,45.5827],[7.8124,45.5824],[7.8134,45.582]]]}},{"type":"Feature","properties":{"landuse":"vineyard"},"geometry":{"type":"Polygon","coordinates":[[[7.8173,45.5813],[7.8166,45.5797],[7.8186,45.5806],[7.8173,45.5813]]]}},{"type":"Feature","properties":{"landuse":"vineyard"},"geometry":{"type":"Polygon","coordinates":[[[7.809,45.5893],[7.8135,45.5875],[7.8099,45.5899],[7.809,45.5893]]]}},{"type":"Feature","properties":{"landuse":"farmland"},"geometry":{"type":"Polygon","coordinates":[[[7.7981,45.5856],[7.7971,45.5838],[7.7993,45.5826],[7.7981,45.5856]]]}},{"type":"Feature","properties":{"landuse":"farmland"},"geometry":{"type":"Polygon","coordinates":[[[7.8015,45.5826],[7.8017,45.5808],[7.8031,45.5822],[7.8015,45.5826]]]}},{"type":"Feature","properties":{"landuse":"farmland"},"geometry":{"type":"Polygon","coordinates":[[[7.7998,45.5836],[7.7999,45.582],[7.8022,45.5828],[7.7998,45.5836]]]}},{"type":"Feature","properties":{"landuse":"vineyard"},"geometry":{"type":"Polygon","coordinates":[[[7.8155,45.5714],[7.8183,45.571],[7.8166,45.5727],[7.8155,45.5714]]]}},{"type":"Feature","properties":{"landuse":"green_public_spaces"},"geometry":{"type":"Polygon","coordinates":[[[7.5286,45.7667],[7.5281,45.7638],[7.532,45.765],[7.5286,45.7667]]]}},{"type":"Feature","properties":{"landuse":"vineyard"},"geometry":{"type":"Polygon","coordinates":[[[7.6797,45.6792],[7.6789,45.6776],[7.6813,45.6778],[7.6797,45.6792]]]}},{"type":"Feature","properties":{"landuse":"vineyard"},"geometry":{"type":"Polygon","coordinates":[[[7.4834,45.7335],[7.4845,45.7317],[7.4847,45.733],[7.4834,45.7335]]]}},{"type":"Feature","properties":{"landuse":"vineyard"},"geometry":{"type":"Polygon","coordinates":[[[7.6734,45.6846],[7.6738,45.6831],[7.6748,45.6843],[7.6734,45.6846]]]}},{"type":"Feature","properties":{"landuse":"vineyard"},"geometry":{"type":"Polygon","coordinates":[[[7.6751,45.7097],[7.678,45.7071],[7.6774,45.7099],[7.6808,45.7099],[7.673,45.7154],[7.677,45.7091],[7.6751,45.7097]]]}},{"type":"Feature","properties":{"landuse":"vineyard"},"geometry":{"type":"Polygon","coordinates":[[[7.6785,45.7079],[7.6785,45.7069],[7.6808,45.7072],[7.6785,45.7079]]]}},{"type":"Feature","properties":{"landuse":"vineyard"},"geometry":{"type":"Polygon","coordinates":[[[7.6763,45.7327],[7.6749,45.7331],[7.6763,45.7313],[7.6763,45.7327]]]}},{"type":"Feature","properties":{"landuse":"greenhouse_horticulture"},"geometry":{"type":"Polygon","coordinates":[[[7.494,45.7429],[7.4956,45.7414],[7.497,45.7431],[7.494,45.7429]]]}},{"type":"Feature","properties":{"landuse":"vineyard"},"geometry":{"type":"Polygon","coordinates":[[[7.7881,45.6046],[7.7849,45.6046],[7.7959,45.6031],[7.7881,45.6046]]]}},{"type":"Feature","properties":{"landuse":"vineyard"},"geometry":{"type":"Polygon","coordinates":[[[7.7781,45.6055],[7.7816,45.605],[7.7802,45.6059],[7.7781,45.6055]]]}},{"type":"Feature","properties":{"landuse":"vineyard"},"geometry":{"type":"Polygon","coordinates":[[[7.7132,45.6529],[7.7129,45.6517],[7.7141,45.6522],[7.7132,45.6529]]]}},{"type":"Feature","properties":{"landuse":"vineyard"},"geometry":{"type":"Polygon","coordinates":[[[7.7148,45.6519],[7.7128,45.6515],[7.7147,45.65],[7.7148,45.6519]]]}},{"type":"Feature","properties":{"landuse":"vineyard"},"geometry":{"type":"Polygon","coordinates":[[[7.7282,45.6405],[7.7309,45.6394],[7.7278,45.6417],[7.7282,45.6405]]]}},{"type":"Feature","properties":{"landuse":"vineyard"},"geometry":{"type":"Polygon","coordinates":[[[7.4947,45.7318],[7.4932,45.7324],[7.4954,45.7305],[7.4947,45.7318]]]}},{"type":"Feature","properties":{"landuse":"vineyard"},"geometry":{"type":"Polygon","coordinates":[[[7.7402,45.6183],[7.7403,45.6197],[7.7389,45.6204],[7.7402,45.6183]]]}},{"type":"Feature","properties":{"landuse":"vineyard"},"geometry":{"type":"Polygon","coordinates":[[[7.7736,45.6063],[7.7776,45.6053],[7.7683,45.6073],[7.7736,45.6063]]]}},{"type":"Feature","properties":{"landuse":"vineyard"},"geometry":{"type":"Polygon","coordinates":[[[7.7849,45.6035],[7.7795,45.6052],[7.7909,45.6015],[7.7849,45.6035]]]}},{"type":"Feature","properties":{"landuse":"vineyard"},"geometry":{"type":"Polygon","coordinates":[[[7.7779,45.6044],[7.779,45.6039],[7.7798,45.6046],[7.7779,45.6044]]]}},{"type":"Feature","properties":{"landuse":"vineyard"},"geometry":{"type":"Polygon","coordinates":[[[7.7665,45.607],[7.7646,45.6053],[7.7683,45.6061],[7.7665,45.607]]]}},{"type":"Feature","properties":{"landuse":"vineyard"},"geometry":{"type":"Polygon","coordinates":[[[7.765,45.6073],[7.7665,45.6085],[7.7644,45.6085],[7.765,45.6073]]]}},{"type":"Feature","properties":{"landuse":"vineyard"},"geometry":{"type":"Polygon","coordinates":[[[7.7644,45.6053],[7.765,45.6073],[7.7611,45.6066],[7.7644,45.6053]]]}},{"type":"Feature","properties":{"landuse":"vineyard"},"geometry":{"type":"Polygon","coordinates":[[[7.7751,45.6058],[7.7722,45.6057],[7.7752,45.6043],[7.7751,45.6058]]]}},{"type":"Feature","properties":{"landuse":"vineyard"},"geometry":{"type":"Polygon","coordinates":[[[7.7655,45.6076],[7.7702,45.6077],[7.768,45.6085],[7.7655,45.6076]]]}},{"type":"Feature","properties":{"landuse":"vineyard"},"geometry":{"type":"Polygon","coordinates":[[[7.797,45.6033],[7.8,45.6034],[7.7986,45.6049],[7.797,45.6033]]]}},{"type":"Feature","properties":{"landuse":"vineyard"},"geometry":{"type":"Polygon","coordinates":[[[7.7991,45.6008],[7.7978,45.6003],[7.8023,45.6001],[7.7991,45.6008]]]}},{"type":"Feature","properties":{"landuse":"vineyard"},"geometry":{"type":"Polygon","coordinates":[[[7.7914,45.6032],[7.7933,45.6026],[7.7906,45.6024],[7.7959,45.602],[7.7914,45.6032]]]}},{"type":"Feature","properties":{"landuse":"farmland"},"geometry":{"type":"Polygon","coordinates":[[[7.347,45.7534],[7.3462,45.7522],[7.3482,45.7524],[7.347,45.7534]]]}},{"type":"Feature","properties":{"landuse":"vineyard"},"geometry":{"type":"Polygon","coordinates":[[[7.8142,45.5693],[7.8151,45.5677],[7.8168,45.5676],[7.8142,45.5693]]]}},{"type":"Feature","properties":{"landuse":"farmland"},"geometry":{"type":"Polygon","coordinates":[[[7.3516,45.7431],[7.3545,45.7427],[7.354,45.7446],[7.3516,45.7431]]]}},{"type":"Feature","properties":{"landuse":"farmland"},"geometry":{"type":"Polygon","coordinates":[[[7.3475,45.7412],[7.3531,45.7399],[7.3513,45.7435],[7.3475,45.7412]]]}},{"type":"Feature","properties":{"landuse":"farmland"},"geometry":{"type":"Polygon","coordinates":[[[7.3653,45.7432],[7.3675,45.7448],[7.3654,45.7445],[7.3653,45.7432]]]}},{"type":"Feature","properties":{"landuse":"farmland"},"geometry":{"type":"Polygon","coordinates":[[[7.3679,45.7451],[7.3691,45.742],[7.3782,45.7426],[7.3744,45.7462],[7.3679,45.7451]]]}},{"type":"Feature","properties":{"landuse":"vineyard"},"geometry":{"type":"Polygon","coordinates":[[[7.3439,45.7459],[7.3481,45.7461],[7.346,45.7477],[7.3439,45.7459]]]}},{"type":"Feature","properties":{"landuse":"vineyard"},"geometry":{"type":"Polygon","coordinates":[[[7.3544,45.7475],[7.3568,45.7471],[7.3551,45.7485],[7.3544,45.7475]]]}},{"type":"Feature","properties":{"landuse":"vineyard"},"geometry":{"type":"Polygon","coordinates":[[[7.3437,45.7486],[7.3452,45.7475],[7.3476,45.7489],[7.3437,45.7486]]]}},{"type":"Feature","properties":{"landuse":"vineyard"},"geometry":{"type":"Polygon","coordinates":[[[7.3551,45.7498],[7.3577,45.7489],[7.3578,45.7502],[7.3551,45.7498]]]}},{"type":"Feature","properties":{"landuse":"farmland"},"geometry":{"type":"Polygon","coordinates":[[[7.3847,45.7434],[7.3856,45.7444],[7.3833,45.7443],[7.3847,45.7434]]]}},{"type":"Feature","properties":{"landuse":"farmland"},"geometry":{"type":"Polygon","coordinates":[[[7.3876,45.7439],[7.3887,45.7429],[7.3909,45.7443],[7.3876,45.7439]]]}},{"type":"Feature","properties":{"landuse":"farmland"},"geometry":{"type":"Polygon","coordinates":[[[7.4876,45.7439],[7.4904,45.7448],[7.4869,45.7446],[7.4876,45.7439]]]}},{"type":"Feature","properties":{"landuse":"vineyard"},"geometry":{"type":"Polygon","coordinates":[[[7.6787,45.6559],[7.6808,45.6551],[7.6809,45.6572],[7.6787,45.6559]]]}},{"type":"Feature","properties":{"landuse":"vineyard"},"geometry":{"type":"Polygon","coordinates":[[[7.6828,45.656],[7.6832,45.6574],[7.6802,45.6576],[7.6828,45.656]]]}},{"type":"Feature","properties":{"landuse":"vineyard"},"geometry":{"type":"Polygon","coordinates":[[[7.3714,45.7483],[7.3747,45.7463],[7.3739,45.7491],[7.3714,45.7483]]]}},{"type":"Feature","properties":{"landuse":"vineyard"},"geometry":{"type":"Polygon","coordinates":[[[7.7269,45.6282],[7.7289,45.6264],[7.7296,45.6268],[7.7269,45.6282]]]}},{"type":"Feature","properties":{"landuse":"vineyard"},"geometry":{"type":"Polygon","coordinates":[[[7.7734,45.5936],[7.772,45.5932],[7.7735,45.5926],[7.7734,45.5936]]]}},{"type":"Feature","properties":{"landuse":"vineyard"},"geometry":{"type":"Polygon","coordinates":[[[7.4846,45.7484],[7.4844,45.7471],[7.4867,45.7476],[7.4846,45.7484]]]}},{"type":"Feature","properties":{"landuse":"vineyard"},"geometry":{"type":"Polygon","coordinates":[[[7.133,45.7066],[7.1352,45.7064],[7.1338,45.7074],[7.133,45.7066]]]}},{"type":"Feature","properties":{"landuse":"farmland"},"geometry":{"type":"Polygon","coordinates":[[[7.0831,45.7325],[7.0834,45.7312],[7.0862,45.733],[7.0831,45.7325]]]}},{"type":"Feature","properties":{"landuse":"farmland"},"geometry":{"type":"Polygon","coordinates":[[[7.0801,45.7319],[7.0828,45.7322],[7.0802,45.7387],[7.0801,45.7319]]]}},{"type":"Feature","properties":{"landuse":"farmland"},"geometry":{"type":"Polygon","coordinates":[[[7.0725,45.7397],[7.0789,45.7321],[7.0798,45.7388],[7.0725,45.7397]]]}},{"type":"Feature","properties":{"landuse":"vineyard"},"geometry":{"type":"Polygon","coordinates":[[[7.4859,45.7513],[7.4836,45.7507],[7.4857,45.7504],[7.4859,45.7513]]]}},{"type":"Feature","properties":{"landuse":"farmland"},"geometry":{"type":"Polygon","coordinates":[[[7.8059,45.5658],[7.8074,45.5667],[7.8045,45.5659],[7.8059,45.5658]]]}},{"type":"Feature","properties":{"landuse":"vineyard"},"geometry":{"type":"Polygon","coordinates":[[[7.4763,45.7476],[7.4774,45.7463],[7.4791,45.7469],[7.4763,45.7476]]]}},{"type":"Feature","properties":{"landuse":"farmland"},"geometry":{"type":"Polygon","coordinates":[[[7.7886,45.5627],[7.7866,45.5631],[7.7863,45.5618],[7.7886,45.5627]]]}},{"type":"Feature","properties":{"landuse":"farmland"},"geometry":{"type":"Polygon","coordinates":[[[7.7843,45.5689],[7.7806,45.5615],[7.7877,45.5674],[7.7843,45.5689]]]}},{"type":"Feature","properties":{"landuse":"farmland"},"geometry":{"type":"Polygon","coordinates":[[[7.7799,45.562],[7.7842,45.5685],[7.7823,45.57],[7.7773,45.5664],[7.7799,45.562]]]}},{"type":"Feature","properties":{"landuse":"farmland"},"geometry":{"type":"Polygon","coordinates":[[[7.8075,45.5656],[7.8043,45.5651],[7.8052,45.5628],[7.8075,45.5656]]]}},{"type":"Feature","properties":{"landuse":"farmland"},"geometry":{"type":"Polygon","coordinates":[[[7.3495,45.751],[7.3482,45.752],[7.3455,45.7504],[7.3495,45.751]]]}},{"type":"Feature","properties":{"landuse":"vineyard"},"geometry":{"type":"Polygon","coordinates":[[[7.3705,45.7502],[7.3718,45.7496],[7.3738,45.7502],[7.3705,45.7502]]]}},{"type":"Feature","properties":{"landuse":"vineyard"},"geometry":{"type":"Polygon","coordinates":[[[7.3717,45.752],[7.3709,45.7503],[7.3738,45.7515],[7.3717,45.752]]]}},{"type":"Feature","properties":{"landuse":"vineyard"},"geometry":{"type":"Polygon","coordinates":[[[7.3777,45.7539],[7.3788,45.7527],[7.379,45.7534],[7.3777,45.7539]]]}},{"type":"Feature","properties":{"landuse":"green_public_spaces"},"geometry":{"type":"Polygon","coordinates":[[[7.5998,45.7464],[7.5987,45.7452],[7.6025,45.7457],[7.5998,45.7464]]]}},{"type":"Feature","properties":{"landuse":"farmland"},"geometry":{"type":"Polygon","coordinates":[[[7.6163,45.868],[7.6134,45.8668],[7.6124,45.8649],[7.6163,45.868]]]}}]}